"FAC_NAME","FAC_ADDRESS_ONE","LATITUDE","LONGITUDE","COUNTY","TYPE_LIC","CENS_TRACT","FAC_CITY","TYPE_SVC_PRINCIPAL","OSHPD_ID"
"CHILDRENS HOSPITAL AND RESEARCH CENTER AT OAKLAND","747 52ND STREET","37.83722","-122.26747","Alameda","General Acute Care","6001401000","OAKLAND","Pediatric","106010776"
"ALTA BATES SUMMIT MEDICAL CENTER-HERRICK CAMPUS","2001 DWIGHT WAY","37.86373","-122.26984","Alameda","General Acute Care","6001422900","BERKELEY","Psychiatric","106010844"
"KINDRED HOSPITAL - SAN FRANCISCO BAY AREA","2800 BENEDICT DRIVE","37.71621","-122.13119","Alameda","General Acute Care","6001432800","SAN LEANDRO","General Medical / Surgical","106010887"
"ALTA BATES SUMMIT MEDICAL CENTER","350 HAWTHORNE AVENUE","37.82106","-122.26257","Alameda","General Acute Care","6001401300","OAKLAND","General Medical / Surgical","106010937"
"ST. ROSE HOSPITAL","27200 CALAROGA AVENUE","37.63291","-122.08962","Alameda","General Acute Care","6001437300","HAYWARD","General Medical / Surgical","106010967"
"WASHINGTON HOSPITAL - FREMONT","2000 MOWRY AVENUE","37.55847","-121.98006","Alameda","General Acute Care","6001441924","FREMONT","General Medical / Surgical","106010987"
"SAN LEANDRO HOSPITAL","13855 EAST 14TH STREET","37.71364","-122.14067","Alameda","General Acute Care","6001433104","SAN LEANDRO","General Medical / Surgical","106013619"
"ALTA BATES SUMMIT MEDICAL CENTER - SUMMIT CAMPUS","3100 SUMMIT STREET","37.81994","-122.2643","Alameda","General Acute Care","6001401300","OAKLAND","General Medical / Surgical","106013626"
"FREMONT HOSPITAL","39001 SUNDALE DRIVE","37.54652","-121.97885","Alameda","Acute Psychiatric","6001441927","FREMONT","Psychiatric","106014034"
"STANFORD HEALTH CARE - VALLEYCARE","5555 WEST LAS POSITAS BLVD.","37.69206","-121.88095","Alameda","General Acute Care","6001450743","PLEASANTON","General Medical / Surgical","106014050"
"KAISER FOUNDATION HOSPITAL - FREMONT","39400 PASEO PADRE PARKWAY","37.55055","-121.97483","Alameda","General Acute Care","6001441925","FREMONT","General Medical / Surgical","106014132"
"SUTTER AMADOR HOSPITAL","200 MISSION BLVD","38.34743","-120.77272","Amador","General Acute Care","6005000401","JACKSON","General Medical / Surgical","106034002"
"OROVILLE HOSPITAL","2767 OLIVE HIGHWAY","39.50485","-121.5428","Butte","General Acute Care","6007003001","OROVILLE","General Medical / Surgical","106040937"
"CONTRA COSTA REGIONAL MEDICAL CENTER","2500 ALHAMBRA AVENUE","38.00646","-122.13101","Contra Costa","General Acute Care","6013318000","MARTINEZ","General Medical / Surgical","106070924"
"SUTTER DELTA MEDICAL CENTER","3901 LONE TREE WAY","37.98222","-121.8054","Contra Costa","General Acute Care","6013355109","ANTIOCH","General Medical / Surgical","106070934"
"KAISER FOUNDATION HOSPITAL - WALNUT CREEK","1425 SOUTH MAIN STREET","37.8923","-122.05828","Contra Costa","General Acute Care","6013339001","WALNUT CREEK","General Medical / Surgical","106070990"
"JOHN MUIR MEDICAL CENTER-CONCORD CAMPUS","2540 EAST STREET","37.98615","-122.03874","Contra Costa","General Acute Care","6013329000","CONCORD","General Medical / Surgical","106071018"
"JOHN MUIR BEHAVIORAL HEALTH CENTER","2740 GRANT STREET","37.98921","-122.04081","Contra Costa","Acute Psychiatric","6013327000","CONCORD","Psychiatric","106074039"
"SUTTER COAST HOSPITAL","800 EAST WASHINGTON BOULEVARD","41.77278","-124.19514","Del Norte","General Acute Care","6015000104","CRESCENT CITY","General Medical / Surgical","106084001"
"TELECARE EL DORADO COUNTY P.H.F.","935-B SPRING STREET","38.7322","-120.80275","El Dorado","Psychiatric Health Facility","6017031100","PLACERVILLE","Psychiatric","106094002"
"ADVENTIST HEALTH REEDLEY","372 WEST CYPRESS AVENUE","36.60789","-119.45145","Fresno","General Acute Care","6019006603","REEDLEY","General Medical / Surgical","106100797"
"FRESNO SURGICAL HOSPITAL","6125 NORTH FRESNO STREET","36.82531","-119.78155","Fresno","General Acute Care","6019004504","FRESNO","General Medical / Surgical","106104047"
"KAISER FOUNDATION HOSPITAL - FRESNO","7300 NORTH FRESNO STREET","36.84246","-119.7832","Fresno","General Acute Care","6019004406","FRESNO","General Medical / Surgical","106104062"
"GLENN MEDICAL CENTER","1133 WEST SYCAMORE STREET","39.52055","-122.20791","Glenn","General Acute Care","6021010400","WILLOWS","General Medical / Surgical","106110889"
"GENERAL HOSPITAL, THE","2200 HARRISON AVENUE","40.78743","-124.13979","Humboldt","General Acute Care","6023000600","EUREKA","General Medical / Surgical","106120981"
"MAD RIVER COMMUNITY HOSPITAL","3800 JANES ROAD","40.90351","-124.09038","Humboldt","General Acute Care","6023001101","ARCATA","General Medical / Surgical","106121002"
"JEROLD PHELPS COMMUNITY HOSPITAL","733 CEDAR STREET","40.10195","-123.79286","Humboldt","General Acute Care","6023011600","GARBERVILLE","Other","106121031"
"REDWOOD MEMORIAL HOSPITAL","3300 RENNER DRIVE","40.58267","-124.13549","Humboldt","General Acute Care","6023010901","FORTUNA","General Medical / Surgical","106121051"
"ST. JOSEPH HOSPITAL - EUREKA","2700 DOLBEER STREET","40.7832","-124.14216","Humboldt","General Acute Care","6023000600","EUREKA","General Medical / Surgical","106121080"
"SEMPERVIRENS P.H.F.","720 WOOD STREET","40.78109","-124.16126","Humboldt","Psychiatric Health Facility","6023000600","EUREKA","Psychiatric","106124004"
"EL CENTRO REGIONAL MEDICAL CENTER","1415 ROSS AVENUE","32.78138","-115.49824","Imperial","General Acute Care","6025011300","EL CENTRO","General Medical / Surgical","106130699"
"PIONEERS MEMORIAL HEALTHCARE DISTRICT","207 WEST LEGION ROAD","32.96003","-115.55183","Imperial","General Acute Care","6025010600","BRAWLEY","General Medical / Surgical","106130760"
"NORTHERN INYO HOSPITAL","150 PIONEER LANE","37.36207","-118.40756","Inyo","General Acute Care","6027000400","BISHOP","General Medical / Surgical","106141273"
"DELANO REGIONAL MEDICAL CENTER","1401 GARCES HIGHWAY","35.76143","-119.23706","Kern","General Acute Care","6029005003","DELANO","General Medical / Surgical","106150706"
"KERN VALLEY HEALTHCARE DISTRICT","6412 LAUREL AVENUE","35.63486","-118.40509","Kern","General Acute Care","6029005203","LAKE ISABELLA","Long-Term Care (SN/IC)","106150737"
"MERCY HOSPITAL - BAKERSFIELD","2215 TRUXTUN AVENUE","35.37323","-119.02715","Kern","General Acute Care","6029001700","BAKERSFIELD","General Medical / Surgical","106150761"
"GOOD SAMARITAN HOSPITAL-BAKERSFIELD","901 OLIVE DRIVE","35.41216","-119.03913","Kern","General Acute Care","6029000200","BAKERSFIELD","General Medical / Surgical","106150775"
"RIDGECREST REGIONAL HOSPITAL","1081 NORTH CHINA LAKE BLVD.","35.6404","-117.66996","Kern","General Acute Care","6029005401","RIDGECREST","General Medical / Surgical","106150782"
"ADVENTIST HEALTH TEHACHAPI VALLEY","115 WEST E STREET","35.13004","-118.4482","Kern","General Acute Care","6029006100","TEHACHAPI","General Medical / Surgical","106150808"
"HEALTHSOUTH BAKERSFIELD REHABILITATION HOSPITAL","5001 COMMERCE DRIVE","35.36819","-119.05725","Kern","General Acute Care","6029001802","BAKERSFIELD","Physical Rehabilitation","106154022"
"BAKERSFIELD HEART HOSPITAL","3001 SILLECT AVENUE","35.38619","-119.04314","Kern","General Acute Care","6029000507","BAKERSFIELD","General Medical / Surgical","106154101"
"MERCY SOUTHWEST HOSPITAL","400 OLD RIVER RD","35.35496","-119.11528","Kern","General Acute Care","6029002806","BAKERSFIELD","General Medical / Surgical","106154108"
"SUTTER LAKESIDE HOSPITAL","5176 HILL ROAD EAST","39.10232","-122.91003","Lake","General Acute Care","6033000300","LAKEPORT","General Medical / Surgical","106171395"
"ALHAMBRA HOSPITAL MEDICAL CENTER","100 SOUTH RAYMOND AVENUE","34.08988","-118.1449","Los Angeles","General Acute Care","6037480901","ALHAMBRA","General Medical / Surgical","106190017"
"BHC ALHAMBRA HOSPITAL","4619 ROSEMEAD BOULEVARD","34.08926","-118.07352","Los Angeles","Acute Psychiatric","6037432202","ROSEMEAD","Psychiatric","106190020"
"CATALINA ISLAND MEDICAL CENTER","100 FALLS CANYON ROAD","33.33887","-118.33369","Los Angeles","General Acute Care","6037599000","AVALON","General Medical / Surgical","106190045"
"BARLOW RESPIRATORY HOSPITAL","2000 STADIUM WAY","34.08058","-118.24744","Los Angeles","General Acute Care","6037980010","LOS ANGELES","General Medical / Surgical","106190052"
"BEVERLY HOSPITAL","309 WEST BEVERLY BOULEVARD","34.01614","-118.10132","Los Angeles","General Acute Care","6037530101","MONTEBELLO","General Medical / Surgical","106190081"
"CALIFORNIA HOSPITAL MEDICAL CENTER - LOS ANGELES","1401 SOUTH GRAND AVENUE","34.03721","-118.26551","Los Angeles","General Acute Care","6037224010","LOS ANGELES","General Medical / Surgical","106190125"
"CENTINELA HOSPITAL MEDICAL CENTER","555 EAST HARDY STREET","33.94917","-118.34788","Los Angeles","General Acute Care","6037601100","INGLEWOOD","General Medical / Surgical","106190148"
"KINDRED HOSPITAL - SOUTH BAY","1246 WEST 155TH STREET","33.89042","-118.29701","Los Angeles","General Acute Care","6037603101","GARDENA","Other","106190196"
"COMMUNITY HOSPITAL OF HUNTINGTON PARK","2623 EAST SLAUSON AVENUE","33.98929","-118.22466","Los Angeles","General Acute Care","6037532500","HUNTINGTON PARK","General Medical / Surgical","106190197"
"LOS ANGELES COMMUNITY HOSPITAL","4081 EAST OLYMPIC BOULEVARD","34.01897","-118.1875","Los Angeles","General Acute Care","6037531302","LOS ANGELES","General Medical / Surgical","106190198"
"SAN GABRIEL VALLEY MEDICAL CENTER","438 W. LAS TUNAS DRIVE","34.1024","-118.10503","Los Angeles","General Acute Care","6037481101","SAN GABRIEL","General Medical / Surgical","106190200"
"EAST LOS ANGELES DOCTORS HOSPITAL","4060 WHITTIER BOULEVARD","34.02383","-118.18377","Los Angeles","General Acute Care","6037531301","LOS ANGELES","General Medical / Surgical","106190256"
"ENCINO HOSPITAL MEDICAL CENTER","16237 VENTURA BOULEVARD","34.15686","-118.48662","Los Angeles","General Acute Care","6037139701","ENCINO","General Medical / Surgical","106190280"
"FOOTHILL PRESBYTERIAN HOSPITAL-JOHNSTON MEMORIAL","250 SOUTH GRAND AVENUE","34.13384","-117.87244","Los Angeles","General Acute Care","6037401102","GLENDORA","General Medical / Surgical","106190298"
"PACIFIC ALLIANCE MEDICAL CENTER","531 WEST COLLEGE STREET","34.06464","-118.23905","Los Angeles","General Acute Care","6037207103","LOS ANGELES","General Medical / Surgical","106190307"
"GARFIELD MEDICAL CENTER","525 NORTH GARFIELD AVENUE","34.06826","-118.12302","Los Angeles","General Acute Care","6037481713","MONTEREY PARK","General Medical / Surgical","106190315"
"GREATER EL MONTE COMMUNITY HOSPITAL","1701 SANTA ANITA AVENUE","34.04827","-118.04257","Los Angeles","General Acute Care","6037433700","SOUTH EL MONTE","General Medical / Surgical","106190352"
"SOUTHERN CALIFORNIA HOSPITAL AT HOLLYWOOD","6245 DE LONGPRE AVENUE","34.09628","-118.32501","Los Angeles","General Acute Care","6037190801","HOLLYWOOD","General Medical / Surgical","106190380"
"HOLLYWOOD PRESBYTERIAN MEDICAL CENTER","1300 NORTH VERMONT AVENUE","34.09557","-118.29163","Los Angeles","General Acute Care","6037191302","LOS ANGELES","General Medical / Surgical","106190382"
"PROVIDENCE HOLY CROSS MEDICAL CENTER","15031 RINALDI STREET","34.2791","-118.45951","Los Angeles","General Acute Care","6037109100","MISSION HILLS","General Medical / Surgical","106190385"
"GOOD SAMARITAN HOSPITAL-LOS ANGELES","1225 WILSHIRE BOULEVARD","34.05324","-118.26522","Los Angeles","General Acute Care","6037209102","LOS ANGELES","General Medical / Surgical","106190392"
"HUNTINGTON MEMORIAL HOSPITAL","100 W. CALIFORNIA BOULEVARD","34.13565","-118.1518","Los Angeles","General Acute Care","6037463900","PASADENA","General Medical / Surgical","106190400"
"CITRUS VALLEY MEDICAL CENTER - IC CAMPUS","210 W. SAN BERNARDINO ROAD","34.08993","-117.89264","Los Angeles","General Acute Care","6037406101","COVINA","General Medical / Surgical","106190413"
"KAISER FOUNDATION HOSPITAL - WEST LA","6041 CADILLAC AVENUE","34.03793","-118.37568","Los Angeles","General Acute Care","6037270300","LOS ANGELES","General Medical / Surgical","106190434"
"KINDRED HOSPITAL - SAN GABRIEL VALLEY","845 NORTH LARK ELLEN AVENUE","34.0857","-117.91669","Los Angeles","General Acute Care","6037405600","WEST COVINA","General Medical / Surgical","106190458"
"COMMUNITY HOSPITAL LONG BEACH","1720 TERMINO AVENUE","33.78871","-118.14578","Los Angeles","General Acute Care","6037575002","LONG BEACH","General Medical / Surgical","106190475"
"MEMORIAL HOSPITAL OF GARDENA","1145 W. REDONDO BEACH BLVD.","33.89246","-118.29493","Los Angeles","General Acute Care","6037603004","GARDENA","General Medical / Surgical","106190521"
"GLENDALE MEMORIAL HOSPITAL AND HEALTH CENTER","1420 SOUTH CENTRAL AVENUE","34.1284","-118.25769","Los Angeles","General Acute Care","6037302401","GLENDALE","General Medical / Surgical","106190522"
"MISSION COMMUNITY HOSPITAL - PANORAMA CAMPUS","14850 ROSCOE BOULEVARD","34.22138","-118.45639","Los Angeles","General Acute Care","6037120020","PANORAMA CITY","General Medical / Surgical","106190524"
"LONG BEACH MEMORIAL MEDICAL CENTER","2801 ATLANTIC AVENUE","33.80801","-118.1852","Los Angeles","General Acute Care","6037572202","LONG BEACH","General Medical / Surgical","106190525"
"METHODIST HOSPITAL OF SOUTHERN CALIFORNIA","300 WEST HUNTINGTON DRIVE","34.13603","-118.03879","Los Angeles","General Acute Care","6037430721","ARCADIA","General Medical / Surgical","106190529"
"MONTEREY PARK HOSPITAL","900 SOUTH ATLANTIC BOULEVARD","34.05308","-118.13665","Los Angeles","General Acute Care","6037482102","MONTEREY PARK","General Medical / Surgical","106190547"
"NORWALK COMMUNITY HOSPITAL","13222 BLOOMFIELD AVENUE","33.91108","-118.0644","Los Angeles","General Acute Care","6037552301","NORWALK","General Medical / Surgical","106190570"
"COLLEGE MEDICAL CENTER","2776 PACIFIC AVENUE","33.80759","-118.19355","Los Angeles","General Acute Care","6037572202","LONG BEACH","General Medical / Surgical","106190587"
"CITRUS VALLEY MEDICAL CENTER - QV CAMPUS","1115 SOUTH SUNSET AVENUE","34.06242","-117.94528","Los Angeles","General Acute Care","6037406702","WEST COVINA","General Medical / Surgical","106190636"
"SILVER LAKE MEDICAL CENTER - DOWNTOWN CAMPUS","1711 WEST TEMPLE STREET","34.06879","-118.26324","Los Angeles","General Acute Care","6037208402","LOS ANGELES","Psychiatric","106190661"
"MIRACLE MILE MEDICAL CENTER","6000 SAN VICENTE BOULEVARD","34.0572","-118.36195","Los Angeles","General Acute Care","6037216900","LOS ANGELES","General Medical / Surgical","106190681"
"PACIFICA HOSPITAL OF THE VALLEY","9449 SAN FERNANDO ROAD","34.24088","-118.39555","Los Angeles","General Acute Care","6037121210","SUN VALLEY","General Medical / Surgical","106190696"
"SHERMAN OAKS HOSPITAL","4929 VAN NUYS BOULEVARD","34.15995","-118.4488","Los Angeles","General Acute Care","6037128910","SHERMAN OAKS","General Medical / Surgical","106190708"
"SHRINERS HOSPITAL FOR  CHILDREN","3160 GENEVA STREET","34.06762","-118.28596","Los Angeles","General Acute Care","6037211120","LOS ANGELES","Orthopedic or Pediatric Orthopedic","106190712"
"ST. VINCENT MEDICAL CENTER","2131 WEST 3RD STREET","34.06311","-118.27302","Los Angeles","General Acute Care","6037208502","LOS ANGELES","General Medical / Surgical","106190762"
"USC VERDUGO HILLS HOSPITAL","1812 VERDUGO BOULEVARD","34.20557","-118.2152","Los Angeles","General Acute Care","6037300800","GLENDALE","General Medical / Surgical","106190818"
"WEST COVINA MEDICAL CENTER","725 SOUTH ORANGE AVENUE","34.07042","-117.94505","Los Angeles","General Acute Care","6037406800","WEST COVINA","General Medical / Surgical","106190857"
"WHITTIER HOSPITAL MEDICAL CENTER","9080 COLIMA ROAD","33.95379","-118.00303","Los Angeles","General Acute Care","6037500202","WHITTIER","General Medical / Surgical","106190883"
"TOM REDGATE MEMORIAL RECOVERY CENTER","1775 CHESTNUT STREET","33.7894","-118.19647","Los Angeles","Chemical Dependency Recovery Hospital","6037575401","LONG BEACH","Chemical Dependency (Alcohol/Drug)","106191225"
"LOS ANGELES COUNTY OLIVE VIEW-UCLA MEDICAL CENTER","14445 OLIVE VIEW DRIVE","34.32418","-118.45255","Los Angeles","General Acute Care","6037106010","SYLMAR","General Medical / Surgical","106191231"
"LAC/RANCHO LOS AMIGOS NATIONAL REHAB CENTER","7601 EAST IMPERIAL HIGHWAY","33.92723","-118.15795","Los Angeles","General Acute Care","6037551600","DOWNEY","General Medical / Surgical","106191306"
"KAISER FOUNDATION HOSPITAL - WOODLAND HILLS","5601 DE SOTO AVENUE","34.17198","-118.58829","Los Angeles","General Acute Care","6037137104","WOODLAND HILLS","General Medical / Surgical","106191450"
"KECK HOSPITAL OF USC","1500 SAN PABLO STREET","34.06284","-118.20287","Los Angeles","General Acute Care","6037203300","LOS ANGELES","General Medical / Surgical","106194219"
"STAR VIEW ADOLESCENT - P H F","4025 WEST 226 STREET","33.82363","-118.35565","Los Angeles","Psychiatric Health Facility","6037651221","TORRANCE","Psychiatric","106194967"
"LA CASA PSYCHIATRIC HEALTH FACILITY","6060 PARAMOUNT BLVD.","33.86412","-118.15979","Los Angeles","Psychiatric Health Facility","6037570100","LONG BEACH","Psychiatric","106194981"
"KAISER FOUNDATION HOSPITAL - BALDWIN PARK","1011 BALDWIN PARK BLVD.","34.06348","-117.986","Los Angeles","General Acute Care","6037404703","BALDWIN PARK","General Medical / Surgical","106196035"
"JOYCE EISENBERG KEEFER MEDICAL CENTER","7150 TAMPA AVENUE","34.20014","-118.55341","Los Angeles","Acute Psychiatric","6037132501","RESEDA","Psychiatric","106196404"
"KAISER FOUNDATION HOSPITAL - SAN RAFAEL","99 MONTECILLO ROAD","38.0041","-122.55376","Marin","General Acute Care","6041108200","SAN RAFAEL","General Medical / Surgical","106210992"
"MARIN GENERAL HOSPITAL","250 BON AIR ROAD","37.94651","-122.53715","Marin","General Acute Care","6041119201","GREENBRAE","General Medical / Surgical","106211006"
"MENDOCINO COAST DISTRICT HOSPITAL","700 RIVER DRIVE","39.4326","-123.80068","Mendocino","General Acute Care","6045010500","FORT BRAGG","General Medical / Surgical","106231013"
"MEMORIAL HOSPITAL LOS BANOS","520 WEST I STREET","37.06273","-120.86147","Merced","General Acute Care","6047002201","LOS BANOS","General Medical / Surgical","106240924"
"MARIE GREEN PSYCHIATRIC CENTER - P H F","300 EAST 15TH STREET","37.29417","-120.47145","Merced","Psychiatric Health Facility","6047001601","MERCED","Psychiatric","106244027"
"COMMUNITY HOSPITAL OF THE MONTEREY PENINSULA","23625 W. R. HOLMAN HIGHWAY","36.59827","-121.92488","Monterey","General Acute Care","6053011900","MONTEREY","General Medical / Surgical","106270744"
"GEORGE L MEE MEMORIAL HOSPITAL","300 CANAL STREET","36.2071","-121.1325","Monterey","General Acute Care","6053011304","KING CITY","General Medical / Surgical","106270777"
"NATIVIDAD MEDICAL CENTER","1441 CONSTITUTION BOULEVARD","36.69686","-121.6297","Monterey","General Acute Care","6053010608","SALINAS","General Medical / Surgical","106274043"
"QUEEN OF THE VALLEY MEDICAL CENTER","1000 TRANCAS STREET","38.32363","-122.296","Napa","General Acute Care","6055200602","NAPA","General Medical / Surgical","106281047"
"ORANGE COAST MEMORIAL MEDICAL CENTER","9920 TALBERT AVENUE","33.70162","-117.95524","Orange","General Acute Care","6059099232","FOUNTAIN VALLEY","General Medical / Surgical","106300225"
"AHMC ANAHEIM REGIONAL MEDICAL CENTER","1111 WEST LA PALMA AVENUE","33.84725","-117.93248","Orange","General Acute Care","6059086601","ANAHEIM","General Medical / Surgical","106301098"
"COLLEGE HOSPITAL COSTA MESA","301 VICTORIA STREET","33.65249","-117.91303","Orange","General Acute Care","6059063702","COSTA MESA","Psychiatric","106301155"
"FOUNTAIN VALLEY REGIONAL HOSPITAL AND MEDICAL CENTER - EUCLID","17100 EUCLID STREET","33.71546","-117.93694","Orange","General Acute Care","6059099229","FOUNTAIN VALLEY","General Medical / Surgical","106301175"
"ANAHEIM GLOBAL MEDICAL CENTER","1025 SOUTH ANAHEIM BLVD.","33.8209","-117.90921","Orange","General Acute Care","6059087405","ANAHEIM","General Medical / Surgical","106301188"
"HUNTINGTON BEACH HOSPITAL","17772 BEACH BOULEVARD","33.70442","-117.98895","Orange","General Acute Care","6059099212","HUNTINGTON BEACH","Psychiatric","106301209"
"LOS ALAMITOS MEDICAL CENTER","3751 KATELLA AVENUE","33.80327","-118.0674","Orange","General Acute Care","6059110108","LOS ALAMITOS","General Medical / Surgical","106301248"
"MISSION HOSPITAL REGIONAL MEDICAL CENTER","27700 MEDICAL CENTER ROAD","33.56279","-117.66768","Orange","General Acute Care","6059032022","MISSION VIEJO","General Medical / Surgical","106301262"
"NEWPORT BAY HOSPITAL","1501 EAST 16TH STREET","33.62218","-117.90654","Orange","Acute Psychiatric","6059063400","NEWPORT BEACH","Psychiatric","106301304"
"ST. JOSEPH HOSPITAL - ORANGE","1100 WEST STEWART DRIVE","33.7823","-117.86516","Orange","General Acute Care","6059076000","ORANGE","General Medical / Surgical","106301340"
"ST. JUDE MEDICAL CENTER","101 EAST VALENCIA MESA DRIVE","33.89349","-117.92851","Orange","General Acute Care","6059001706","FULLERTON","General Medical / Surgical","106301342"
"WEST ANAHEIM MEDICAL CENTER","3033 WEST ORANGE AVENUE","33.82482","-117.99492","Orange","General Acute Care","6059086902","ANAHEIM","General Medical / Surgical","106301379"
"KINDRED HOSPITAL - WESTMINSTER","200 HOSPITAL CIRCLE","33.76301","-117.99438","Orange","General Acute Care","6059099801","WESTMINSTER","General Medical / Surgical","106301380"
"ORANGE COUNTY GLOBAL MEDICAL CENTER","1001 NORTH TUSTIN AVENUE","33.75361","-117.83398","Orange","General Acute Care","6059075504","SANTA ANA","General Medical / Surgical","106301566"
"FOUNTAIN VALLEY REGIONAL HOSPITAL AND MEDICAL CENTER - WARNER","11250 WARNER AVENUE","33.71625","-117.93159","Orange","General Acute Care","6059099229","FOUNTAIN VALLEY","General Medical / Surgical","106304039"
"CHILDRENS HOSPITAL AT MISSION","27700 MEDICAL CTR. RD., 5TH FL","33.56279","-117.66768","Orange","General Acute Care","6059032022","MISSION VIEJO","Pediatric","106304113"
"KAISER FOUNDATION HOSPITAL - ROSEVILLE","1600 EUREKA ROAD","38.74636","-121.25107","Placer","General Acute Care","6061020717","ROSEVILLE","General Medical / Surgical","106314024"
"DESERT REGIONAL MEDICAL CENTER","1150 NORTH INDIAN CANYON DRIVE","33.83932","-116.54549","Riverside","General Acute Care","6065044602","PALM SPRINGS","General Medical / Surgical","106331164"
"HEMET VALLEY MEDICAL CENTER","1117 EAST DEVONSHIRE","33.75113","-116.95958","Riverside","General Acute Care","6065043401","HEMET","General Medical / Surgical","106331194"
"PACIFIC GROVE HOSPITAL","5900 BROCKTON AVENUE","33.96229","-117.39574","Riverside","Acute Psychiatric","6065030700","RIVERSIDE","Psychiatric","106331226"
"PALO VERDE HOSPITAL","250 NORTH FIRST STREET","33.61315","-114.5956","Riverside","General Acute Care","6065046101","BLYTHE","General Medical / Surgical","106331288"
"PARKVIEW COMMUNITY HOSPITAL MEDICAL CENTER","3865 JACKSON STREET","33.92573","-117.43996","Riverside","General Acute Care","6065031501","RIVERSIDE","General Medical / Surgical","106331293"
"RIVERSIDE COMMUNITY HOSPITAL","4445 MAGNOLIA AVENUE","33.97641","-117.37997","Riverside","General Acute Care","6065030300","RIVERSIDE","General Medical / Surgical","106331312"
"KINDRED HOSPITAL - RIVERSIDE","2224 MEDICAL CENTER DRIVE","33.81241","-117.22161","Riverside","General Acute Care","6065042618","PERRIS","General Medical / Surgical","106332172"
"KAISER FOUNDATION HOSPITAL - RIVERSIDE","10800 MAGNOLIA AVENUE","33.9063","-117.47082","Riverside","General Acute Care","6065041408","RIVERSIDE","General Medical / Surgical","106334025"
"RIVERSIDE UNIVERSITY HEALTH SYSTEM - MEDICAL CENTER","26520 CACTUS AVENUE","33.91187","-117.19525","Riverside","General Acute Care","6065048700","MORENO VALLEY","General Medical / Surgical","106334487"
"KAISER FOUNDATION HOSPITAL - SACRAMENTO","2025 MORSE AVENUE","38.60197","-121.39232","Sacramento","General Acute Care","6067005601","SACRAMENTO","General Medical / Surgical","106340913"
"MERCY GENERAL HOSPITAL","4001 J STREET","38.56955","-121.45271","Sacramento","General Acute Care","6067001500","SACRAMENTO","General Medical / Surgical","106340947"
"MERCY SAN JUAN HOSPITAL","6501 COYLE AVENUE","38.66818","-121.31261","Sacramento","General Acute Care","6067008134","CARMICHAEL","General Medical / Surgical","106340950"
"METHODIST HOSPITAL OF SACRAMENTO","7500 HOSPITAL DRIVE","38.46416","-121.41744","Sacramento","General Acute Care","6067009606","SACRAMENTO","General Medical / Surgical","106340951"
"UNIVERSITY OF CALIFORNIA DAVIS MEDICAL CENTER","2315 STOCKTON BOULEVARD","38.55438","-121.45738","Sacramento","General Acute Care","6067001700","SACRAMENTO","General Medical / Surgical","106341006"
"KAISER FOUNDATION HOSPITAL - SOUTH SACRAMENTO","6600 BRUCEVILLE ROAD","38.47144","-121.42409","Sacramento","General Acute Care","6067009606","SACRAMENTO","General Medical / Surgical","106342344"
"SACRAMENTO MENTAL HEALTH TREATMENT CENTER","2150 STOCKTON BOULEVARD","38.5574","-121.46059","Sacramento","Psychiatric Health Facility","6067001800","SACRAMENTO","Psychiatric","106344011"
"HERITAGE OAKS HOSPITAL","4250 AUBURN BLVD.","38.64305","-121.36591","Sacramento","Acute Psychiatric","6067005901","SACRAMENTO","Psychiatric","106344021"
"MERCY HOSPITAL OF FOLSOM","1650 CREEKSIDE DRIVE","38.67223","-121.1428","Sacramento","General Acute Care","6067008506","FOLSOM","General Medical / Surgical","106344029"
"HAZEL HAWKINS MEMORIAL HOSPITAL","911 SUNSET DRIVE","36.835","-121.38609","San Benito","General Acute Care","6069000600","HOLLISTER","General Medical / Surgical","106350784"
"BEAR VALLEY COMMUNITY HOSPITAL","41870 GARSTIN DRIVE","34.24728","-116.88988","San Bernardino","General Acute Care","6071011203","BIG BEAR LAKE","General Medical / Surgical","106361110"
"CHINO VALLEY MEDICAL CENTER","5451 WALNUT AVENUE","34.02626","-117.687","San Bernardino","General Acute Care","6071000604","CHINO","General Medical / Surgical","106361144"
"MONTCLAIR HOSPITAL MEDICAL CENTER","5000 SAN BERNARDINO STREET","34.07774","-117.69603","San Bernardino","General Acute Care","6071000203","MONTCLAIR","General Medical / Surgical","106361166"
"KAISER FOUNDATION HOSPITAL - FONTANA","9961 SIERRA AVENUE","34.0725","-117.43549","San Bernardino","General Acute Care","6071003302","FONTANA","General Medical / Surgical","106361223"
"LOMA LINDA UNIV. MED. CENTER EAST CAMPUS HOSPITAL","25333 BARTON ROAD","34.0482","-117.2516","San Bernardino","General Acute Care","6071007302","LOMA LINDA","General Medical / Surgical","106361245"
"LOMA LINDA UNIVERSITY MEDICAL CENTER","11234 ANDERSON STREET","34.05164","-117.26146","San Bernardino","General Acute Care","6071007303","LOMA LINDA","General Medical / Surgical","106361246"
"MOUNTAINS COMMUNITY HOSPITAL","29101 HOSPITAL ROAD","34.26583","-117.16716","San Bernardino","General Acute Care","6071010902","LAKE ARROWHEAD","General Medical / Surgical","106361266"
"KINDRED HOSPITAL - ONTARIO","550 NORTH MONTEREY AVENUE","34.06881","-117.64364","San Bernardino","General Acute Care","6071001501","ONTARIO","Other","106361274"
"REDLANDS COMMUNITY HOSPITAL","350 TERRACINA BOULEVARD","34.03699","-117.2044","San Bernardino","General Acute Care","6071008301","REDLANDS","General Medical / Surgical","106361308"
"SAN ANTONIO REGIONAL HOSPITAL","999 SAN BERNARDINO ROAD","34.10056","-117.63828","San Bernardino","General Acute Care","6071000901","UPLAND","General Medical / Surgical","106361318"
"COMMUNITY HOSPITAL OF SAN BERNARDINO","1805 MEDICAL CENTER DRIVE","34.13138","-117.32245","San Bernardino","General Acute Care","6071004202","SAN BERNARDINO","General Medical / Surgical","106361323"
"ST. BERNARDINE MEDICAL CENTER","2101 NORTH WATERMAN AVENUE","34.1341","-117.27865","San Bernardino","General Acute Care","6071006301","SAN BERNARDINO","General Medical / Surgical","106361339"
"COLORADO RIVER MEDICAL CENTER","1401 BAILEY AVENUE","34.8325","-114.61818","San Bernardino","General Acute Care","6071010700","NEEDLES","General Medical / Surgical","106361458"
"HI-DESERT MEDICAL CENTER","6601 WHITE FEATHER ROAD","34.13323","-116.27654","San Bernardino","General Acute Care","6071010419","JOSHUA TREE","General Medical / Surgical","106362041"
"LOMA LINDA UNIVERSITY BEHAVIORAL MEDICINE CENTER","1710 BARTON ROAD","34.0468","-117.20228","San Bernardino","Acute Psychiatric","6071007800","REDLANDS","Psychiatric","106364014"
"CANYON RIDGE HOSPITAL","5353 G STREET","34.00985","-117.68789","San Bernardino","Acute Psychiatric","6071000504","CHINO","Psychiatric","106364050"
"BALLARD REHABILITATION HOSPITAL","1760 WEST 16TH STREET","34.12843","-117.3261","San Bernardino","General Acute Care","6071004201","SAN BERNARDINO","Physical Rehabilitation","106364121"
"KINDRED HOSPITAL - RANCHO","10841 WHITE OAK AVENUE","34.10461","-117.56601","San Bernardino","General Acute Care","6071002110","RANCHO CUCAMONGA","General Medical / Surgical","106364188"
"KAISER FOUNDATION HOSPITAL - ONTARIO","2295 S. VINEYARD AVENUE","34.03275","-117.61094","San Bernardino","General Acute Care","6071001803","ONTARIO","General Medical / Surgical","106364265"
"SCRIPPS MERCY HOSPITAL - CHULA VISTA","435 H STREET","32.63289","-117.08282","San Diego","General Acute Care","6073012700","CHULA VISTA","General Medical / Surgical","106370658"
"RADY CHILDRENS HOSPITAL - SAN DIEGO","3020 CHILDRENS WAY","32.79678","-117.15077","San Diego","General Acute Care","6073008702","SAN DIEGO","Pediatric","106370673"
"SHARP CORONADO HOSPITAL AND HEALTHCARE CENTER","250 PROSPECT PLACE","32.69427","-117.16808","San Diego","General Acute Care","6073011000","CORONADO","Long-Term Care (SN/IC)","106370689"
"SHARP MEMORIAL HOSPITAL","7901 FROST STREET","32.80016","-117.15531","San Diego","General Acute Care","6073008702","SAN DIEGO","General Medical / Surgical","106370694"
"SHARP MARY BIRCH HOSPITAL FOR WOMEN AND NEWBORNS","3003 HEALTH CENTER DRIVE","32.8007","-117.1549","San Diego","General Acute Care","6073008702","SAN DIEGO","General Medical / Surgical","106370695"
"GROSSMONT HOSPITAL","5555 GROSSMONT CENTER DRIVE","32.77963","-117.00924","San Diego","General Acute Care","6073015000","LA MESA","General Medical / Surgical","106370714"
"KINDRED HOSPITAL - SAN DIEGO","1940 EL CAJON BOULEVARD","32.75542","-117.14449","San Diego","General Acute Care","6073001000","SAN DIEGO","Other","106370721"
"KAISER FOUNDATION HOSPITAL - SAN DIEGO - ZION","4647 ZION AVENUE","32.79287","-117.09447","San Diego","General Acute Care","6073009604","SAN DIEGO","General Medical / Surgical","106370730"
"SCRIPPS MERCY HOSPITAL","4077 FIFTH AVENUE","32.75128","-117.1609","San Diego","General Acute Care","6073000400","SAN DIEGO","General Medical / Surgical","106370744"
"SHARP MESA VISTA HOSPITAL","7850 VISTA HILL AVENUE","32.79499","-117.15521","San Diego","Acute Psychiatric","6073008702","SAN DIEGO","Psychiatric","106370745"
"ALVARADO PARKWAY INSTITUTE B.H.S.","7050 PARKWAY DRIVE","32.77446","-117.04449","San Diego","Acute Psychiatric","6073014805","LA MESA","Psychiatric","106370749"
"SCRIPPS MEMORIAL HOSPITAL - LA JOLLA","9888 GENESEE AVENUE","32.88506","-117.22279","San Diego","General Acute Care","6073008305","LA JOLLA","General Medical / Surgical","106370771"
"TRI-CITY MEDICAL CENTER","4002 VISTA WAY","33.18394","-117.29027","San Diego","General Acute Care","6073018518","OCEANSIDE","General Medical / Surgical","106370780"
"UC SAN DIEGO HEALTH HILLCREST - HILLCREST MEDICAL CENTER","200 WEST ARBOR DRIVE","32.75387","-117.16498","San Diego","General Acute Care","6073000400","SAN DIEGO","General Medical / Surgical","106370782"
"SHARP CHULA VISTA MEDICAL CENTER","751 MEDICAL CENTER COURT","32.61909","-117.02488","San Diego","General Acute Care","6073013310","CHULA VISTA","General Medical / Surgical","106370875"
"POMERADO HOSPITAL","15615 POMERADO ROAD","32.99563","-117.05784","San Diego","General Acute Care","6073017054","POWAY","General Medical / Surgical","106370977"
"SCRIPPS GREEN HOSPITAL","10666 NORTH TORREY PINES ROAD","32.89654","-117.2419","San Diego","General Acute Care","6073008312","LA JOLLA","General Medical / Surgical","106371256"
"SCRIPPS MEMORIAL HOSPITAL - ENCINITAS","354 SANTA FE DRIVE","33.0363","-117.28495","San Diego","General Acute Care","6073017501","ENCINITAS","General Medical / Surgical","106371394"
"AURORA SAN DIEGO","11878 AVENUE OF INDUSTRY","32.99067","-117.07551","San Diego","Acute Psychiatric","6073017056","SAN DIEGO","Psychiatric","106374024"
"SHARP MCDONALD CENTER","7989 LINDA VISTA ROAD","32.80702","-117.15436","San Diego","Chemical Dependency Recovery Hospital","6073008701","SAN DIEGO","Chemical Dependency (Alcohol/Drug)","106374049"
"ALVARADO HOSPITAL MEDICAL CENTER","6645 ALVARADO ROAD","32.7771","-117.05696","San Diego","General Acute Care","6073002904","SAN DIEGO","Physical Rehabilitation","106374063"
"VIBRA HOSPITAL OF SAN DIEGO","555 WASHINGTON STREET","32.74986","-117.16001","San Diego","General Acute Care","6073000400","SAN DIEGO","General Medical / Surgical","106374094"
"UCSD HEALTH LA JOLLA - JACOBS MEDICAL CENTER AND SULPIZIO CARDIOVASCULAR CENTER","9300 CAMPUS POINT DRIVE","32.87799","-117.22331","San Diego","General Acute Care","6073008305","LA JOLLA","General Medical / Surgical","106374141"
"JEWISH HOME","302 SILVER AVENUE","37.72884","-122.43168","San Francisco","Acute Psychiatric","6075025500","SAN FRANCISCO","Long-Term Care (SN/IC)","106380842"
"KAISER FOUNDATION HOSPITAL - SAN FRANCISCO","2425 GEARY BOULEVARD","37.78274","-122.44289","San Francisco","General Acute Care","6075015700","SAN FRANCISCO","General Medical / Surgical","106380857"
"LAGUNA HONDA HOSPITAL AND REHABILITATION CENTER","375 LAGUNA HONDA BOULEVARD","37.74761","-122.45871","San Francisco","General Acute Care","6075030400","SAN FRANCISCO","Long-Term Care (SN/IC)","106380865"
"LANGLEY PORTER PSYCHIATRIC INSTITUTE","401 PARNASSUS AVENUE","37.76372","-122.45665","San Francisco","Acute Psychiatric","6075030102","SAN FRANCISCO","Psychiatric","106380868"
"UCSF MEDICAL CENTER AT MOUNT ZION","1600 DIVISADERO STREET","37.78436","-122.43959","San Francisco","General Acute Care","6075015500","SAN FRANCISCO","General Medical / Surgical","106380895"
"PRISCILLA CHAN AND MARK ZUCKERBERG SAN FRANCISCO GENERAL HOSPITAL AND TRAUMA CENTER","1001 POTRERO AVENUE","37.75657","-122.40637","San Francisco","General Acute Care","6075022802","SAN FRANCISCO","General Medical / Surgical","106380939"
"ST. FRANCIS MEMORIAL HOSPITAL","900 HYDE STREET","37.78917","-122.41695","San Francisco","General Acute Care","6075011100","SAN FRANCISCO","General Medical / Surgical","106380960"
"CALIFORNIA PACIFIC MEDICAL CENTER - ST. LUKES CAMPUS","3555 CESAR CHAVEZ STREET","37.74799","-122.42052","San Francisco","General Acute Care","6075025300","SAN FRANCISCO","General Medical / Surgical","106380964"
"ST. MARYS MEDICAL CENTER, SAN FRANCISCO","450 STANYAN STREET","37.77408","-122.45441","San Francisco","General Acute Care","6075016500","SAN FRANCISCO","General Medical / Surgical","106380965"
"CHINESE HOSPITAL","845 JACKSON STREET","37.79565","-122.40926","San Francisco","General Acute Care","6075011300","SAN FRANCISCO","General Medical / Surgical","106382715"
"ADVENTIST HEALTH LODI MEMORIAL","975 SOUTH FAIRMONT AVENUE","38.12146","-121.2859","San Joaquin","General Acute Care","6077004302","LODI","General Medical / Surgical","106390923"
"SAN JOAQUIN GENERAL HOSPITAL","500 WEST HOSPITAL ROAD","37.88594","-121.28918","San Joaquin","General Acute Care","6077003803","FRENCH CAMP","General Medical / Surgical","106391010"
"ST. JOSEPHS MEDICAL CENTER OF STOCKTON","1800 NORTH CALIFORNIA STREET","37.97075","-121.2891","San Joaquin","General Acute Care","6077001300","STOCKTON","General Medical / Surgical","106391042"
"SUTTER TRACY COMMUNITY HOSPITAL","1420 NORTH TRACY BOULEVARD","37.74366","-121.43482","San Joaquin","General Acute Care","6077005303","TRACY","General Medical / Surgical","106391056"
"ST. JOSEPHS BEHAVIORAL HEALTH CENTER","2510 NORTH CALIFORNIA STREET","37.9763","-121.29122","San Joaquin","Acute Psychiatric","6077001300","STOCKTON","Psychiatric","106392232"
"MARIAN REGIONAL MEDICAL CENTER, ARROYO GRANDE","345 SOUTH HALCYON ROAD","35.11369","-120.59147","San Luis Obispo","General Acute Care","6079011901","ARROYO GRANDE","General Medical / Surgical","106400466"
"FRENCH HOSPITAL MEDICAL CENTER","1911 JOHNSON AVENUE","35.27801","-120.64977","San Luis Obispo","General Acute Care","6079011002","SAN LUIS OBISPO","General Medical / Surgical","106400480"
"TWIN CITIES COMMUNITY HOSPITAL","1100 LAS TABLAS ROAD","35.5543","-120.71967","San Luis Obispo","General Acute Care","6079012704","TEMPLETON","General Medical / Surgical","106400548"
"SAN LUIS OBISPO CO PSYCHIATRIC HEALTH FACILITY","2178 JOHNSON AVE","35.27461","-120.6465","San Luis Obispo","Psychiatric Health Facility","6079011002","SAN LUIS OBISPO","Psychiatric","106404046"
"SAN MATEO MEDICAL CENTER","222 WEST 39TH AVENUE","37.53017","-122.29951","San Mateo","General Acute Care","6081607200","SAN MATEO","General Medical / Surgical","106410782"
"KAISER FOUNDATION HOSPITAL - SOUTH SAN FRANCISCO","1200 EL CAMINO REAL","37.65806","-122.43837","San Mateo","General Acute Care","6081601902","SOUTH SAN FRANCISCO","General Medical / Surgical","106410806"
"SETON MEDICAL CENTER","1900 SULLIVAN AVENUE","37.68172","-122.47283","San Mateo","General Acute Care","6081601400","DALY CITY","General Medical / Surgical","106410817"
"SETON COASTSIDE","600 MARINE BOULEVARD","37.52439","-122.50882","San Mateo","General Acute Care","6081613600","MOSS BEACH","Long-Term Care (SN/IC)","106410828"
"SEQUOIA HOSPITAL","170 ALAMEDA DE LAS PULGAS","37.48129","-122.25377","San Mateo","General Acute Care","6081609800","REDWOOD CITY","General Medical / Surgical","106410891"
"MENLO PARK SURGICAL HOSPITAL","570 WILLOW ROAD","37.45797","-122.16212","San Mateo","General Acute Care","6081613900","MENLO PARK","General Medical / Surgical","106414018"
"GOLETA VALLEY COTTAGE HOSPITAL","351 SOUTH PATTERSON AVENUE","34.43336","-119.80929","Santa Barbara","General Acute Care","6083003001","SANTA BARBARA","General Medical / Surgical","106420483"
"MARIAN REGIONAL MEDICAL CENTER","1400 EAST CHURCH STREET","34.95198","-120.41338","Santa Barbara","General Acute Care","6083002211","SANTA MARIA","General Medical / Surgical","106420493"
"SANTA BARBARA PSYCHIATRIC HEALTH FACILITY","315 CAMINO DEL REMEDIO","34.44558","-119.7795","Santa Barbara","Psychiatric Health Facility","6083000101","SANTA BARBARA","Psychiatric","106424002"
"REGIONAL MEDICAL OF SAN JOSE","225 NORTH JACKSON AVENUE","37.36332","-121.84837","Santa Clara","General Acute Care","6085503712","SAN JOSE","General Medical / Surgical","106430705"
"EL CAMINO HOSPITAL","2500 GRANT ROAD","37.36779","-122.07801","Santa Clara","General Acute Care","6085509901","MOUNTAIN VIEW","General Medical / Surgical","106430763"
"GOOD SAMARITAN HOSPITAL-SAN JOSE","2425 SAMARITAN DRIVE","37.25116","-121.9449","Santa Clara","General Acute Care","6085502702","SAN JOSE","General Medical / Surgical","106430779"
"OCONNOR HOSPITAL","2105 FOREST AVENUE","37.32714","-121.93727","Santa Clara","General Acute Care","6085500500","SAN JOSE","General Medical / Surgical","106430837"
"SANTA CLARA VALLEY MEDICAL CENTER","751 SOUTH BASCOM AVENUE","37.31346","-121.93202","Santa Clara","General Acute Care","6085502101","SAN JOSE","General Medical / Surgical","106430883"
"MISSION OAKS HOSPITAL","15891 LOS GATOS-ALMADEN ROAD","37.24364","-121.94622","Santa Clara","General Acute Care","6085506802","LOS GATOS","General Medical / Surgical","106430915"
"KAISER FOUNDATION HOSPITAL - SAN JOSE","250 HOSPITAL PARKWAY","37.23924","-121.80269","Santa Clara","General Acute Care","6085512033","SAN JOSE","General Medical / Surgical","106431506"
"SAN JOSE BEHAVIORAL HEALTH","455 SILICON VALLEY BOULEVARD","37.24741","-121.77296","Santa Clara","Acute Psychiatric","6085512001","SAN JOSE","Psychiatric","106434032"
"LUCILE PACKARD CHILDRENS HOSPITAL STANFORD","725 WELCH ROAD","37.43677","-122.17282","Santa Clara","General Acute Care","6085511609","PALO ALTO","Pediatric","106434040"
"CHILDRENS RECOVERY CENTER OF NORTHERN CALIFORNIA","3777 SOUTH BASCOM AVENUE","37.25821","-121.94843","Santa Clara","General Acute Care","6085502702","CAMPBELL","Long-Term Care (SN/IC)","106434051"
"ST. LOUISE REGIONAL HOSPITAL","9400 NO NAME UNO","37.03731","-121.57411","Santa Clara","General Acute Care","6085512401","GILROY","General Medical / Surgical","106434138"
"DOMINICAN HOSPITAL","1555 SOQUEL DRIVE","36.98806","-121.98489","Santa Cruz","General Acute Care","6087121300","SANTA CRUZ","General Medical / Surgical","106440755"
"WATSONVILLE COMMUNITY HOSPITAL","75 NIELSON STREET","36.92839","-121.79173","Santa Cruz","General Acute Care","6087110600","WATSONVILLE","General Medical / Surgical","106444013"
"MERCY MEDICAL CENTER - REDDING","2175 ROSALINE AVENUE","40.57204","-122.39742","Shasta","General Acute Care","6089010500","REDDING","General Medical / Surgical","106450949"
"VIBRA HOSPITAL OF NORTHERN CALIFORNIA","2801 EUREKA WAY","40.58563","-122.41293","Shasta","General Acute Care","6089010602","REDDING","Other","106454012"
"PATIENTS HOSPITAL OF REDDING","2900 EUREKA WAY","40.58563","-122.41632","Shasta","General Acute Care","6089010602","REDDING","General Medical / Surgical","106454013"
"ADVENTIST HEALTH VALLEJO","525 OREGON STREET","38.11825","-122.25033","Solano","Acute Psychiatric","6095251500","VALLEJO","Psychiatric","106481015"
"NORTH BAY MEDICAL CENTER","1200 B. GALE WILSON BLVD.","38.26097","-122.05076","Solano","General Acute Care","6095252604","FAIRFIELD","General Medical / Surgical","106481357"
"NORTH BAY VACAVALLEY HOSPITAL","1000 NUT TREE ROAD","38.35509","-121.95293","Solano","General Acute Care","6095252912","VACAVILLE","General Medical / Surgical","106484001"
"HEALDSBURG DISTRICT HOSPITAL","1375 UNIVERSITY STREET","38.62764","-122.86385","Sonoma","General Acute Care","6097153902","HEALDSBURG","General Medical / Surgical","106490964"
"SONOMA VALLEY HOSPITAL","347 ANDRIEUX STREET","38.28841","-122.46524","Sonoma","General Acute Care","6097150204","SONOMA","General Medical / Surgical","106491076"
"KAISER FOUNDATION HOSPITAL - SANTA ROSA","401 BICENTENNIAL WAY","38.47087","-122.73119","Sonoma","General Acute Care","6097152802","SANTA ROSA","General Medical / Surgical","106494019"
"AURORA BEHAVIORAL HEALTHCARE-SANTA ROSA, LLC","1287 FULTON ROAD","38.43998","-122.76973","Sonoma","Acute Psychiatric","6097153005","SANTA ROSA","Psychiatric","106494048"
"DOCTORS MEDICAL CENTER","1441 FLORIDA AVENUE","37.66439","-120.99631","Stanislaus","General Acute Care","6099001300","MODESTO","General Medical / Surgical","106500852"
"OAK VALLEY HOSPITAL DISTRICT","350 SOUTH OAK STREET","37.75782","-120.86031","Stanislaus","General Acute Care","6099000202","OAKDALE","General Medical / Surgical","106500967"
"DOCTORS MEDICAL CENTER-BEHAVIORAL HEALTH DEPARTMENT","1501 CLAUS ROAD","37.6654","-120.92137","Stanislaus","General Acute Care","6099000906","MODESTO","Psychiatric","106501016"
"STANISLAUS SURGICAL HOSPITAL","1421 OAKDALE ROAD","37.66395","-120.95756","Stanislaus","General Acute Care","6099001001","MODESTO","General Medical / Surgical","106504038"
"SUTTER-YUBA PSYCHIATRIC HEALTH FACILITY","1965 LIVE OAK BOULEVARD","39.15537","-121.61999","Sutter","Psychiatric Health Facility","6101050101","YUBA CITY","Psychiatric","106514001"
"ST. ELIZABETH COMMUNITY HOSPITAL","2550 SISTER MARY COLUMBA DRIVE","40.1495","-122.21887","Tehama","General Acute Care","6103000700","RED BLUFF","General Medical / Surgical","106521041"
"KAWEAH DELTA MEDICAL CENTER","400 WEST MINERAL KING","36.32753","-119.29345","Tulare","General Acute Care","6107001200","VISALIA","General Medical / Surgical","106540734"
"SIERRA VIEW MEDICAL CENTER","465 WEST PUTNAM AVENUE","36.06948","-119.02727","Tulare","General Acute Care","6107003801","PORTERVILLE","General Medical / Surgical","106540798"
"AURORA VISTA DEL MAR HOSPITAL","801 SENECA STREET","34.30657","-119.28343","Ventura","Acute Psychiatric","6111002200","VENTURA","Psychiatric","106560203"
"OJAI VALLEY COMMUNITY HOSPITAL","1306 MARICOPA HIGHWAY","34.44221","-119.26311","Ventura","General Acute Care","6111000901","OJAI","General Medical / Surgical","106560501"
"ST. JOHNS PLEASANT VALLEY HOSPITAL","2309 ANTONIO AVENUE","34.24177","-119.018","Ventura","General Acute Care","6111005202","CAMARILLO","General Medical / Surgical","106560508"
"VENTURA COUNTY MEDICAL CENTER - SANTA PAULA  HOSPITAL","825 NORTH 10TH STREET","34.36548","-119.06505","Ventura","General Acute Care","6111000800","SANTA PAULA","General Medical / Surgical","106560521"
"ST. JOHNS REGIONAL MEDICAL CENTER","1600 NORTH ROSE AVENUE","34.21687","-119.15819","Ventura","General Acute Care","6111004901","OXNARD","General Medical / Surgical","106560529"
"WOODLAND MEMORIAL HOSPITAL","1325 COTTONWOOD STREET","38.66284","-121.7933","Yolo","General Acute Care","6113011203","WOODLAND","General Medical / Surgical","106571086"
"NAPA STATE HOSPITAL","2100 NAPA-VALLEJO HIGHWAY","38.27994","-122.27387","Napa","Acute Psychiatric","6055200900","NAPA","Psychiatric","106281266"
"FAIRVIEW DEVELOPMENTAL CENTER","2501 HARBOR BOULEVARD","33.66325","-117.91939","Orange","General Acute Care","6059063807","COSTA MESA","Developmentally Disabled","106301781"
"PATTON STATE HOSPITAL","3102 E. HIGHLAND AVENUE","34.13589","-117.21957","San Bernardino","Acute Psychiatric","6071012300","PATTON","Psychiatric","106361768"
"PORTERVILLE DEVELOPMENTAL CENTER","26501 AVENUE 140","36.04381","-118.98044","Tulare","General Acute Care","6107004000","PORTERVILLE","Developmentally Disabled","106541123"
"SOUTHWEST HEALTHCARE SYSTEM-WILDOMAR","36485 INLAND VALLEY","33.59124","-117.23699","Riverside","General Acute Care","6065043227","WILDOMAR","General Medical / Surgical","106334001"
"SOUTHWEST HEALTHCARE SYSTEM-MURRIETA","25500 MEDICAL CENTER DRIVE","33.55788","-117.18488","Riverside","General Acute Care","6065043206","MURRIETA","General Medical / Surgical","106334068"
"EL CAMINO HOSPITAL LOS GATOS","815 POLLARD ROAD","37.26277","-121.97057","Santa Clara","General Acute Care","6085506703","LOS GATOS","General Medical / Surgical","106430743"
"MAMMOTH HOSPITAL","85 SIERRA PARK ROAD","37.64524","-118.96408","Mono","General Acute Care","6051000200","MAMMOTH LAKES","General Medical / Surgical","106260011"
"TELECARE HERITAGE PSYCHIATRIC HEALTH FACILITY","2633 East 27th Street","37.79127","-122.22257","Alameda","Psychiatric Health Facility","6001406300","Oakland","Psychiatric","106014207"
"NORTH VALLEY BEHAVIORAL HEALTH","1535 Plumas Court","39.15194354","-121.6179109","Sutter","Psychiatric Health Facility","6101050102","Yuba City","Psychiatric","106514033"
"ARROWHEAD REGIONAL MEDICAL CENTER","400 N. PEPPER AVENUE","34.07163215","-117.3527761","San Bernardino","General Acute Care","6071003612","COLTON","General Medical / Surgical","106364231"
"DEPARTMENT OF STATE HOSPITAL - COALINGA","24511 WEST JAYNE AVENUE","36.13724021","-120.237238","Fresno","Acute Psychiatric","6019007901","COALINGA","Psychiatric","106105051"
"ADVENTIST HEALTH ST. HELENA","10 WOODLAND RD.","38.53937349","-122.473003","Napa","General Acute Care","6055201700","ST. HELENA","General Medical / Surgical","106281078"
"KAISER FOUNDATION HOSPITAL - ANTIOCH","4501 SAND CREEK ROAD","37.951975","-121.776854","Contra Costa","General Acute Care","6013303201","ANTIOCH","General Medical / Surgical","106074097"
"ADVENTIST HEALTH BAKERSFIELD","2615 CHESTER AVENUE","35.383064","-119.018775","Kern","General Acute Care","6029001600","BAKERSFIELD","General Medical / Surgical","106150788"
"KAISER FOUNDATION HOSPITAL - SANTA CLARA","700 LAWRENCE EXPRESSWAY","37.334597","-121.995774","Santa Clara","General Acute Care","6085508102","SANTA CLARA","General Medical / Surgical","106434153"
"RONALD REAGAN UCLA MEDICAL CENTER","757 WESTWOOD PLAZA","34.068889","-118.445","Los Angeles","General Acute Care","6037265301","LOS ANGELES","General Medical / Surgical","106190796"
"KAISER FOUNDATION HOSPITAL - MODESTO","4601 DALE RD","37.706477","-121.05008","Stanislaus","General Acute Care","6099000504","MODESTO","General Medical / Surgical","106504042"
"RESNICK NEUROPSYCHIATRIC HOSPITAL AT UCLA","150 Medical Plaza","34.0650255","-118.4458953","Los Angeles","Acute Psychiatric","6037265301","LOS ANGELES","Psychiatric","106190930"
"COMMUNITY MEMORIAL HOSPITAL-SAN BUENAVENTURA","147 N. BRENT STREET","34.274589","-119.258124","Ventura","General Acute Care","6111001900","VENTURA","General Medical / Surgical","106560473"
"KERN MEDICAL CENTER","1700 MOUNT VERNON AVENUE","35.380833","-118.967222","Kern","General Acute Care","6029000905","BAKERSFIELD","General Medical / Surgical","106150736"
"LOMA LINDA UNIVERSITY SURGICAL HOSPITAL","26780 BARTON ROAD","34.0482716","-117.221174","San Bernardino","General Acute Care","6071007800","REDLANDS","General Medical / Surgical","106364268"
"KAISER FOUNDATION HOSPITAL - DOWNEY","9333 IMPERIAL HIGHWAY","33.9171234","-118.1290216","Los Angeles","General Acute Care","6037551101","DOWNEY","General Medical / Surgical","106196403"
"ST. AGNES MEDICAL CENTER","1303 EAST HERNDON AVENUE","36.8370782","-119.7649963","Fresno","General Acute Care","6019005406","FRESNO","General Medical / Surgical","106100899"
"MILLS-PENINSULA MEDICAL CENTER","1501 TROUSDALE DRIVE","37.5944692","-122.3832465","San Mateo","General Acute Care","6081605000","BURLINGAME","General Medical / Surgical","106410852"
"KAISER FOUNDATION HOSPITAL - VACAVILLE","1 QUALITY DRIVE","38.3894968","-121.9373177","Solano","General Acute Care","6095252904","VACAVILLE","General Medical / Surgical","106484044"
"MERCY MEDICAL CENTER - MERCED","333  MERCY AVENUE","37.3402309","-120.4651815","Merced","General Acute Care","6047001801","MERCED","General Medical / Surgical","106240942"
"VIBRA HOSPITAL OF SACRAMENTO","330 MONTROSE DRIVE","38.6819654","-121.1577854","Sacramento","General Acute Care","6067008402","FOLSOM","General Medical / Surgical","106344035"
"LOMPOC VALLEY MEDICAL CENTER","1515 E. OCEAN AVENUE","34.639252","-120.4396497","Santa Barbara","General Acute Care","6083002703","LOMPOC","General Medical / Surgical","106420491"
"CRESTWOOD PSYCHIATRIC HEALTH FACILITY-CARMICHAEL","4741 ENGLE ROAD","38.633286","-121.354578","Sacramento","Psychiatric Health Facility","6067005901","CARMICHAEL","Psychiatric","106344170"
"CRESTWOOD PSYCHIATRIC HEALTH FACILITY BAKERSFIELD","6700 EUCALYPTUS DRIVE, STE C","35.3657603","-118.929706","Kern","Psychiatric Health Facility","6029001101","BAKERSFIELD","Psychiatric","106154160"
"HOAG ORTHOPEDIC INSTITUTE","16250 SAND CANYON AVENUE","33.6617789","-117.7735916","Orange","General Acute Care","6059052518","IRVINE","Orthopedic or Pediatric Orthopedic","106304460"
"PALMDALE REGIONAL MEDICAL CENTER","38600 MEDICAL CENTER DRIVE","34.5843754","-118.1443461","Los Angeles","General Acute Care","6037910401","PALMDALE","General Medical / Surgical","106196405"
"CORONA REGIONAL MEDICAL CENTER-MAGNOLIA","730 MAGNOLIA AVENUE","33.8586945","-117.5546427","Riverside","General Acute Care","6065041809","CORONA","Psychiatric","106331145"
"CORONA REGIONAL MEDICAL CENTER-MAIN","800 SOUTH MAIN STREET","33.8733354","-117.5668015","Riverside","General Acute Care","6065041600","CORONA","General Medical / Surgical","106331152"
"KAISER PERMANENTE P.H.F - SANTA CLARA","3840 HOMESTEAD ROAD","37.3377937","-121.9947844","Santa Clara","Psychiatric Health Facility","6085506101","SANTA CLARA","Psychiatric","106434218"
"LOMA LINDA UNIVERSITY MEDICAL CENTER-MURRIETA","28062 BAXTER ROAD","33.6122263","-117.1624483","Riverside","General Acute Care","6065050700","MURRIETA","General Medical / Surgical","106334589"
"ADVENTIST HEALTH SELMA","1141 ROSE AVENUE","36.5688374","-119.5983879","Fresno","General Acute Care","6019007004","SELMA","General Medical / Surgical","106100793"
"TELECARE PLACER COUNTY PSYCHIATRIC HEALTH FACILITY","101 CIRBY HILLS DRIVE","38.7298363","-121.2876115","Placer","Psychiatric Health Facility","6061020805","ROSEVILLE","Psychiatric","106314029"
"GARDEN GROVE HOSPITAL AND MEDICAL CENTER","12601 GARDEN GROVE BLVD.","33.7745089","-117.9130315","Orange","General Acute Care","6059088502","GARDEN GROVE","General Medical / Surgical","106301283"
"ADVENTIST HEALTH HANFORD","115 MALL DRIVE","36.3256247","-119.6683912","Kings","General Acute Care","6031001002","HANFORD","General Medical / Surgical","106164029"
"CRESTWOOD PSYCHIATRIC HEALTH FACILITY-SACRAMENTO","2600 STOCKTON BLVD, STE B","38.5519144","-121.4558207","Sacramento","Psychiatric Health Facility","6067001800","SACRAMENTO","Psychiatric","106344188"
"DEPARTMENT OF STATE HOSPITAL-METROPOLITAN","11401 BLOOMFIELD AVENUE","33.9241831","-118.0640187","Los Angeles","Acute Psychiatric","6037550000","NORWALK","Psychiatric","106190958"
"PARADISE VALLEY HOSPITAL","2400 EAST FOURTH STREET","32.6863293","-117.0830382","San Diego","General Acute Care","6073011902","NATIONAL CITY","General Medical / Surgical","106370759"
"EDEN MEDICAL CENTER","20103 LAKE CHABOT RD","37.6983769","-122.0874055","Alameda","General Acute Care","6001430900","CASTRO VALLEY","General Medical / Surgical","106014233"
"BARSTOW COMMUNITY HOSPITAL","820 EAST MOUNTAIN VIEW ST","34.8935263","-117.0168841","San Bernardino","General Acute Care","6071009500","BARSTOW","General Medical / Surgical","106364430"
"VICTOR VALLEY GLOBAL MEDICAL CENTER","15248 ELEVENTH STREET","34.5281768","-117.2925622","San Bernardino","General Acute Care","6071009800","VICTORVILLE","General Medical / Surgical","106361370"
"TEMECULA VALLEY HOSPITAL","31700 TEMECULA PKWY","33.4795943","-117.1048018","Riverside","General Acute Care","6065043222","TEMECULA","General Medical / Surgical","106334564"
"BUTTE COUNTY MENTAL HEALTH SERVICES","592 RIO LINDO AVENUE","39.754281","-121.8482488","Butte","Psychiatric Health Facility","6007000300","CHICO","Psychiatric","106044006"
"KENTFIELD HOSPITAL","1125 SIR FRANCIS DRAKE BLVD.","37.9588587","-122.5529638","Marin","General Acute Care","6041119100","KENTFIELD","General Medical / Surgical","106210993"
"UNIVERSITY OF CALIFORNIA IRVINE MEDICAL CENTER","101 CITY DRIVE SOUTH","33.7879885","-117.8901339","Orange","General Acute Care","6059076102","ORANGE","General Medical / Surgical","106301279"
"MISSION HOSPITAL LAGUNA BEACH","31872 COAST HIGHWAY","33.4997391","-117.7422502","Orange","General Acute Care","6059042305","LAGUNA BEACH","General Medical / Surgical","106301337"
"UCSF MEDICAL CENTER","505 PARNASSUS AVENUE","37.7635148","-122.4576564","San Francisco","General Acute Care","6075030102","SAN FRANCISCO","General Medical / Surgical","106381154"
"TELECARE SANTA CRUZ PHF","2250 SOQUEL AVE","36.9836479","-121.9939375","Santa Cruz","Psychiatric Health Facility","6087121401","SANTA CRUZ","Psychiatric","106444029"
"ST. MARY MEDICAL CENTER - LONG BEACH","1050 LINDEN AVENUE","33.7802376","-118.1866412","Los Angeles","General Acute Care","6037576301","LONG BEACH","General Medical / Surgical","106190053"
"LAC+USC MEDICAL CENTER","1200 NORTH STATE STREET","34.05982","-118.21031","Los Angeles","General Acute Care","6037203300","LOS ANGELES","General Medical / Surgical","106191228"
"HOAG MEMORIAL HOSPITAL PRESBYTERIAN","1 HOAG DRIVE","33.62526","-117.92949","Orange","General Acute Care","6059063603","NEWPORT BEACH","General Medical / Surgical","106301205"
"HOAG HOSPITAL IRVINE","16200 SAND CANYON AVENUE","33.66168","-117.77371","Orange","General Acute Care","6059052518","IRVINE","General Medical / Surgical","106304045"
"CRESTWOOD SOLANO PSYCHIATRIC HEALTH FACILITY","2201 TUOLUMNE ST","38.13042","-122.2403","Solano","Psychiatric Health Facility","6095251901","VALLEJO","Psychiatric","106484062"
"JOHN F KENNEDY MEMORIAL HOSPITAL","47111 MONROE STREET","33.70677","-116.23391","Riverside","General Acute Care","6065045207","INDIO","General Medical / Surgical","106331216"
"TRINITY HOSPITAL","60  EASTER AVENUE","40.73784","-122.94037","Trinity","General Acute Care","6105000102","WEAVERVILLE","General Medical / Surgical","106531059"
"MODOC MEDICAL CENTER","228 WEST MCDOWELL AVENUE","41.48001","-120.54407","Modoc","General Acute Care","6049000100","ALTURAS","General Medical / Surgical","106250956"
"KAISER FOUNDATION HOSPITAL - SAN LEANDRO","2500 MERCED STREET","37.70611","-122.16917","Alameda","General Acute Care","6001432400","SAN LEANDRO","General Medical / Surgical","106014337"
"TELECARE WILLOW ROCK CENTER","2050 FAIRMONT DRIVE","37.71008","-122.12149","Alameda","Psychiatric Health Facility","6001430500","SAN LEANDRO","Psychiatric","106014226"
"NORTHRIDGE HOSPITAL MEDICAL CENTER","18300 ROSCOE BOULEVARD","34.22075","-118.53186","Los Angeles","General Acute Care","6037131400","NORTHRIDGE","General Medical / Surgical","106190568"
"MARINA DEL REY HOSPITAL","4650 LINCOLN BOULEVARD","33.98125","-118.43971","Los Angeles","General Acute Care","6037275302","MARINA DEL REY","General Medical / Surgical","106190500"
"CLOVIS COMMUNITY MEDICAL CENTER","2755 HERNDON AVENUE","36.83745","-119.66072","Fresno","General Acute Care","6019005907","CLOVIS","General Medical / Surgical","106100005"
"DESERT VALLEY HOSPITAL","16850 BEAR VALLEY ROAD","34.47093","-117.29778","San Bernardino","General Acute Care","6071010026","VICTORVILLE","General Medical / Surgical","106364144"
"KAISER FOUNDATION HOSPITAL AND REHAB CENTER - VALLEJO","975 SERENO DRIVE","38.12839","-122.24761","Solano","General Acute Care","6095251400","VALLEJO","General Medical / Surgical","106480989"
"EISENHOWER MEDICAL CENTER","39000 BOB HOPE DRIVE","33.76418","-116.40808","Riverside","General Acute Care","6065044918","RANCHO MIRAGE","General Medical / Surgical","106331168"
"ST. MARY MEDICAL CENTER - APPLE VALLEY","18300 US HIGHWAY 18","34.54053","-117.26535","San Bernardino","General Acute Care","6071012101","APPLE VALLEY","General Medical / Surgical","106361343"
"CHAPMAN GLOBAL MEDICAL CENTER","2601 EAST CHAPMAN AVENUE","33.78785","-117.82586","Orange","General Acute Care","6059075816","ORANGE","General Medical / Surgical","106301140"
"SOUTH COAST GLOBAL MEDICAL CENTER","2701 S. BRISTOL STREET","33.71112","-117.88539","Orange","General Acute Care","6059074005","SANTA ANA","General Medical / Surgical","106301258"
"COTTAGE REHABILITATION HOSPITAL","2415 DE LA VINA STREET","34.43306","-119.72248","Santa Barbara","General Acute Care","6083000302","SANTA BARBARA","Physical Rehabilitation","106424047"
"PETALUMA VALLEY HOSPITAL","400 NORTH MCDOWELL BOULEVARD","38.25323","-122.63302","Sonoma","General Acute Care","6097150609","PETALUMA","General Medical / Surgical","106491001"
"CALIFORNIA PACIFIC MED CTR-CALIFORNIA WEST","3700 CALIFORNIA STREET","37.78611","-122.45599","San Francisco","General Acute Care","6075013300","SAN FRANCISCO","General Medical / Surgical","106380777"
"SUTTER SURGICAL HOSPITAL-NORTH VALLEY","455 PLUMAS BOULEVARD","39.13216","-121.61354","Sutter","General Acute Care","6101050202","YUBA CITY","General Medical / Surgical","106514030"
"CALIFORNIA PACIFIC MED CTR-PACIFIC CAMPUS","2333 BUCHANAN STREET","37.79149","-122.43102","San Francisco","General Acute Care","6075013500","SAN FRANCISCO","General Medical / Surgical","106380929"
"EMANUEL MEDICAL CENTER","825 DELBON AVENUE","37.51052","-120.83966","Stanislaus","General Acute Care","6099003907","TURLOCK","General Medical / Surgical","106500867"
"KAISER FOUNDATION HOSPITAL - RICHMOND CAMPUS","901 NEVIN AVE","37.93685","-122.36093","Contra Costa","General Acute Care","6013376000","RICHMOND","General Medical / Surgical","106074093"
"CALIFORNIA PACIFIC MED CTR-DAVIES CAMPUS","601 DUBOCE AVENUE","37.7691","-122.43465","San Francisco","General Acute Care","6075016900","SAN FRANCISCO","General Medical / Surgical","106380933"
"ST. FRANCIS MEDICAL CENTER","3630 E. IMPERIAL HIGHWAY","33.93085","-118.20415","Los Angeles","General Acute Care","6037540203","LYNWOOD","General Medical / Surgical","106190754"
"GLENDORA COMMUNITY HOSPITAL","150 WEST ROUTE 66","34.12867","-117.86609","Los Angeles","General Acute Care","6037401102","GLENDORA","General Medical / Surgical","106190328"
"PIH HOSPITAL - DOWNEY","11500 BROOKSHIRE AVENUE","33.93515","-118.13196","Los Angeles","General Acute Care","6037551300","DOWNEY","General Medical / Surgical","106190243"
"TOTALLY KIDS REHABILITATION HOSPITAL","1720 MOUNTAIN VIEW AVE","34.06971","-117.24371","San Bernardino","General Acute Care","6071007200","LOMA LINDA","Long-Term Care (SN/IC)","106364451"
"TELECARE RIVERSIDE COUNTY PSYCHIATRIC HEALTH FACILITY","47-915 OASIS STREET","33.70085","-116.22091","Riverside","Psychiatric Health Facility","6065045501","INDIO","Psychiatric","106334457"
"KAISER FOUNDATION HOSPITAL - OAKLAND/RICHMOND","275 W. MACARTHUR BLVD.","37.82402","-122.25791","Alameda","General Acute Care","6001403501","OAKLAND","General Medical / Surgical","106014326"
"RESTPADD PSYCHIATRIC HEALTH FACILITY","2750 EUREKA WAY","40.58593","-122.41158","Shasta","Psychiatric Health Facility","6089010602","REDDING","Psychiatric","106454068"
"EXODUS RECOVERY P.H.F.","9808 VENICE BLVD","34.02359","-118.39817","Los Angeles","Psychiatric Health Facility","6037270100","CULVER CITY","Psychiatric","106197931"
"FOOTHILL REGIONAL MEDICAL CENTER","14662 NEWPORT AVENUE","33.73119","-117.82903","Orange","General Acute Care","6059075515","TUSTIN","General Medical / Surgical","106301357"
"SONOMA DEVELOPMENTAL CENTER","15000 ARNOLD DRIVE","38.3485829","-122.5176091","Sonoma","General Acute Care","6097150500","ELDRIDGE","Developmentally Disabled","106491267"
"OLYMPIA MEDICAL CENTER","5900 WEST OLYMPIC BLVD","34.05754","-118.36008","Los Angeles","General Acute Care","6037216300","LOS ANGELES","General Medical / Surgical","106190534"
"SUTTER SANTA ROSA REGIONAL HOSPITAL","30 MARK WEST SPRINGS RD.","38.49636","-122.7514","Sonoma","General Acute Care","6097152702","SANTA ROSA","General Medical / Surgical","106494106"
"LOMA LINDA UNIVERSITY CHILDRENS HOSPITAL","11234 ANDERSON ST.","34.04915","-117.26115","San Bernardino","General Acute Care","6071007303","LOMA LINDA","General Medical / Surgical","106364502"
"AURORA LAS ENCINAS HOSPITAL","2900 EAST DEL MAR BOULEVARD","34.14213","-118.09041","Los Angeles","Acute Psychiatric","6037463200","PASADENA","Psychiatric","106190462"
"BAKERSFIELD MEMORIAL HOSPITAL","420 34TH STREET","35.39051","-119.00658","Kern","General Acute Care","6029000600","BAKERSFIELD","General Medical / Surgical","106150722"
"ADVENTIST HEALTH GLENDALE","1509 WILSON TERRACE","34.14951","-118.23109","Los Angeles","General Acute Care","6037301000","GLENDALE","General Medical / Surgical","106190323"
"SURPRISE VALLEY COMMUNITY HOSPITAL","741 N. MAIN STREET","41.53221","-120.17187","Modoc","General Acute Care","6049000400","CEDARVILLE","Other","106250955"
"CEDARS SINAI MEDICAL CENTER","8700 BEVERLY BOULEVARD","34.07681","-118.38061","Los Angeles","General Acute Care","6037700400","LOS ANGELES","General Medical / Surgical","106190555"
"KAISER FOUNDATION HOSPITAL - REDWOOD CITY","1100 VETERANS BLVD.","37.48967","-122.22463","San Mateo","General Acute Care","6081610202","REDWOOD CITY","General Medical / Surgical","106414139"
"UCSF MEDICAL CENTER AT MISSION BAY","1975 4TH STREET","37.77189","-122.39129","San Francisco","General Acute Care","6075060700","SAN FRANCISCO","General Medical / Surgical","106384200"
"USC KENNETH NORRIS, JR. CANCER HOSPITAL","1441 EASTLAKE AVENUE","34.062","-118.20471","Los Angeles","General Acute Care","6037203300","LOS ANGELES","Other","106191216"
"MARTIN LUTHER KING, JR. COMMUNITY HOSPITAL","1680 EAST 120TH STREET","33.92453","-118.2435","Los Angeles","General Acute Care","6037540700","LOS ANGELES","General Medical / Surgical","106191230"
"KAISER FOUNDATION HOSPITAL - MORENO VALLEY","27300 IRIS AVENUE","33.89553","-117.18677","Riverside","General Acute Care","6065048700","MORENO VALLEY","General Medical / Surgical","106334048"
"SUTTER SOLANO MEDICAL CENTER","300 HOSPITAL DRIVE","38.13109","-122.23852","Solano","General Acute Care","6095251901","VALLEJO","General Medical / Surgical","106481094"
"COLLEGE HOSPITAL","10802 COLLEGE PLACE","33.8852","-118.10264","Los Angeles","Acute Psychiatric","6037554521","CERRITOS","Psychiatric","106190184"
"KAISER FOUNDATION HOSPITAL - MANTECA","1777 WEST YOSEMITE AVENUE","37.79736","-121.24614","San Joaquin","General Acute Care","6077005123","MANTECA","General Medical / Surgical","106394009"
"CENTRAL STAR PSYCHIATRIC HEALTH FACILITY","4411 E. KINGS CANYON ROAD","36.73596","-119.75162","Fresno","Psychiatric Health Facility","6019002702","FRESNO","Psychiatric","106105125"
"CHILDRENS HOSPITAL OF ORANGE COUNTY","1201 WEST LA VETA AVENUE","33.7807511","-117.8654488","Orange","General Acute Care","6059076000","ORANGE","Pediatric","106300032"
"VALLEY CHILDRENS HOSPITAL","9300 VALLEY CHILDRENS PLACE","36.88439","-119.80042","Madera","General Acute Care","6039001000","MADERA","Pediatric","106204019"
"KINDRED HOSPITAL - BREA","875 NORTH BREA BOULEVARD","33.93393","-117.89341","Orange","General Acute Care","6059001506","BREA","General Medical / Surgical","106301127"
"HEALTHSOUTH TUSTIN REHABILITATION HOSPITAL","14851 YORBA STREET","33.74754","-117.83028","Orange","General Acute Care","6059075505","TUSTIN","Physical Rehabilitation","106304079"
"SUTTER MEDICAL CENTER, SACRAMENTO","2825 CAPITOL AVE","38.57045","-121.47028","Sacramento","General Acute Care","6067001400","SACRAMENTO","General Medical / Surgical","106341051"
"LOS ANGELES COMMUNITY HOSPITAL AT BELLFLOWER","9542 ARTESIA BOULEVARD","33.87472","-118.12945","Los Angeles","General Acute Care","6037554404","BELLFLOWER","Psychiatric","106190066"
"SAN JOAQUIN PHF","1212 NORTH CALIFORNIA ST.","37.96564","-121.28784","San Joaquin","Psychiatric Health Facility","6077000402","STOCKTON","Psychiatric","106394003"
"KINDRED HOSPITAL - LA MIRADA","14900 IMPERIAL HIGHWAY","33.91709","-118.01321","Los Angeles","General Acute Care","6037504001","LA MIRADA","General Medical / Surgical","106190449"
"DEPARTMENT OF STATE HOSPITALS - ATASCADERO","10333 EL CAMINO REAL","35.46102","-120.64435","San Luis Obispo","Acute Psychiatric","6079012800","ATASCADERO","Psychiatric","106400683"
"NOVATO COMMUNITY HOSPITAL","180 ROWLAND WAY","38.09827","-122.55974","Marin","General Acute Care","6041101200","NOVATO","General Medical / Surgical","106214034"
"THE BETTY FORD CENTER","39000 BOB HOPE DRIVE","33.76418","-116.40808","Riverside","Chemical Dependency Recovery Hospital","6065044918","RANCHO MIRAGE","Chemical Dependency (Alcohol/Drug)","106330120"
"ALTA BATES SUMMIT MEDICAL CENTER-ALTA BATES CAMPUS","2450 ASHBY AVENUE","37.85645","-122.25743","Alameda","General Acute Care","6001423902","BERKELEY","General Medical / Surgical","106010739"
"ADVENTIST HEALTH HOWARD MEMORIAL","1 MARCELA DRIVE","39.39927","-123.35486","Mendocino","General Acute Care","6045010700","WILLITS","General Medical / Surgical","106234038"
"PALOMAR HEALTH DOWNTOWN CAMPUS","555 E. VALLEY PARKWAY","33.12586","-117.07628","San Diego","General Acute Care","6073020202","ESCONDIDO","Physical Rehabilitation","106370755"
"PALOMAR MEDICAL CENTER","2185 W. CITRACADO PARKWAY","33.12158","-117.11961","San Diego","General Acute Care","6073020307","ESCONDIDO","General Medical / Surgical","106374382"
"EXODUS PSYCHIATRIC HEALTH FACILITY FRESNO","4411 E. KINGS CANYON ROAD","36.73596","-119.75162","Fresno","Psychiatric Health Facility","6019002702","FRESNO","Psychiatric","106104089"
"SOUTHERN INYO HOSPITAL","501 EAST LOCUST STREET","36.6084","-118.05816","Inyo","General Acute Care","6027000800","LONE PINE","Long-Term Care (SN/IC)","106141338"
"SAN DIEGO COUNTY PSYCHIATRIC HOSPITAL","3853 ROSECRANS STREET","32.75376","-117.20257","San Diego","Acute Psychiatric","6073006500","SAN DIEGO","Psychiatric","106374055"
"PRESBYTERIAN INTERCOMMUNITY HOSPITAL","12401 WASHINGTON BLVD.","33.9697943","-118.049255","Los Angeles","General Acute Care","6037502100","WHITTIER","General Medical / Surgical","106190631"
"PLACENTIA LINDA HOSPITAL","1301 NORTH ROSE DRIVE","33.887072","-117.8434267","Orange","General Acute Care","6059011715","PLACENTIA","General Medical / Surgical","106301297"
"KEDREN COMMUNITY MENTAL HEALTH CENTER","4211 AVALON BOULEVARD","34.0073123","-118.2661803","Los Angeles","Acute Psychiatric","6037228320","LOS ANGELES","Psychiatric","106190150"
"TORRANCE MEMORIAL MEDICAL CENTER","3330 LOMITA BOULEVARD","33.8119157","-118.3434945","Los Angeles","General Acute Care","6037651101","TORRANCE","General Medical / Surgical","106190422"
"CRESTWOOD PSYCHIATRIC HEALTH FACILITY-SAN JOSE","1425 FRUITDALE AVE","37.3113613","-121.915081","Santa Clara","Psychiatric Health Facility","6085502201","SAN JOSE","Psychiatric","106434220"
"TELECARE STANISLAUS COUNTY PHF","1904 RICHLAND AVENUE","37.6002513","-120.9632767","Stanislaus","Psychiatric Health Facility","6099002604","CERES","Psychiatric","106504081"
"TULARE REGIONAL MEDICAL CENTER","869 NORTH CHERRY STREET","36.2210166","-119.3385341","Tulare","General Acute Care","6107002303","TULARE","General Medical / Surgical","106540816"
"SOUTHERN CALIFORNIA HOSPITAL AT CULVER CITY","3828 DELMAS TERRACE","34.0231953","-118.3969429","Los Angeles","General Acute Care","6037702400","CULVER CITY","General Medical / Surgical","106190110"
"SAN GORGONIO MEMORIAL HOSPITAL","600 N. HIGHLAND SPRINGS AVENUE","33.9317494","-116.9459031","Riverside","General Acute Care","6065044103","BANNING","General Medical / Surgical","106331326"
"ALVARADO HOSPITAL MEDICAL CENTER","6655 ALVARADO ROAD","32.7766415","-117.0573188","San Diego","General Acute Care","6073002904","SAN DIEGO","General Medical / Surgical","106370652"
"LAKEWOOD REGIONAL MEDICAL CENTER","3700 SOUTH STREET","33.859731","-118.1492012","Los Angeles","General Acute Care","6037570701","LAKEWOOD","General Medical / Surgical","106190240"
"CHILDRENS HOSPITAL OF LOS ANGELES","4650 W. SUNSET BOULEVARD","34.0978692","-118.2909547","Los Angeles","General Acute Care","6037191302","LOS ANGELES","Pediatric","106190170"
"SAN RAMON REGIONAL MEDICAL CENTER SOUTH BUILDING","7777 NORRIS CANYON ROAD","37.77405","-121.95748","Contra Costa","General Acute Care","6013345108","SAN RAMON","Other","106074011"
"SAN RAMON REGIONAL MEDICAL CENTER","6001 NORRIS CANYON ROAD","37.77549","-121.95884","Contra Costa","General Acute Care","6013345108","SAN RAMON","General Medical / Surgical","106074017"
"FAIRMONT HOSPITAL","15400 FOOTHILL BOULEVARD","37.70648","-122.11819","Alameda","General Acute Care","6001430500","SAN LEANDRO","Long-Term Care (SN/IC)","106010811"
"HIGHLAND HOSPITAL","1411 EAST 31ST STREET","37.79925","-122.23138","Alameda","General Acute Care","6001405700","OAKLAND","General Medical / Surgical","106010846"
"EARL AND LORAINE MILLER CHILDRENS HOSPITAL","2801 ATLANTIC AVENUE","33.80807","-118.18506","Los Angeles","General Acute Care","6037572202","LONG BEACH","Pediatric","106196168"
"PROVIDENCE SAINT JOSEPH MEDICAL CENTER","501 S BUENA VISTA STREET","34.15486","-118.32655","Los Angeles","General Acute Care","6037311600","BURBANK","General Medical / Surgical","106190758"
"CALIFORNIA REHABILITATION INSTITUTE, LLC","2070 CENTURY PARK EAST","34.05899","-118.4124","Los Angeles","General Acute Care","6037267901","LOS ANGELES","Physical Rehabilitation","106190155"
"SUTTER AUBURN FAITH HOSPITAL","11815 EDUCATION STREET","38.94432","-121.09943","Placer","General Acute Care","6061021603","AUBURN","General Medical / Surgical","106310791"
"SUTTER DAVIS HOSPITAL","2000 SUTTER PLACE","38.56289","-121.77164","Yolo","General Acute Care","6113010505","DAVIS","General Medical / Surgical","106574010"
"SUTTER ROSEVILLE MEDICAL CENTER","1 MEDICAL PLAZA DRIVE","38.76515","-121.24922","Placer","General Acute Care","6061022400","ROSEVILLE","General Medical / Surgical","106311000"
"DOCTORS HOSPITAL OF MANTECA","1205 EAST NORTH STREET","37.80111","-121.19746","San Joaquin","General Acute Care","6077005110","MANTECA","General Medical / Surgical","106392287"
"SIERRA VISTA HOSPITAL","8001 BRUCEVILLE ROAD","38.46571","-121.41764","Sacramento","Acute Psychiatric","6067009606","SACRAMENTO","Psychiatric","106342392"
"DAMERON HOSPITAL","525 WEST ACACIA ST","37.96125","-121.30067","San Joaquin","General Acute Care","6077000401","STOCKTON","General Medical / Surgical","106390846"
"MARSHALL  MEDICAL CENTER","1100 MARSHALL WAY","38.72556","-120.79092","El Dorado","General Acute Care","6017031200","PLACERVILLE","General Medical / Surgical","106090933"
"SHRINERS HOSPITALS FOR CHILDREN NORTHERN CALIF.","2425 STOCKTON BLVD","38.55286","-121.45619","Sacramento","General Acute Care","6067001700","SACRAMENTO","Pediatric","106344114"
"SADDLEBACK MEMORIAL MEDICAL CENTER","24451 HEALTH CENTER DRIVE","33.60802","-117.70825","Orange","General Acute Care","6059062647","LAGUNA HILLS","General Medical / Surgical","106301317"
"SADDLEBACK MEMORIAL MEDICAL CENTER - SAN CLEMENTE","654 CAMINO DE LOS MARES","33.45745","-117.64954","Orange","General Acute Care","6059042205","SAN CLEMENTE",NA,"106301325"
"SENECA DISTRICT HOSPITAL","130 BRENTWOOD DRIVE","40.30547","-121.23396","Plumas","General Acute Care","6063000501","CHESTER","General Medical / Surgical","106321016"
"MOTION PICTURE AND TELEVISION HOSPITAL","23388 MULHOLLAND DRIVE","34.1584","-118.63605","Los Angeles","Acute Psychiatric","6037137402","WOODLAND HILLS","Long-Term Care (SN/IC)","106190552"
"ADVENTIST HEALTH CLEARLAKE","15630 18TH AVE","38.93619","-122.6202","Lake","General Acute Care","6033000702","CLEARLAKE","General Medical / Surgical","106171049"
"LAC/HARBOR-UCLA MEDICAL CENTER","1000 WEST CARSON STREET","33.83155","-118.29353","Los Angeles","General Acute Care","6037543503","TORRANCE","General Medical / Surgical","106191227"
"SANTA YNEZ VALLEY COTTAGE HOSPITAL","2050 VIBORG ROAD","34.60243","-120.12721","Santa Barbara","General Acute Care","6083001903","SOLVANG","General Medical / Surgical","106420522"
"ENLOE MEDICAL CENTER - COHASSET","560 COHASSET ROAD","39.75187","-121.84793","Butte","General Acute Care","6007000300","CHICO","Psychiatric","106040828"
"ENLOE MEDICAL CENTER- ESPLANADE","1531 ESPLANADE","39.74226","-121.84918","Butte","General Acute Care","6007000603","CHICO","General Medical / Surgical","106040962"
"COALINGA REGIONAL MEDICAL CENTER","1191 PHELPS AVENUE","36.15152","-120.34035","Fresno","General Acute Care","6019007902","COALINGA","General Medical / Surgical","106100697"
"MADERA COMMUNITY HOSPITAL","1250 EAST ALMOND AVENUE","36.94538","-120.0447","Madera","General Acute Care","6039000502","MADERA","General Medical / Surgical","106201281"
"DEL AMO HOSPITAL","23700 CAMINO DEL SOL","33.80883","-118.34418","Los Angeles","Acute Psychiatric","6037651101","TORRANCE","Psychiatric","106190232"
"KAISER FOUNDATION HOSPITAL - PANORAMA CITY","13652 CANTARA STREET","34.2198","-118.43103","Los Angeles","General Acute Care","6037120400","PANORAMA CITY","General Medical / Surgical","106190432"
"LAGUNA TREATMENT HOSPITAL, LLC","24552 PACIFIC PARK DRIVE","33.57191","-117.70173","Orange","Chemical Dependency Recovery Hospital","6059042333","ALISO VIEJO","Chemical Dependency (Alcohol/Drug)","106304583"
"MAYERS MEMORIAL HOSPITAL","43563 STATE HWY. 299 E","41.02423","-121.42442","Shasta","General Acute Care","6089012702","FALL RIVER MILLS","General Medical / Surgical","106450936"
"LA PALMA INTERCOMMUNITY HOSPITAL","7901 WALKER STREET","33.84755","-118.0373","Orange","General Acute Care","6059110116","LA PALMA","General Medical / Surgical","106301234"
"SANTA ROSA MEMORIAL HOSPITAL-SOTOYOME","151 SOTOYOME STREET","38.44204","-122.70136","Sonoma","General Acute Care","6097152000","SANTA ROSA","Other","106490907"
"SANTA ROSA MEMORIAL HOSPITAL-MONTGOMERY","1165 MONTGOMERY DRIVE","38.4429","-122.70149","Sonoma","General Acute Care","6097151800","SANTA ROSA","General Medical / Surgical","106491064"
"VALLEY PRESBYTERIAN HOSPITAL","15107 VANOWEN STREET","34.19396","-118.4632","Los Angeles","General Acute Care","6037127804","VAN NUYS","General Medical / Surgical","106190812"
"PROMISE HOSPITAL OF EAST LOS ANGELES-EAST L.A. CAMPUS","443 SOUTH SOTO STREET","34.03959","-118.21247","Los Angeles","General Acute Care","6037204600","LOS ANGELES","General Medical / Surgical","106190468"
"SUTTER CENTER FOR PSYCHIATRY","7700 FOLSOM BOULEVARD","38.55065","-121.41422","Sacramento","Acute Psychiatric","6067005205","SACRAMENTO","Psychiatric","106344017"
"MARK TWAIN MEDICAL CENTER","768 MOUNTAIN RANCH ROAD","38.19057","-120.67095","Calaveras","General Acute Care","6009000300","SAN ANDREAS","General Medical / Surgical","106050932"
"BARTON MEMORIAL HOSPITAL","2170 SOUTH AVENUE","38.91228","-119.99758","El Dorado","General Acute Care","6017030402","SOUTH LAKE TAHOE","General Medical / Surgical","106090793"
"ENLOE REHABILITATION CENTER","340 WEST EAST AVENUE","39.75346","-121.86694","Butte","General Acute Care","6007000402","CHICO","Physical Rehabilitation","106044011"
"ORCHARD HOSPITAL","240 SPRUCE STREET","39.36701","-121.68955","Butte","General Acute Care","6007003502","GRIDLEY","General Medical / Surgical","106040802"
"BAKERSFIELD BEHAVORIAL HEALTHCARE HOSPITAL, LLC","5201 WHITE LANE","35.318","-119.0581","Kern","Acute Psychiatric","6029003124","BAKERSFIELD","Psychiatric","106154044"
"THE CHAMPION CENTER","303 SOUTH C STREET","34.64229","-120.45148","Santa Barbara","Chemical Dependency Recovery Hospital","6083002703","LOMPOC","Chemical Dependency (Alcohol/Drug)","106424102"
"HEALTHSOUTH REHABILITATION HOSPITAL OF MODESTO","1303 MABLE AVE","37.69614","-120.97544","Stanislaus","General Acute Care","6099000403","MODESTO","Physical Rehabilitation","106504079"
"ALAMEDA HOSPITAL","2070 CLINTON AVE","37.76266","-122.253991","Alameda","General Acute Care","6001428500","ALAMEDA","General Medical / Surgical","106010735"
"ANTELOPE VALLEY HOSPITAL","1600 WEST AVENUE J","34.6878","-118.157981","Los Angeles","General Acute Care","6037900703","LANCASTER","General Medical / Surgical","106190034"
"PROVIDENCE TARZANA MEDICAL CENTER","18321 CLARK STREET","34.17067","-118.532001","Los Angeles","General Acute Care","6037139401","TARZANA","General Medical / Surgical","106190517"
"POMONA VALLEY HOSPITAL MEDICAL CENTER","1798 NORTH GAREY AVENUE","34.07709","-117.750621","Los Angeles","General Acute Care","6037402102","POMONA","General Medical / Surgical","106190630"
"TARZANA TREATMENT CENTER","18646 OXNARD STREET","34.17923","-118.539761","Los Angeles","Acute Psychiatric","6037139302","TARZANA","Psychiatric","106190782"
"SANTA MONICA - UCLA MEDICAL CENTER AND ORTHOPAEDIC HOSPITAL","1250 16TH STREET","34.027539","-118.486123","Los Angeles","General Acute Care","6037701502","SANTA MONICA","General Medical / Surgical","106190687"
"GATEWAYS HOSPITAL AND MENTAL HEALTH CENTER","1891 EFFIE STREET","34.08515","-118.256571","Los Angeles","Acute Psychiatric","6037197420","LOS ANGELES","Psychiatric","106190317"
"AURORA CHARTER OAK","1161 EAST COVINA BOULEVARD","34.10038","-117.866811","Los Angeles","Acute Psychiatric","6037403801","COVINA","Psychiatric","106190163"
"ADVENTIST HEALTH WHITE MEMORIAL","1720 CESAR E. CHAVEZ AVENUE","34.04932","-118.217461","Los Angeles","General Acute Care","6037203500","LOS ANGELES","General Medical / Surgical","106190878"
"SIERRA VISTA REGIONAL MEDICAL CENTER","1010 MURRAY STREET","35.290986","-120.666309","San Luis Obispo","General Acute Care","6079010902","SAN LUIS OBISPO","General Medical / Surgical","106400524"
"LOS ROBLES HOSPITAL AND MEDICAL CENTER","215 WEST JANSS ROAD","34.20762","-118.882411","Ventura","General Acute Care","6111006600","THOUSAND OAKS","General Medical / Surgical","106560492"
"LOS ROBLES HOSPITAL AND MEDICAL CENTER - EAST CAMPUS","150 VIA MERIDA","34.15588","-118.814629","Ventura","General Acute Care","6111007402","WESTLAKE VILAGE","Other","106564018"
"THOUSAND OAKS SURGICAL HOSPITAL, a campus of Los Robles Hosp AND Med Ctr","401 ROLLING OAKS DRIVE","34.17502","-118.869041","Ventura","General Acute Care","6111005911","THOUSAND OAKS","General Medical / Surgical","106564121"
"MONROVIA MEMORIAL HOSPITAL","323 SOUTH HELIOTROPE AVENUE","34.149086","-117.992205","Los Angeles","General Acute Care","6037431001","MONROVIA","General Medical / Surgical","106190541"
"CASA COLINA HOSPITAL","255 EAST BONITA AVENUE","34.096265","-117.745655","Los Angeles","General Acute Care","6037401704","POMONA","Physical Rehabilitation","106190137"
"AMERICAN RECOVERY CENTER","2180 VALLEY BOULEVARD","34.06133","-117.79059","Los Angeles","Chemical Dependency Recovery Hospital","6037402402","POMONA","Chemical Dependency (Alcohol/Drug)","106194010"
"SAN DIMAS COMMUNITY HOSPITAL","1350 WEST COVINA BOULEVARD","34.099076","-117.834328","Los Angeles","General Acute Care","6037401312","SAN DIMAS","General Medical / Surgical","106190673"
"PROVIDENCE SAINT JOHNS HEALTH CENTER","2121 SANTA MONICA BLVD.","34.029804","-118.478668","Los Angeles","General Acute Care","6037701602","SANTA MONICA","General Medical / Surgical","106190756"
"PROVIDENCE LITTLE COMPANY OF MARY MEDICAL CENTER TORRANCE","4101 TORRANCE BOULEVARD","33.83891","-118.356771","Los Angeles","General Acute Care","6037650602","TORRANCE","General Medical / Surgical","106190470"
"PROVIDENCE LITTLE COMPANY OF MARY MC - SAN PEDRO","1300 WEST SEVENTH STREET","33.737939","-118.303893","Los Angeles","General Acute Care","6037609900","SAN PEDRO","General Medical / Surgical","106190680"
"KAISER FOUNDATION HOSPITAL - LOS ANGELES","4867 SUNSET BOULEVARD","34.09875","-118.295371","Los Angeles","General Acute Care","6037191201","LOS ANGELES","General Medical / Surgical","106190429"
"KAISER FOUNDATION HOSPITAL - MENTAL HEALTH CENTER","765 COLLEGE STREET","34.06657","-118.243391","Los Angeles","General Acute Care","6037197700","LOS ANGELES","Psychiatric","106190646"
"KAISER FOUNDATION HOSPITAL - SOUTH BAY","25825 SOUTH VERMONT AVENUE","33.78926","-118.29373","Los Angeles","General Acute Care","6037294421","HARBOR CITY","General Medical / Surgical","106190431"
"KINDRED HOSPITAL - LOS ANGELES","5525 WEST SLAUSON AVENUE","33.99021","-118.378431","Los Angeles","General Acute Care","6037703002","LOS ANGELES","General Medical / Surgical","106190305"
"KINDRED HOSPITAL - BALDWIN PARK","14148 FRANCISQUITO AVENUE","34.06288","-117.967611","Los Angeles","General Acute Care","6037406901","BALDWIN PARK","General Medical / Surgical","106190049"
"CITY OF HOPE HELFORD CLINICAL RESEARCH HOSPITAL","1500 DUARTE ROAD","34.13219","-117.97356","Los Angeles","General Acute Care","6037430102","DUARTE","Other","106190176"
"STANFORD HEALTH CARE","300 PASTEUR DRIVE","37.433","-122.175881","Santa Clara","General Acute Care","6085511609","PALO ALTO","General Medical / Surgical","106430905"
"SALINAS VALLEY MEMORIAL HOSPITAL","450 EAST ROMIE LANE","36.65909","-121.646291","Monterey","General Acute Care","6053014500","SALINAS","General Medical / Surgical","106270875"
"SUTTER MATERNITY AND SURGERY CENTER OF SANTA CRUZ","2900 CHANTICLEER AVENUE","36.98772","-121.977491","Santa Cruz","General Acute Care","6087121300","SANTA CRUZ","General Medical / Surgical","106444012"
"JOHN MUIR MEDICAL CENTER-WALNUT CREEK CAMPUS","1601 YGNACIO VALLEY ROAD","37.91304","-122.040781","Contra Costa","General Acute Care","6013338302","WALNUT CREEK","General Medical / Surgical","106070988"
"EASTERN PLUMAS HOSPITAL-PORTOLA CAMPUS","500 1ST AVE","39.80517","-120.462591","Plumas","General Acute Care","6063000300","PORTOLA","General Medical / Surgical","106320859"
"SIERRA NEVADA MEMORIAL HOSPITAL","155 GLASSON WAY","39.22808","-121.047201","Nevada","General Acute Care","6057000501","GRASS VALLEY","General Medical / Surgical","106291023"
"TAHOE FOREST HOSPITAL","10121 PINE AVE","39.324536","-120.201516","Nevada","General Acute Care","6057001206","TRUCKEE","General Medical / Surgical","106291053"
"SHASTA REGIONAL MEDICAL CENTER","1100 BUTTE STREET","40.58562","-122.387731","Shasta","General Acute Care","6089010100","REDDING","General Medical / Surgical","106450940"
"FREMONT MEDICAL CENTER","970 PLUMAS STREET","39.14343","-121.617831","Sutter","General Acute Care","6101050102","YUBA CITY","General Medical / Surgical","106510882"
"RIDEOUT MEMORIAL HOSPITAL","726 FOURTH ST","39.138805","-121.593602","Yuba","General Acute Care","6115040100","MARYSVILLE","General Medical / Surgical","106580996"
"FAIRCHILD MEDICAL CENTER","444 BRUCE STREET","41.71949","-122.645801","Siskiyou","General Acute Care","6093000702","YREKA","General Medical / Surgical","106474007"
"COMMUNITY REGIONAL MEDICAL CENTER-FRESNO","2823 FRESNO STREET","36.74252","-119.784071","Fresno","General Acute Care","6019000502","FRESNO","General Medical / Surgical","106100717"
"COMMUNITY BEHAVIORAL HEALTH CENTER","7171 NORTH CEDAR AVENUE","36.84079","-119.756841","Fresno","General Acute Care","6019005510","FRESNO","Psychiatric","106104008"
"FRESNO HEART AND SURGICAL HOSPITAL","15 E. AUDUBON DR.","36.860919","-119.788856","Fresno","General Acute Care","6019004408","FRESNO","General Medical / Surgical","106105029"
"COMMUNITY SUBACUTE AND TRANSITIONAL CARE CENTER","3003 NORTH MARIPOSA STREET","36.77814","-119.779521","Fresno","General Acute Care","6019003400","FRESNO","Long-Term Care (SN/IC)","206100718"
"SAN JOAQUIN VALLEY REHABILITATION HOSPITAL","7173 N. SHARON AVENUE","36.84034","-119.760671","Fresno","General Acute Care","6019005510","FRESNO","Physical Rehabilitation","106104023"
"MEMORIAL MEDICAL CENTER - MODESTO","1700 COFFEE ROAD","37.66868","-120.973381","Stanislaus","General Acute Care","6099000910","MODESTO","General Medical / Surgical","106500939"
"CENTRAL VALLEY SPECIALTY HOSPITAL","730 17TH STREET","37.64342","-120.990601","Stanislaus","General Acute Care","6099001800","MODESTO","General Medical / Surgical","106500954"
"ADVENTIST HEALTH UKIAH VALLEY","275 HOSPITAL DRIVE","39.15216","-123.202741","Mendocino","General Acute Care","6045011500","UKIAH","General Medical / Surgical","106231396"
"ADVENTIST HEALTH FEATHER RIVER","5974 PENTZ ROAD","39.75743","-121.57228","Butte","General Acute Care","6007002000","PARADISE","General Medical / Surgical","106040875"
"HENRY MAYO NEWHALL HOSPITAL","23845 MCBEAN PARKWAY","34.39545","-118.55476","Los Angeles","General Acute Care","6037920330","VALENCIA","General Medical / Surgical","106190949"
"HEALTHBRIDGE CHILDRENS HOSPITAL-ORANGE","393 S. TUSTIN STREET","33.78249","-117.83572","Orange","General Acute Care","6059075806","ORANGE","Pediatric","106304159"
"MPI CHEMICAL DEPENDENCY RECOVERY HOSPITAL","3012 SUMMIT STREET","37.81944","-122.26451","Alameda","Chemical Dependency Recovery Hospital","6001401300","OAKLAND","Chemical Dependency (Alcohol/Drug)","106013687"
"KAISER FOUNDATION HOSPITAL - SAN DIEGO - CLAIREMONT MESA","9455 CLAIREMONT MESA BLVD","32.83154","-117.12581","San Diego","General Acute Care","6073008511","SAN DIEGO","General Medical / Surgical","106374465"
"HAZEL HAWKINS MEMORIAL HOSPITAL D/P SNF","900 SUNSET DRIVE","36.83514","-121.3867","San Benito","General Acute Care","6069000600","HOLLISTER","Long-Term Care (SN/IC)","206351814"
"WEST HILLS HOSPITAL AND MEDICAL CENTER","7300 MEDICAL CENTER DRIVE","34.20337","-118.62939","Los Angeles","General Acute Care","6037134422","WEST HILLS","General Medical / Surgical","106190859"
"RESTPADD RED BLUFF PSYCHIATRIC HEALTH FACILITY","925 WALNUT STREET","40.17488","-122.24266","Tehama","Psychiatric Health Facility","6103000500","RED BLUFF","Psychiatric","106524017"
"ADVENTIST HEALTH SIMI VALLEY","2975 SYCAMORE DRIVE","34.28973","-118.74394","Ventura","General Acute Care","6111007903","SIMI VALLEY","General Medical / Surgical","106560525"
"GARDENS REGIONAL HOSPITAL AND MEDICAL CENTER","21530 PIONEER BOULEVARD","33.83377","-118.08176","Los Angeles","General Acute Care","6037555102","HAWAIIAN GARDENS",NA,"106190159"
"KAISER FOUNDATION HOSPITAL - ORANGE COUNTY - IRVINE","6640 ALTON PARKWAY","33.65921","-117.77401","Orange","General Acute Care","6059052518","IRVINE","General Medical / Surgical","106304306"
"KAISER FOUNDATION HOSPITAL - ORANGE COUNTY - ANAHEIM","3440 E LA PALMA AVE","33.85442","-117.84399","Orange","General Acute Care","6059011714","ANAHEIM","General Medical / Surgical","106304409"
"ADVENTIST HEALTH SONORA - FAIRVIEW","179 FAIRVIEW LANE","37.97856","-120.39093","Tuolumne","General Acute Care","6109001100","SONORA","General Medical / Surgical","106552209"
"ADVENTIST HEALTH SONORA - GREENLEY","1000 GREENLEY RD","37.97568","-120.369","Tuolumne","General Acute Care","6109001200","SONORA","General Medical / Surgical","106554011"
"OCEAN VIEW PSYCHIATRIC HEALTH FACILITY","2600 REDONDO AVENUE, SUITE 500","33.8043","-118.1513","Los Angeles","Psychiatric Health Facility","6037574202","LONG BEACH","Psychiatric","106198495"
"KINDRED HOSPITAL - SANTA ANA","1901 COLLEGE AVENUE","33.76158","-117.89183","Orange","General Acute Care","6059075302","SANTA ANA","General Medical / Surgical","106301167"
"VENTURA COUNTY MEDICAL CENTER","300 HILLMONT AVE","34.27693","-119.25384","Ventura","General Acute Care","6111001900","VENTURA","General Medical / Surgical","106560481"
"PROMISE HOSPITAL OF EAST LOS ANGELES-SUBURBAN CAMPUS","16453 COLORADO AVENUE","33.8849","-118.16144","Los Angeles","General Acute Care","6037553802","PARAMOUNT","General Medical / Surgical","106190599"
"SANTA BARBARA COTTAGE HOSPITAL","400 W. PUEBLO STREET","34.42948","-119.72317","Santa Barbara","General Acute Care","6083000302","SANTA BARBARA","General Medical / Surgical","106420514"
"COAST PLAZA HOSPITAL","13100 STUDEBAKER ROAD","33.91255","-118.09915","Los Angeles","General Acute Care","6037552001","NORWALK","General Medical / Surgical","106190766"
"JOHN C FREMONT HEALTHCARE DISTRICT","5189 HOSPITAL RD., PO BOX 216","37.50045","-119.97698","Mariposa","General Acute Care","6043000101","MARIPOSA","General Medical / Surgical","106220733"
"MERCY MEDICAL CENTER MT. SHASTA","914 PINE STREET,","41.31894","-122.32309","Siskiyou","General Acute Care","6093001000","MOUNT SHASTA","General Medical / Surgical","106470871"
