"FAC_NAME","FAC_ADDRESS_ONE","LATITUDE","LONGITUDE","COUNTY","TYPE_LIC","CENS_TRACT","FAC_CITY","TYPE_SVC_PRINCIPAL","EMERGENCY_SERVICES","OSHPD_ID"
"ST ROSE HOSPITAL","27200 calaroga ave, hayward, ca 94545, usa",37.6334549,-122.0879165,"ALAMEDA",NA,NA,"Hayward","Acute Care Hospitals","Yes","050002"
"ST JOSEPH HOSPITAL","2700 dolbeer st, eureka, ca 95501, usa",40.7840947,-124.1421682,"HUMBOLDT",NA,NA,"Eureka","Acute Care Hospitals","Yes","050006"
"MILLS-PENINSULA MEDICAL CENTER","1501 trousdale dr, burlingame, ca 94010, usa",37.5921025,-122.3833423,"SAN MATEO",NA,NA,"Burlingame","Acute Care Hospitals","Yes","050007"
"CALIFORNIA PACIFIC MEDICAL CTR-DAVIES CAMPUS HOSP","601 duboce ave, san francisco, ca 94117, usa",37.7685917,-122.4347308,"SAN FRANCISCO",NA,NA,"San Francisco","Acute Care Hospitals","No","050008"
"QUEEN OF THE VALLEY MEDICAL CENTER","1000 trancas st, napa, ca 94558, usa",38.324482,-122.2971094,"NAPA",NA,NA,"Napa","Acute Care Hospitals","Yes","050009"
"ADVENTIST HEALTH ST HELENA","10 woodland rd, st helena, ca 94574, usa",38.5425501,-122.4748268,"NAPA",NA,NA,"Saint Helena","Acute Care Hospitals","No","050013"
"SUTTER AMADOR HOSPITAL","200 mission blvd, jackson, ca 95642, usa",38.3504826,-120.764465,"AMADOR",NA,NA,"Jackson","Acute Care Hospitals","Yes","050014"
"MERCY GENERAL HOSPITAL","4001 j st, sacramento, ca 95819, usa",38.569837,-121.452588,"SACRAMENTO",NA,NA,"Sacramento","Acute Care Hospitals","No","050017"
"RIVERSIDE COMMUNITY HOSPITAL","4445 magnolia ave, riverside, ca 92501, usa",33.9772213,-117.3815694,"RIVERSIDE",NA,NA,"Riverside","Acute Care Hospitals","Yes","050022"
"PARADISE VALLEY HOSPITAL","2400 e 4th st, national city, ca 91950, usa",32.6851132,-117.0828852,"SAN DIEGO",NA,NA,"National City","Acute Care Hospitals","Yes","050024"
"UC SAN DIEGO HEALTH HILLCREST - HILLCREST MED CTR","south wing, 200 w arbor dr, san diego, ca 92103, usa",32.7542698,-117.166135,"SAN DIEGO",NA,NA,"San Diego","Acute Care Hospitals","Yes","050025"
"GROSSMONT HOSPITAL","5555 grossmont center dr, la mesa, ca 91942, usa",32.780617,-117.0075286,"SAN DIEGO",NA,NA,"La Mesa","Acute Care Hospitals","Yes","050026"
"MAD RIVER COMMUNITY HOSPITAL","3800 janes rd, arcata, ca 95521, usa",40.8963361,-124.0916707,"HUMBOLDT",NA,NA,"Arcata","Acute Care Hospitals","Yes","050028"
"OROVILLE HOSPITAL","2767 olive hwy, oroville, ca 95966, usa",39.5062597,-121.5410928,"BUTTE",NA,NA,"Oroville","Acute Care Hospitals","Yes","050030"
"BAKERSFIELD MEMORIAL HOSPITAL","420 34th st, bakersfield, ca 93301, usa",35.3909088,-119.0060445,"KERN",NA,NA,"Bakersfield","Acute Care Hospitals","Yes","050036"
"SANTA CLARA VALLEY MEDICAL CENTER","751 s bascom ave, san jose, ca 95128, usa",37.3128569,-121.9332672,"SANTA CLARA",NA,NA,"San Jose","Acute Care Hospitals","Yes","050038"
"ENLOE MEDICAL CENTER","1531 esplanade, chico, ca 95926, usa",39.7425867,-121.849727,"BUTTE",NA,NA,"Chico","Acute Care Hospitals","Yes","050039"
"LAC/OLIVE VIEW-UCLA MEDICAL CENTER","14445 olive view dr, sylmar, ca 91342, usa",34.3259095,-118.4459572,"LOS ANGELES",NA,NA,"Sylmar","Acute Care Hospitals","Yes","050040"
"ST ELIZABETH COMMUNITY HOSPITAL","2550 sister mary columba dr, red bluff, ca 96080, usa",40.1485519,-122.2190196,"TEHAMA",NA,NA,"Red Bluff","Acute Care Hospitals","Yes","050042"
"ALTA BATES SUMMIT MEDICAL CENTER","350 hawthorne ave, oakland, ca 94609, usa",37.821677,-122.2630846,"ALAMEDA",NA,NA,"Oakland","Acute Care Hospitals","Yes","050043"
"EL CENTRO REGIONAL MEDICAL CENTER","1415 ross ave, el centro, ca 92243, usa",32.7804333,-115.568571,"IMPERIAL",NA,NA,"El Centro","Acute Care Hospitals","Yes","050045"
"CALIFORNIA PACIFIC MEDICAL CTR-PACIFIC CAMPUS HOSP","2333 buchanan st, san francisco, ca 94115, usa",37.7908706,-122.4312411,"SAN FRANCISCO",NA,NA,"San Francisco","Acute Care Hospitals","Yes","050047"
"SAN GORGONIO MEMORIAL HOSPITAL","600 n highland springs ave, banning, ca 92220, usa",33.9316874,-116.9461472,"RIVERSIDE",NA,NA,"Banning","Acute Care Hospitals","Yes","050054"
"CALIFORNIA PACIFIC MEDICAL CTR - ST. LUKE'S CAMPUS","3555 cesar chavez, san francisco, ca 94110, usa",37.7477025,-122.4206672,"SAN FRANCISCO",NA,NA,"San Francisco","Acute Care Hospitals","Yes","050055"
"ANTELOPE VALLEY HOSPITAL","1600 w ave j, lancaster, ca 93534, usa",34.6884937,-118.1585302,"LOS ANGELES",NA,NA,"Lancaster","Acute Care Hospitals","Yes","050056"
"KAWEAH DELTA MEDICAL CENTER","400 w mineral king ave, visalia, ca 93291, usa",36.328572,-119.2949582,"TULARE",NA,NA,"Visalia","Acute Care Hospitals","Yes","050057"
"GLENDALE MEM HOSPITAL & HLTH CENTER","1420 s central ave, glendale, ca 91204, usa",34.1280862,-118.2569564,"LOS ANGELES",NA,NA,"Glendale","Acute Care Hospitals","Yes","050058"
"COMMUNITY REGIONAL MEDICAL CENTER","2823 fresno st, fresno, ca 93721, usa",36.742835,-119.7848543,"FRESNO",NA,NA,"Fresno","Acute Care Hospitals","Yes","050060"
"HOLLYWOOD PRESBYTERIAN MEDICAL CENTER","301, 1300 n vermont ave, los angeles, ca 90027, usa",34.096367,-118.289965,"LOS ANGELES",NA,NA,"Los Angeles","Acute Care Hospitals","Yes","050063"
"OAK VALLEY HOSPITAL DISTRICT","350 s oak ave, oakdale, ca 95361, usa",37.7575437,-120.8609984,"STANISLAUS",NA,NA,"Oakdale","Acute Care Hospitals","Yes","050067"
"ST JOSEPH HOSPITAL","1100 w stewart dr, orange, ca 92868, usa",33.7820441,-117.8654245,"ORANGE",NA,NA,"Orange","Acute Care Hospitals","Yes","050069"
"KAISER FOUNDATION HOSPITAL - SOUTH SAN FRANCISCO","1200 el camino real, south san francisco, ca 94080, usa",37.659206,-122.4391154,"SAN MATEO",NA,NA,"South San Francisco","Acute Care Hospitals","Yes","050070"
"KAISER FOUNDATION HOSPITAL-SANTA CLARA","700 lawrence expy, santa clara, ca 95051, usa",37.3356096,-121.9988491,"SANTA CLARA",NA,NA,"Santa Clara","Acute Care Hospitals","Yes","050071"
"KAISER FOUNDATION HOSPITAL - WALNUT CREEK","1425 s main st, walnut creek, ca 94596, usa",37.8915785,-122.0588864,"CONTRA COSTA",NA,NA,"Walnut Creek","Acute Care Hospitals","Yes","050072"
"KAISER FOUNDATION HOSPITAL AND REHAB CENTER","975 sereno dr, vallejo, ca 94589, usa",38.12767,-122.2484432,"SOLANO",NA,NA,"Vallejo","Acute Care Hospitals","Yes","050073"
"KAISER FOUNDATION HOSPITAL - OAKLAND/RICHMOND","275 w macarthur blvd, oakland, ca 94611, usa",37.8235207,-122.2585683,"ALAMEDA",NA,NA,"Oakland","Acute Care Hospitals","Yes","050075"
"KAISER FOUNDATION HOSPITAL - SAN FRANCISCO","2425 geary blvd, san francisco, ca 94115, usa",37.7824588,-122.4430966,"SAN FRANCISCO",NA,NA,"San Francisco","Acute Care Hospitals","Yes","050076"
"SCRIPPS MERCY HOSPITAL","4077 fifth ave, san diego, ca 92103, usa",32.7515656,-117.16039,"SAN DIEGO",NA,NA,"San Diego","Acute Care Hospitals","Yes","050077"
"PROVIDENCE LITTLE CO OF MARY MED CTR SAN PEDRO","1300 w 7th st, san pedro, ca 90732, usa",33.7382583,-118.305098,"LOS ANGELES",NA,NA,"San Pedro","Acute Care Hospitals","No","050078"
"ST JOHNS REGIONAL MEDICAL CENTER","1600 n rose ave, oxnard, ca 93030, usa",34.2166424,-119.1556484,"VENTURA",NA,NA,"Oxnard","Acute Care Hospitals","Yes","050082"
"ST JOSEPH'S MEDICAL CENTER OF STOCKTON","1800 n california st, stockton, ca 95204, usa",37.9698831,-121.2886669,"SAN JOAQUIN",NA,NA,"Stockton","Acute Care Hospitals","Yes","050084"
"COMMUNITY HOSPITAL OF SAN BERNARDINO","1805 medical center dr, san bernardino, ca 92411, usa",34.1318199,-117.3210155,"SAN BERNARDINO",NA,NA,"San Bernardino","Acute Care Hospitals","Yes","050089"
"SONOMA VALLEY HOSPITAL","347 andrieux st, sonoma, ca 95476, usa",38.2881503,-122.4656876,"SONOMA",NA,NA,"Sonoma","Acute Care Hospitals","Yes","050090"
"COMMUNITY HOSPITAL OF HUNTINGTON PARK","2623 slauson ave, huntington park, ca 90255, usa",33.9895589,-118.2241996,"LOS ANGELES",NA,NA,"Huntington Park","Acute Care Hospitals","Yes","050091"
"SAINT AGNES MEDICAL CENTER","1303 e herndon ave, fresno, ca 93720, usa",36.8352022,-119.7655278,"FRESNO",NA,NA,"Fresno","Acute Care Hospitals","Yes","050093"
"WEST COVINA MEDICAL CENTER, INC","725 s orange ave, west covina, ca 91790, usa",34.071352,-117.944755,"LOS ANGELES",NA,NA,"West Covina","Acute Care Hospitals","No","050096"
"SAN ANTONIO REGIONAL HOSPITAL","999 san bernardino rd, upland, ca 91786, usa",34.1019041,-117.6374336,"SAN BERNARDINO",NA,NA,"Upland","Acute Care Hospitals","Yes","050099"
"SHARP MEMORIAL HOSPITAL","7901 frost st, san diego, ca 92123, usa",32.7996759,-117.1546001,"SAN DIEGO",NA,NA,"San Diego","Acute Care Hospitals","Yes","050100"
"SUTTER SOLANO MEDICAL CENTER","300 hospital dr, vallejo, ca 94589, usa",38.1312888,-122.2373373,"SOLANO",NA,NA,"Vallejo","Acute Care Hospitals","Yes","050101"
"PARKVIEW COMMUNITY HOSPITAL MEDICAL CENTER","3865 jackson st, riverside, ca 92503, usa",33.9269682,-117.4398166,"RIVERSIDE",NA,NA,"Riverside","Acute Care Hospitals","Yes","050102"
"WHITE MEMORIAL MEDICAL CENTER","1720 cesar e. chavez avenue, specialty care tower, ground floor, los angeles, ca 90033, united states",34.0487287,-118.2180385,"LOS ANGELES",NA,NA,"Los Angeles","Acute Care Hospitals","No","050103"
"SAINT FRANCIS MEDICAL CENTER","3630 e imperial hwy, lynwood, ca 90262, usa",33.930826,-118.203228,"LOS ANGELES",NA,NA,"Lynwood","Acute Care Hospitals","No","050104"
"MARIAN REGIONAL MEDICAL CENTER","1400 e church st, santa maria, ca 93454, usa",34.9509201,-120.4131853,"SANTA BARBARA",NA,NA,"Santa Maria","Acute Care Hospitals","No","050107"
"SUTTER MEDICAL CENTER, SACRAMENTO","2825 capitol ave, sacramento, ca 95816, usa",38.5709021,-121.4694505,"SACRAMENTO",NA,NA,"Sacramento","Acute Care Hospitals","Yes","050108"
"LOMPOC VALLEY MEDICAL CENTER","1515 e ocean ave, lompoc, ca 93436, usa",34.6411375,-120.4395191,"SANTA BARBARA",NA,NA,"Lompoc","Acute Care Hospitals","Yes","050110"
"SANTA MONICA - UCLA MED CTR & ORTHOPAEDIC HOSPITAL","1250 16th st, santa monica, ca 90404, usa",34.0270998,-118.4863064,"LOS ANGELES",NA,NA,"Santa Monica","Acute Care Hospitals","Yes","050112"
"SAN MATEO MEDICAL CENTER","222 w 39th ave, san mateo, ca 94403, usa",37.5312245,-122.2991375,"SAN MATEO",NA,NA,"San Mateo","Acute Care Hospitals","Yes","050113"
"PALOMAR HEALTH DOWNTOWN CAMPUS","555 e valley pkwy, escondido, ca 92025, usa",33.1248595,-117.0758226,"SAN DIEGO",NA,NA,"Escondido","Acute Care Hospitals","Yes","050115"
"NORTHRIDGE HOSPITAL MEDICAL CENTER","18300 roscoe blvd, northridge, ca 91325, usa",34.2200955,-118.5331136,"LOS ANGELES",NA,NA,"Northridge","Acute Care Hospitals","Yes","050116"
"DOCTORS HOSPITAL OF MANTECA","1205 e north st, manteca, ca 95336, usa",37.8015068,-121.1974112,"SAN JOAQUIN",NA,NA,"Manteca","Acute Care Hospitals","Yes","050118"
"ADVENTIST HEALTH HANFORD","north road private school, 115 mall dr, hanford, ca 93230, usa",36.3236131,-119.6665526,"KINGS",NA,NA,"Hanford","Acute Care Hospitals","Yes","050121"
"DAMERON HOSPITAL","525 acacia st, stockton, ca 95203, usa",37.9616219,-121.3009926,"SAN JOAQUIN",NA,NA,"Stockton","Acute Care Hospitals","Yes","050122"
"USC VERDUGO HILLS HOSPITAL","1812 verdugo blvd, glendale, ca 91208, usa",34.2045351,-118.216049,"LOS ANGELES",NA,NA,"Glendale","Acute Care Hospitals","Yes","050124"
"REGIONAL MEDICAL CENTER OF SAN JOSE","225 n jackson ave, san jose, ca 95116, usa",37.3622057,-121.8489667,"SANTA CLARA",NA,NA,"San Jose","Acute Care Hospitals","Yes","050125"
"VALLEY PRESBYTERIAN HOSPITAL","15107 vanowen st, van nuys, ca 91405, usa",34.1950106,-118.4632201,"LOS ANGELES",NA,NA,"Van Nuys","Acute Care Hospitals","No","050126"
"WOODLAND MEMORIAL HOSPITAL","1325 cottonwood st, woodland, ca 95695, usa",38.6641007,-121.7920967,"YOLO",NA,NA,"Woodland","Acute Care Hospitals","Yes","050127"
"TRI-CITY MEDICAL CENTER","4002 vista way, oceanside, ca 92056, usa",33.1856484,-117.2904359,"SAN DIEGO",NA,NA,"Oceanside","Acute Care Hospitals","Yes","050128"
"ST BERNARDINE MEDICAL CENTER","2101 n waterman ave, san bernardino, ca 92404, usa",34.1348371,-117.2769883,"SAN BERNARDINO",NA,NA,"San Bernardino","Acute Care Hospitals","Yes","050129"
"NOVATO COMMUNITY HOSPITAL","180 rowland way, novato, ca 94945, usa",38.099153,-122.560229,"MARIN",NA,NA,"Novato","Acute Care Hospitals","Yes","050131"
"SAN GABRIEL VALLEY MEDICAL CENTER","438 w las tunas dr, san gabriel, ca 91776, usa",34.100917,-118.1055926,"LOS ANGELES",NA,NA,"San Gabriel","Acute Care Hospitals","Yes","050132"
"RIDEOUT MEMORIAL HOSPITAL","726 4th st, marysville, ca 95901, usa",39.138174,-121.5942279,"YUBA",NA,NA,"Marysville","Acute Care Hospitals","Yes","050133"
"SOUTHERN CALIFORNIA HOSPITAL AT HOLLYWOOD","6245 de longpre ave, los angeles, ca 90028, usa",34.0964254,-118.3252367,"LOS ANGELES",NA,NA,"Hollywood","Acute Care Hospitals","Yes","050135"
"PETALUMA VALLEY HOSPITAL","400 n mcdowell blvd, petaluma, ca 94954, usa",38.25459,-122.6316537,"SONOMA",NA,NA,"Petaluma","Acute Care Hospitals","Yes","050136"
"KAISER FOUNDATION HOSPITAL - PANORAMA CITY","13652 cantara st, panorama city, ca 91402, usa",34.2187902,-118.4300562,"LOS ANGELES",NA,NA,"Panorama City","Acute Care Hospitals","No","050137"
"KAISER FOUNDATION HOSPITAL - LOS ANGELES","4867 sunset blvd, los angeles, ca 90027, usa",34.0987353,-118.2945637,"LOS ANGELES",NA,NA,"Los Angeles","Acute Care Hospitals","No","050138"
"KAISER FOUNDATION HOSPITAL - DOWNEY","9333 imperial hwy, downey, ca 90242, usa",33.9191528,-118.1288176,"LOS ANGELES",NA,NA,"Downey","Acute Care Hospitals","No","050139"
"KAISER FOUNDATION HOSPITAL FONTANA","9961 sierra ave, fontana, ca 92335, usa",34.0727772,-117.4356108,"SAN BERNARDINO",NA,NA,"Fontana","Acute Care Hospitals","Yes","050140"
"COMMUNITY HOSPITAL OF THE MONTEREY PENINSULA","23625 holman hwy, monterey, ca 93940, usa",36.5788637,-121.9131591,"MONTEREY",NA,NA,"Monterey","Acute Care Hospitals","Yes","050145"
"CALIFORNIA HOSPITAL MEDICAL CENTER LA","1401 s grand ave, los angeles, ca 90015, usa",34.0374888,-118.2661449,"LOS ANGELES",NA,NA,"Los Angeles","Acute Care Hospitals","Yes","050149"
"SIERRA NEVADA MEMORIAL HOSPITAL","155 glasson way, grass valley, ca 95945, usa",39.2281029,-121.0468913,"NEVADA",NA,NA,"Grass Valley","Acute Care Hospitals","Yes","050150"
"SAINT FRANCIS MEMORIAL HOSPITAL","900 hyde st, san francisco, ca 94109, usa",37.7893799,-122.4167294,"SAN FRANCISCO",NA,NA,"San Francisco","Acute Care Hospitals","Yes","050152"
"O'CONNOR HOSPITAL","2105 forest ave, san jose, ca 95128, usa",37.3277552,-121.9383789,"SANTA CLARA",NA,NA,"San Jose","Acute Care Hospitals","Yes","050153"
"ENCINO HOSPITAL MEDICAL CENTER","16237 ventura blvd, encino, ca 91436, usa",34.1574278,-118.4870017,"LOS ANGELES",NA,NA,"Encino","Acute Care Hospitals","No","050158"
"VENTURA COUNTY MEDICAL CENTER","300 hillmont ave, ventura, ca 93003, usa",34.2772969,-119.2529839,"VENTURA",NA,NA,"Ventura","Acute Care Hospitals","Yes","050159"
"SAN JOAQUIN GENERAL HOSPITAL","500 w hospital rd, french camp, ca 95231, usa",37.8867135,-121.2826314,"SAN JOAQUIN",NA,NA,"French Camp","Acute Care Hospitals","Yes","050167"
"ST JUDE MEDICAL CENTER","101 e valencia mesa dr, fullerton, ca 92835, usa",33.8943451,-117.9272201,"ORANGE",NA,NA,"Fullerton","Acute Care Hospitals","Yes","050168"
"PIH HEALTH HOSPITAL-WHITTIER","12401 washington blvd, whittier, ca 90606, usa",33.9690304,-118.0490717,"LOS ANGELES",NA,NA,"Whittier","Acute Care Hospitals","Yes","050169"
"SANTA ROSA MEMORIAL HOSPITAL","1165 montgomery dr, santa rosa, ca 95405, usa",38.4437589,-122.7011068,"SONOMA",NA,NA,"Santa Rosa","Acute Care Hospitals","Yes","050174"
"EMANUEL MEDICAL CENTER","825 delbon ave, turlock, ca 95382, usa",37.5117626,-120.8389503,"STANISLAUS",NA,NA,"Turlock","Acute Care Hospitals","Yes","050179"
"JOHN MUIR MEDICAL CENTER - WALNUT CREEK CAMPUS","1601 ygnacio valley rd, walnut creek, ca 94598, usa",37.9128769,-122.0409498,"CONTRA COSTA",NA,NA,"Walnut Creek","Acute Care Hospitals","Yes","050180"
"GEORGE L MEE MEMORIAL HOSPITAL","300 canal st, king city, ca 93930, usa",36.2062367,-121.1328224,"MONTEREY",NA,NA,"King City","Acute Care Hospitals","Yes","050189"
"ST MARY MEDICAL CENTER","1050 linden ave, long beach, ca 90813, usa",33.779809,-118.186299,"LOS ANGELES",NA,NA,"Long Beach","Acute Care Hospitals","No","050191"
"ADVENTIST HEALTH REEDLEY","372 w cypress ave, reedley, ca 93654, usa",36.608381,-119.451674,"FRESNO",NA,NA,"Reedley","Acute Care Hospitals","No","050192"
"WATSONVILLE COMMUNITY HOSPITAL","75 nielson st, watsonville, ca 95076, usa",36.9266472,-121.7928359,"SANTA CRUZ",NA,NA,"Watsonville","Acute Care Hospitals","Yes","050194"
"WASHINGTON HOSPITAL","2000 mowry ave, fremont, ca 94538, usa",37.55726,-121.9797604,"ALAMEDA",NA,NA,"Fremont","Acute Care Hospitals","Yes","050195"
"SEQUOIA HOSPITAL","170 alameda de las pulgas, redwood city, ca 94062, usa",37.479843,-122.2546654,"SAN MATEO",NA,NA,"Redwood City","Acute Care Hospitals","Yes","050197"
"PALMDALE REGIONAL MEDICAL CENTER","38600 medical center dr, palmdale, ca 93551, usa",34.582899,-118.1443812,"LOS ANGELES",NA,NA,"Palmdale","Acute Care Hospitals","Yes","050204"
"EAST VALLEY GLENDORA HOSPITAL","150 w rte 66, glendora, ca 91740, usa",34.1275602,-117.8651171,"LOS ANGELES",NA,NA,"Glendora","Acute Care Hospitals","Yes","050205"
"ALAMEDA HOSPITAL","2070 clinton ave, alameda, ca 94501, usa",37.7626826,-122.253774,"ALAMEDA",NA,NA,"Alameda","Acute Care Hospitals","Yes","050211"
"SHARP CHULA VISTA MEDICAL CENTER","751 medical center ct, chula vista, ca 91911, usa",32.6187297,-117.0221467,"SAN DIEGO",NA,NA,"Chula Vista","Acute Care Hospitals","Yes","050222"
"HOAG MEMORIAL HOSPITAL PRESBYTERIAN","1 hoag dr 1st floor, newport beach, ca 92663, usa",33.625061,-117.9304162,"ORANGE",NA,NA,"Newport Beach","Acute Care Hospitals","Yes","050224"
"ADVENTIST HEALTH FEATHER RIVER","5974 pentz rd, paradise, ca 95969, usa",39.7573716,-121.5709949,"BUTTE",NA,NA,"Paradise","Acute Care Hospitals","Yes","050225"
"AHMC ANAHEIM REGIONAL MEDICAL CENTER","1111 w la palma ave, anaheim, ca 92801, usa",33.8481751,-117.9345264,"ORANGE",NA,NA,"Anaheim","Acute Care Hospitals","Yes","050226"
"ZUCKERBERG SAN FRANCISCO GENERAL HOSP & TRAUMA CTR","1001 potrero ave, san francisco, ca 94110, usa",37.7557265,-122.4047381,"SAN FRANCISCO",NA,NA,"San Francisco","Acute Care Hospitals","Yes","050228"
"GARDEN GROVE HOSPITAL & MEDICAL CENTER","12601 garden grove blvd, garden grove, ca 92843, usa",33.7750066,-117.9129079,"ORANGE",NA,NA,"Garden Grove","Acute Care Hospitals","Yes","050230"
"POMONA VALLEY HOSPITAL MEDICAL CENTER","1798 n garey ave, pomona, ca 91767, usa",34.0768626,-117.7504875,"LOS ANGELES",NA,NA,"Pomona","Acute Care Hospitals","Yes","050231"
"FRENCH HOSPITAL MEDICAL CENTER","1911 johnson ave, san luis obispo, ca 93401, usa",35.277993,-120.6508711,"SAN LUIS OBISPO",NA,NA,"San Luis Obispo","Acute Care Hospitals","No","050232"
"SHARP CORONADO HOSPITAL AND HLTHCR CTR","250 prospect pl, coronado, ca 92118, usa",32.694447,-117.1686765,"SAN DIEGO",NA,NA,"Coronado","Acute Care Hospitals","Yes","050234"
"PROVIDENCE SAINT JOSEPH MEDICAL CTR","501 s buena vista st, burbank, ca 91505, usa",34.1562138,-118.3284546,"LOS ANGELES",NA,NA,"Burbank","Acute Care Hospitals","Yes","050235"
"ADVENTIST HEALTH SIMI VALLEY","2975 sycamore dr, simi valley, ca 93065, usa",34.2892065,-118.745137,"VENTURA",NA,NA,"Simi Valley","Acute Care Hospitals","Yes","050236"
"METHODIST HOSPITAL OF SOUTHERN CA","300 w huntington dr, arcadia, ca 91007, usa",34.1344486,-118.0416623,"LOS ANGELES",NA,NA,"Arcadia","Acute Care Hospitals","Yes","050238"
"GLENDALE ADVENTIST MEDICAL CENTER","1509 wilson terrace, glendale, ca 91206, usa",34.1502139,-118.2304591,"LOS ANGELES",NA,NA,"Glendale","Acute Care Hospitals","Yes","050239"
"DOMINICAN HOSPITAL","1555 soquel dr, santa cruz, ca 95065, usa",36.989473,-121.9844119,"SANTA CRUZ",NA,NA,"Santa Cruz","Acute Care Hospitals","Yes","050242"
"DESERT REGIONAL MEDICAL CENTER","1150 n indian canyon dr, palm springs, ca 92262, usa",33.838731,-116.543459,"RIVERSIDE",NA,NA,"Palm Springs","Acute Care Hospitals","Yes","050243"
"ARROWHEAD REGIONAL MEDICAL CENTER","400 n pepper ave, colton, ca 92324, usa",34.0740531,-117.351059,"SAN BERNARDINO",NA,NA,"Colton","Acute Care Hospitals","Yes","050245"
"NATIVIDAD MEDICAL CENTER","1441 constitution blvd, salinas, ca 93906, usa",36.6966688,-121.6330887,"MONTEREY",NA,NA,"Salinas","Acute Care Hospitals","Yes","050248"
"MARSHALL MEDICAL CENTER","1100 marshall way, placerville, ca 95667, usa",38.72467,-120.7916501,"EL DORADO",NA,NA,"Placerville","Acute Care Hospitals","Yes","050254"
"GOOD SAMARITAN HOSPITAL","901 olive dr, bakersfield, ca 93308, usa",35.4117157,-119.0397188,"KERN",NA,NA,"Bakersfield","Acute Care Hospitals","No","050257"
"SIERRA VIEW MEDICAL CENTER","465 w putnam ave, porterville, ca 93257, usa",36.0690832,-119.0273534,"TULARE",NA,NA,"Porterville","Acute Care Hospitals","Yes","050261"
"RONALD REAGAN U C L A MEDICAL CENTER","757 westwood plaza, los angeles, ca 90024, usa",34.0664764,-118.4465738,"LOS ANGELES",NA,NA,"Los Angeles","Acute Care Hospitals","Yes","050262"
"REDLANDS COMMUNITY HOSPITAL","350 terracina blvd, redlands, ca 92373, usa",34.0365372,-117.2051741,"SAN BERNARDINO",NA,NA,"Redlands","Acute Care Hospitals","Yes","050272"
"CONTRA COSTA REGIONAL MEDICAL CENTER","2500 alhambra ave, martinez, ca 94553, usa",38.006764,-122.1327937,"CONTRA COSTA",NA,NA,"Martinez","Acute Care Hospitals","Yes","050276"
"PROVIDENCE HOLY CROSS MEDICAL CENTER","15031 rinaldi st, mission hills, ca 91345, usa",34.279782,-118.4599806,"LOS ANGELES",NA,NA,"Mission Hills","Acute Care Hospitals","No","050278"
"HI-DESERT MEDICAL CENTER","6601 white feather rd, joshua tree, ca 92252, usa",34.1326806,-116.2761849,"SAN BERNARDINO",NA,NA,"Joshua Tree","Acute Care Hospitals","Yes","050279"
"MERCY MEDICAL CENTER REDDING","2175 rosaline ave, redding, ca 96001, usa",40.5719533,-122.3952328,"SHASTA",NA,NA,"Redding","Acute Care Hospitals","Yes","050280"
"ALHAMBRA HOSPITAL MEDICAL CENTER","100 s raymond ave, alhambra, ca 91801, usa",34.0903051,-118.1440538,"LOS ANGELES",NA,NA,"Alhambra","Acute Care Hospitals","No","050281"
"STANFORD HEALTH CARE - VALLEYCARE","5555 w las positas blvd, pleasanton, ca 94588, usa",37.6933946,-121.8803417,"ALAMEDA",NA,NA,"Pleasanton","Acute Care Hospitals","Yes","050283"
"SETON MEDICAL CENTER","1900 sullivan ave, daly city, ca 94015, usa",37.6801347,-122.4740564,"SAN MATEO",NA,NA,"Daly City","Acute Care Hospitals","Yes","050289"
"PROVIDENCE SAINT JOHN'S HEALTH CENTER","2121 santa monica blvd, santa monica, ca 90404, usa",34.031114,-118.4788211,"LOS ANGELES",NA,NA,"Santa Monica","Acute Care Hospitals","Yes","050290"
"SUTTER SANTA ROSA REGIONAL HOSPITAL","30 mark west springs rd, santa rosa, ca 95403, usa",38.4950726,-122.7519949,"SONOMA",NA,NA,"Santa Rosa","Acute Care Hospitals","Yes","050291"
"RIVERSIDE UNIVERSITY HEALTH SYSTEM-MEDICAL CENTER","26520 cactus ave, moreno valley, ca 92555, usa",33.9121342,-117.1957233,"RIVERSIDE",NA,NA,"Moreno Valley","Acute Care Hospitals","Yes","050292"
"MERCY HOSPITAL","2215 truxtun ave, bakersfield, ca 93301, usa",35.3727847,-119.0276426,"KERN",NA,NA,"Bakersfield","Acute Care Hospitals","Yes","050295"
"HAZEL HAWKINS MEMORIAL HOSPITAL","911 sunset dr, hollister, ca 95023, usa",36.8338985,-121.3861055,"SAN BENITO",NA,NA,"Hollister","Acute Care Hospitals","No","050296"
"BARSTOW COMMUNITY HOSPITAL","820 e mountain view st, barstow, ca 92311, usa",34.8921713,-117.0166969,"SAN BERNARDINO",NA,NA,"Barstow","Acute Care Hospitals","Yes","050298"
"ST MARY MEDICAL CENTER","18300 ca-18, apple valley, ca 92307, usa",34.5418476,-117.2655636,"SAN BERNARDINO",NA,NA,"Apple Valley","Acute Care Hospitals","Yes","050300"
"ADVENTIST HEALTH UKIAH VALLEY","275 hospital dr, ukiah, ca 95482, usa",39.1530652,-123.2028906,"MENDOCINO",NA,NA,"Ukiah","Acute Care Hospitals","Yes","050301"
"ALTA BATES SUMMIT MEDICAL CENTER - ALTA BATES CAMP","2450 ashby ave, berkeley, ca 94705, usa",37.8556279,-122.2575014,"ALAMEDA",NA,NA,"Berkeley","Acute Care Hospitals","Yes","050305"
"EL CAMINO HOSPITAL","2500 grant rd, mountain view, ca 94040, usa",37.3691517,-122.0795279,"SANTA CLARA",NA,NA,"Mountain View","Acute Care Hospitals","Yes","050308"
"SUTTER ROSEVILLE MEDICAL CENTER","1 medical plaza dr, roseville, ca 95661, usa",38.7663726,-121.2491535,"PLACER",NA,NA,"Roseville","Acute Care Hospitals","Yes","050309"
"SUTTER TRACY COMMUNITY HOSPITAL","1420 n tracy blvd, tracy, ca 95376, usa",37.7440116,-121.4343074,"SAN JOAQUIN",NA,NA,"Tracy","Acute Care Hospitals","Yes","050313"
"KERN MEDICAL CENTER","1700 mt vernon ave, bakersfield, ca 93306, usa",35.3829347,-118.9705331,"KERN",NA,NA,"Bakersfield","Acute Care Hospitals","Yes","050315"
"HIGHLAND HOSPITAL","1411 e 31st st, oakland, ca 94602, usa",37.7986088,-122.2316641,"ALAMEDA",NA,NA,"Oakland","Acute Care Hospitals","Yes","050320"
"SCRIPPS MEMORIAL HOSPITAL LA JOLLA","9888 genesee ave, la jolla, ca 92037, usa",32.8849805,-117.2254782,"SAN DIEGO",NA,NA,"La Jolla","Acute Care Hospitals","Yes","050324"
"LOMA LINDA UNIVERSITY MEDICAL CENTER","11234 anderson st, loma linda, ca 92354, usa",34.0494519,-117.2641774,"SAN BERNARDINO",NA,NA,"Loma Linda","Acute Care Hospitals","Yes","050327"
"CORONA REGIONAL MEDICAL CENTER","800 s main st, corona, ca 92882, usa",33.8727795,-117.5683133,"RIVERSIDE",NA,NA,"Corona","Acute Care Hospitals","Yes","050329"
"SALINAS VALLEY MEMORIAL HOSPITAL","450 e romie ln, salinas, ca 93901, usa",36.6596862,-121.6471476,"MONTEREY",NA,NA,"Salinas","Acute Care Hospitals","Yes","050334"
"ADVENTIST HEALTH SONORA","1000 greenley rd, sonora, ca 95370, usa",37.9772338,-120.3712182,"TUOLUMNE",NA,NA,"Sonora","Acute Care Hospitals","No","050335"
"ADVENTIST HEALTH LODI MEMORIAL","975 s fairmont ave, lodi, ca 95240, usa",38.1214679,-121.2869098,"SAN JOAQUIN",NA,NA,"Lodi","Acute Care Hospitals","No","050336"
"PIONEERS MEMORIAL HEALTHCARE DISTRICT","207 w legion rd, brawley, ca 92227, usa",32.9587164,-115.5544386,"IMPERIAL",NA,NA,"Brawley","Acute Care Hospitals","Yes","050342"
"UNIVERSITY OF CALIFORNIA IRVINE MED CENTER","101 the city dr s, orange, ca 92868, usa",33.78728,-117.888284,"ORANGE",NA,NA,"Orange","Acute Care Hospitals","Yes","050348"
"BEVERLY HOSPITAL","309 w beverly blvd, montebello, ca 90640, usa",34.015015,-118.100636,"LOS ANGELES",NA,NA,"Montebello","Acute Care Hospitals","Yes","050350"
"TORRANCE MEMORIAL MEDICAL CENTER","3330 lomita blvd, torrance, ca 90505, usa",33.8108661,-118.343741,"LOS ANGELES",NA,NA,"Torrance","Acute Care Hospitals","No","050351"
"BARTON MEMORIAL HOSPITAL","2170 south ave, south lake tahoe, ca 96150, usa",38.911859,-119.9968156,"EL DORADO",NA,NA,"South Lake Tahoe","Acute Care Hospitals","Yes","050352"
"PROVIDENCE LITTLE COMPANY OF MARY MED CTR TORRANCE","4101 torrance blvd, torrance, ca 90503, usa",33.8384678,-118.3572436,"LOS ANGELES",NA,NA,"Torrance","Acute Care Hospitals","No","050353"
"GOLETA VALLEY COTTAGE HOSPITAL","351 s patterson ave, santa barbara, ca 93111, usa",34.4334194,-119.8104104,"SANTA BARBARA",NA,NA,"Santa Barbara","Acute Care Hospitals","Yes","050357"
"MARIN GENERAL HOSPITAL","250 bon air rd, greenbrae, ca 94904, usa",37.9468854,-122.536312,"MARIN",NA,NA,"Greenbrae","Acute Care Hospitals","Yes","050360"
"NORTHBAY MEDICAL CENTER","1200 b gale wilson blvd, fairfield, ca 94533, usa",38.2620091,-122.0473434,"SOLANO",NA,NA,"Fairfield","Acute Care Hospitals","Yes","050367"
"LAC+USC MEDICAL CENTER","1200 n state st #1008, los angeles, ca 90033, usa",34.059455,-118.20902,"LOS ANGELES",NA,NA,"Los Angeles","Acute Care Hospitals","Yes","050373"
"LAC/HARBOR-UCLA MED CENTER","1000 w carson st, torrance, ca 90502, usa",33.8308436,-118.2925709,"LOS ANGELES",NA,NA,"Torrance","Acute Care Hospitals","Yes","050376"
"PACIFICA HOSPITAL OF THE VALLEY","9449 san fernando rd, sun valley, ca 91352, usa",34.2400815,-118.3963644,"LOS ANGELES",NA,NA,"Sun Valley","Acute Care Hospitals","Yes","050378"
"GOOD SAMARITAN HOSPITAL","2425 samaritan dr, san jose, ca 95124, usa",37.2517475,-121.9466889,"SANTA CLARA",NA,NA,"San Jose","Acute Care Hospitals","Yes","050380"
"CITRUS VALLEY MEDICAL CENTER-IC CAMPUS","210 w san bernardino rd, covina, ca 91723, usa",34.088021,-117.893412,"LOS ANGELES",NA,NA,"Covina","Acute Care Hospitals","Yes","050382"
"HEMET VALLEY MEDICAL CENTER","1117 e devonshire ave, hemet, ca 92543, usa",33.7503708,-116.9601303,"RIVERSIDE",NA,NA,"Hemet","Acute Care Hospitals","Yes","050390"
"PIH HOSPITAL - DOWNEY","11500 brookshire ave, downey, ca 90241, usa",33.9341503,-118.1317434,"LOS ANGELES",NA,NA,"Downey","Acute Care Hospitals","Yes","050393"
"COMMUNITY MEMORIAL HOSPITAL SAN BUENAVENTURA","147 n brent st, ventura, ca 93003, usa",34.2744991,-119.2577289,"VENTURA",NA,NA,"Ventura","Acute Care Hospitals","Yes","050394"
"SANTA BARBARA COTTAGE HOSPITAL","400 w pueblo st, santa barbara, ca 93105, usa",34.4295357,-119.7241169,"SANTA BARBARA",NA,NA,"Santa Barbara","Acute Care Hospitals","Yes","050396"
"COALINGA REGIONAL MEDICAL CENTER","1191 phelps ave, coalinga, ca 93210, usa",36.1521337,-120.3410283,"FRESNO",NA,NA,"Coalinga","Acute Care Hospitals","Yes","050397"
"CHINESE HOSPITAL","845 jackson st, san francisco, ca 94133, usa",37.7955406,-122.4091299,"SAN FRANCISCO",NA,NA,"San Francisco","Acute Care Hospitals","Yes","050407"
"KAISER FOUNDATION HOSPITAL - SOUTH BAY","25825 s vermont ave, harbor city, ca 90710, usa",33.7886388,-118.2957912,"LOS ANGELES",NA,NA,"Harbor City","Acute Care Hospitals","No","050411"
"MERCY HOSPITAL OF FOLSOM","1650 creekside dr, folsom, ca 95630, usa",38.670333,-121.1458461,"SACRAMENTO",NA,NA,"Folsom","Acute Care Hospitals","Yes","050414"
"SUTTER COAST HOSPITAL","800 e washington blvd, crescent city, ca 95531, usa",41.7736588,-124.1942469,"DEL NORTE",NA,NA,"Crescent City","Acute Care Hospitals","Yes","050417"
"PALO VERDE HOSPITAL","250 n 1st st, blythe, ca 92225, usa",33.6129481,-114.5950717,"RIVERSIDE",NA,NA,"Blythe","Acute Care Hospitals","Yes","050423"
"SCRIPPS GREEN HOSPITAL","10666 n torrey pines rd, la jolla, ca 92037, usa",32.8970357,-117.2427735,"SAN DIEGO",NA,NA,"La Jolla","Acute Care Hospitals","No","050424"
"KAISER FOUNDATION HOSPITAL - SACRAMENTO","2025 morse ave, sacramento, ca 95825, usa",38.6020983,-121.3927143,"SACRAMENTO",NA,NA,"Sacramento","Acute Care Hospitals","No","050425"
"WEST ANAHEIM MEDICAL CENTER","3033 w orange ave, anaheim, ca 92804, usa",33.8252217,-117.9950032,"ORANGE",NA,NA,"Anaheim","Acute Care Hospitals","Yes","050426"
"HUNTINGTON MEMORIAL HOSPITAL","100 w california blvd, pasadena, ca 91105, usa",34.133639,-118.152753,"LOS ANGELES",NA,NA,"Pasadena","Acute Care Hospitals","Yes","050438"
"STANFORD HEALTH CARE","lane building, 300 pasteur dr, palo alto, ca 94304, usa",37.4330746,-122.1750485,"SANTA CLARA",NA,NA,"Stanford","Acute Care Hospitals","Yes","050441"
"MERCY MEDICAL CENTER","333 mercy ave, merced, ca 95340, usa",37.3401411,-120.4671866,"MERCED",NA,NA,"Merced","Acute Care Hospitals","Yes","050444"
"UCSF MEDICAL CENTER","505 parnassus ave, san francisco, ca 94143, usa",37.7630512,-122.4578094,"SAN FRANCISCO",NA,NA,"San Francisco","Acute Care Hospitals","Yes","050454"
"ADVENTIST HEALTH BAKERSFIELD","2615 chester ave, bakersfield, ca 93301, usa",35.3833744,-119.0206543,"KERN",NA,NA,"Bakersfield","Acute Care Hospitals","Yes","050455"
"ST MARY'S MEDICAL CENTER","450 stanyan st, san francisco, ca 94117, usa",37.7740749,-122.4538893,"SAN FRANCISCO",NA,NA,"San Francisco","Acute Care Hospitals","Yes","050457"
"DOCTORS MEDICAL CENTER","1441 florida ave, modesto, ca 95350, usa",37.6659498,-120.9974006,"STANISLAUS",NA,NA,"Modesto","Acute Care Hospitals","Yes","050464"
"MEMORIAL HOSPITAL OF GARDENA","1145 w redondo beach blvd, gardena, ca 90247, usa",33.8929929,-118.2950049,"LOS ANGELES",NA,NA,"Gardena","Acute Care Hospitals","No","050468"
"GOOD SAMARITAN HOSPITAL","1225 wilshire blvd, los angeles, ca 90017, usa",34.0546695,-118.2652645,"LOS ANGELES",NA,NA,"Los Angeles","Acute Care Hospitals","No","050471"
"WEST HILLS HOSPITAL & MEDICAL CENTER","7300 medical center dr, west hills, ca 91307, usa",34.2029255,-118.6287791,"LOS ANGELES",NA,NA,"West Hills","Acute Care Hospitals","No","050481"
"LONG BEACH MEMORIAL MEDICAL CENTER","2801 atlantic ave, long beach, ca 90806, usa",33.808777,-118.1865102,"LOS ANGELES",NA,NA,"Long Beach","Acute Care Hospitals","No","050485"
"EDEN MEDICAL CENTER","20103 lake chabot rd, castro valley, ca 94546, usa",37.6982685,-122.0903131,"ALAMEDA",NA,NA,"Castro Valley","Acute Care Hospitals","Yes","050488"
"CLOVIS COMMUNITY MEDICAL CENTER","2755 herndon ave, clovis, ca 93611, usa",36.8390429,-119.660354,"FRESNO",NA,NA,"Clovis","Acute Care Hospitals","Yes","050492"
"JOHN MUIR MEDICAL CENTER - CONCORD CAMPUS","2540 east st, concord, ca 94520, usa",37.9838036,-122.0338474,"CONTRA COSTA",NA,NA,"Concord","Acute Care Hospitals","Yes","050496"
"SUTTER AUBURN FAITH HOSPITAL","11815 education st, auburn, ca 95602, usa",38.9452952,-121.1006825,"PLACER",NA,NA,"Auburn","Acute Care Hospitals","Yes","050498"
"SAINT VINCENT MEDICAL CENTER","2131 w 3rd st, los angeles, ca 90057, usa",34.063823,-118.273538,"LOS ANGELES",NA,NA,"Los Angeles","Acute Care Hospitals","Yes","050502"
"SCRIPPS MEMORIAL HOSPITAL - ENCINITAS","354 santa fe dr, encinitas, ca 92024, usa",33.0369008,-117.2839126,"SAN DIEGO",NA,NA,"Encinitas","Acute Care Hospitals","Yes","050503"
"SIERRA VISTA REGIONAL MEDICAL CENTER","1010 murray ave, san luis obispo, ca 93405, usa",35.2922411,-120.665834,"SAN LUIS OBISPO",NA,NA,"San Luis Obispo","Acute Care Hospitals","Yes","050506"
"KAISER FOUNDATION HOSPITAL","99 montecillo rd, san rafael, ca 94903, usa",38.0043293,-122.5546467,"MARIN",NA,NA,"San Rafael","Acute Care Hospitals","Yes","050510"
"KAISER FOUNDATION HOSPITAL - FREMONT","39400 paseo padre pkwy, fremont, ca 94538, usa",37.5521961,-121.9747793,"ALAMEDA",NA,NA,"Fremont","Acute Care Hospitals","Yes","050512"
"KAISER FOUNDATION HOSPITAL - ZION","4647 zion ave, san diego, ca 92120, usa",32.7916133,-117.0954049,"SAN DIEGO",NA,NA,"San Diego","Acute Care Hospitals","Yes","050515"
"MERCY SAN JUAN MEDICAL CENTER","6501 coyle ave, carmichael, ca 95608, usa",38.6693027,-121.3139776,"SACRAMENTO",NA,NA,"Carmichael","Acute Care Hospitals","Yes","050516"
"VICTOR VALLEY GLOBAL MEDICAL CENTER","15248 eleventh st, victorville, ca 92395, usa",34.5278898,-117.2936963,"SAN BERNARDINO",NA,NA,"Victorville","Acute Care Hospitals","Yes","050517"
"SUTTER DELTA MEDICAL CENTER","3901 lone tree way, antioch, ca 94509, usa",37.9825348,-121.8029078,"CONTRA COSTA",NA,NA,"Antioch","Acute Care Hospitals","Yes","050523"
"HUNTINGTON BEACH HOSPITAL","17772 beach blvd, huntington beach, ca 92647, usa",33.7036608,-117.9865094,"ORANGE",NA,NA,"Huntington Beach","Acute Care Hospitals","Yes","050526"
"MEMORIAL HOSPITAL LOS BANOS","520 w i st, los banos, ca 93635, usa",37.0640934,-120.8591356,"MERCED",NA,NA,"Los Banos","Acute Care Hospitals","Yes","050528"
"JOHN F KENNEDY MEMORIAL HOSPITAL","47111 monroe st, indio, ca 92201, usa",33.7061109,-116.2353527,"RIVERSIDE",NA,NA,"Indio","Acute Care Hospitals","Yes","050534"
"SUTTER DAVIS HOSPITAL","2000 sutter pl, davis, ca 95616, usa",38.5609809,-121.7726838,"YOLO",NA,NA,"Davis","Acute Care Hospitals","Yes","050537"
"KAISER FOUNDATION HOSPITAL - REDWOOD CITY","1100 veterans blvd, redwood city, ca 94063, usa",37.4893313,-122.223976,"SAN MATEO",NA,NA,"Redwood City","Acute Care Hospitals","Yes","050541"
"COLLEGE HOSPITAL COSTA MESA","301 victoria st, costa mesa, ca 92627, usa",33.651829,-117.91198,"ORANGE",NA,NA,"Costa Mesa","Acute Care Hospitals","No","050543"
"PORTERVILLE DEVELOPMENTAL CENTER","26501 ave 140, porterville, ca 93257, usa",36.0438161,-118.9803525,"TULARE",NA,NA,"Porterville","Acute Care Hospitals","No","050546"
"SONOMA DEVELOPMENTAL CENTER","15000 arnold dr, eldridge, ca 95431, usa",38.3475782,-122.5191493,"SONOMA",NA,NA,"Eldridge","Acute Care Hospitals","No","050547"
"FAIRVIEW DEVELOPMENTAL CENTER","2501 harbor blvd, costa mesa, ca 92626, usa",33.662648,-117.925919,"ORANGE",NA,NA,"Costa Mesa","Acute Care Hospitals","No","050548"
"LOS ROBLES HOSPITAL & MEDICAL CENTER","215 w janss rd, thousand oaks, ca 91360, usa",34.2067796,-118.8830898,"VENTURA",NA,NA,"Thousand Oaks","Acute Care Hospitals","No","050549"
"LOS ALAMITOS MEDICAL CENTER","3751 katella ave, los alamitos, ca 90720, usa",33.8043758,-118.0671159,"ORANGE",NA,NA,"Los Alamitos","Acute Care Hospitals","Yes","050551"
"MEMORIAL MEDICAL CENTER","1700 coffee rd, modesto, ca 95355, usa",37.6686472,-120.9746362,"STANISLAUS",NA,NA,"Modesto","Acute Care Hospitals","Yes","050557"
"KAISER FOUNDATION HOSPITAL - WEST LA","6041 cadillac ave, los angeles, ca 90034, usa",34.0383728,-118.3750021,"LOS ANGELES",NA,NA,"Los Angeles","Acute Care Hospitals","No","050561"
"MISSION HOSPITAL REGIONAL MED CENTER","27700 medical center rd, mission viejo, ca 92691, usa",33.5610153,-117.6653937,"ORANGE",NA,NA,"Mission Viejo","Acute Care Hospitals","Yes","050567"
"MADERA COMMUNITY HOSPITAL","1250 e almond ave, madera, ca 93637, usa",36.9440246,-120.0443662,"MADERA",NA,NA,"Madera","Acute Care Hospitals","No","050568"
"FOUNTAIN VALLEY REGIONAL HOSPITAL & MEDICAL CENTER","17100 euclid street, fountain valley, ca 92708, usa",33.7151853,-117.9360672,"ORANGE",NA,NA,"Fountain Valley","Acute Care Hospitals","Yes","050570"
"EISENHOWER MEDICAL CENTER","39000 bob hope dr, rancho mirage, ca 92270, usa",33.7629019,-116.40063,"RIVERSIDE",NA,NA,"Rancho Mirage","Acute Care Hospitals","Yes","050573"
"LA PALMA INTERCOMMUNITY HOSPITAL","7901 walker st, la palma, ca 90623, usa",33.847533,-118.038414,"ORANGE",NA,NA,"La Palma","Acute Care Hospitals","No","050580"
"LAKEWOOD REGIONAL MEDICAL CENTER","3700 e south st, lakewood, ca 90712, usa",33.8596883,-118.1482913,"LOS ANGELES",NA,NA,"Lakewood","Acute Care Hospitals","Yes","050581"
"CHINO VALLEY MEDICAL CENTER","5451 walnut ave, chino, ca 91710, usa",34.0255642,-117.686109,"SAN BERNARDINO",NA,NA,"Chino","Acute Care Hospitals","Yes","050586"
"SAN DIMAS COMMUNITY HOSPITAL","1350 w covina blvd, san dimas, ca 91773, usa",34.097533,-117.8345314,"LOS ANGELES",NA,NA,"San Dimas","Acute Care Hospitals","Yes","050588"
"PLACENTIA LINDA HOSPITAL","1301 n rose dr, placentia, ca 92870, usa",33.8870822,-117.843323,"ORANGE",NA,NA,"Placentia","Acute Care Hospitals","Yes","050589"
"METHODIST HOSPITAL OF SACRAMENTO","7500 hospital dr, sacramento, ca 95823, usa",38.463412,-121.4169329,"SACRAMENTO",NA,NA,"Sacramento","Acute Care Hospitals","Yes","050590"
"FOOTHILL PRESBYTERIAN HOSPITAL","250 s grand ave, glendora, ca 91741, usa",34.1327654,-117.8713435,"LOS ANGELES",NA,NA,"Glendora","Acute Care Hospitals","No","050597"
"UNIVERSITY OF CALIFORNIA DAVIS MEDICAL CENTER","2315 stockton blvd, sacramento, ca 95817, usa",38.5549492,-121.4546344,"SACRAMENTO",NA,NA,"Sacramento","Acute Care Hospitals","Yes","050599"
"MEMORIALCARE SADDLEBACK MEDICAL CENTER","24451 health center dr, laguna hills, ca 92653, usa",33.6093252,-117.7089298,"ORANGE",NA,NA,"Laguna Hills","Acute Care Hospitals","Yes","050603"
"KAISER FOUNDATION HOSPITAL-SAN JOSE","250 hospital pkwy, san jose, ca 95119, usa",37.2398041,-121.8002512,"SANTA CLARA",NA,NA,"San Jose","Acute Care Hospitals","Yes","050604"
"DELANO REGIONAL MEDICAL CENTER","1401 garces hwy, delano, ca 93215, usa",35.7622854,-119.2392519,"KERN",NA,NA,"Delano","Acute Care Hospitals","Yes","050608"
"KAISER FOUNDATION HOSPITAL - ORANGE COUNTY - ANAHE","3440 e la palma ave, anaheim, ca 92806, usa",33.8520823,-117.8441325,"ORANGE",NA,NA,"Anaheim","Acute Care Hospitals","Yes","050609"
"ST JOHNS PLEASANT VALLEY HOSPITAL","2309 antonio ave, camarillo, ca 93010, usa",34.2434788,-119.0200789,"VENTURA",NA,NA,"Camarillo","Acute Care Hospitals","Yes","050616"
"HENRY MAYO NEWHALL  HOSPITAL","23845 mcbean pkwy, santa clarita, ca 91355, usa",34.39787,-118.5539446,"LOS ANGELES",NA,NA,"Valencia","Acute Care Hospitals","Yes","050624"
"CEDARS-SINAI MEDICAL CENTER","8700 beverly blvd, west hollywood, ca 90048, usa",34.075232,-118.3801756,"LOS ANGELES",NA,NA,"Los Angeles","Acute Care Hospitals","No","050625"
"TWIN CITIES COMMUNITY HOSPITAL","1100 las tablas rd, templeton, ca 93465, usa",35.5549761,-120.7193676,"SAN LUIS OBISPO",NA,NA,"Templeton","Acute Care Hospitals","Yes","050633"
"POMERADO HOSPITAL","15615 pomerado rd, poway, ca 92064, usa",32.9964572,-117.0561006,"SAN DIEGO",NA,NA,"Poway","Acute Care Hospitals","Yes","050636"
"EAST LOS ANGELES DOCTORS HOSPITAL","4060 whittier blvd, los angeles, ca 90023, usa",34.0237682,-118.1841496,"LOS ANGELES",NA,NA,"Los Angeles","Acute Care Hospitals","No","050641"
"LOS ANGELES COMMUNITY HOSPITAL","4081 e olympic blvd, los angeles, ca 90023, usa",34.0193498,-118.1865467,"LOS ANGELES",NA,NA,"Los Angeles","Acute Care Hospitals","Yes","050663"
"LAGUNA HONDA HOSPITAL & REHABILITATION CENTER","375 laguna honda blvd, san francisco, ca 94116, usa",37.7488896,-122.457074,"SAN FRANCISCO",NA,NA,"San Francisco","Acute Care Hospitals","No","050668"
"KAISER FOUNDATION HOSP SO SACRAMENTO","6600 bruceville rd, sacramento, ca 95823, usa",38.4699104,-121.4216412,"SACRAMENTO",NA,NA,"Sacramento","Acute Care Hospitals","No","050674"
"KAISER FOUNDATION HOSPITAL - WOODLAND HILLS","5601 de soto ave, woodland hills, ca 91367, usa",34.1709445,-118.5896036,"LOS ANGELES",NA,NA,"Woodland Hills","Acute Care Hospitals","No","050677"
"ORANGE COAST MEMORIAL MEDICAL CENTER","9920 talbert ave, fountain valley, ca 92708, usa",33.7016234,-117.9683594,"ORANGE",NA,NA,"Fountain Valley","Acute Care Hospitals","Yes","050678"
"MENIFEE VALLEY MEDICAL CENTER","28400 mccall blvd, sun city, ca 92585, usa",33.7189772,-117.1681518,"RIVERSIDE",NA,NA,"Sun City","Acute Care Hospitals","No","050684"
"KAISER FOUNDATION HOSPITAL, RIVERSIDE","10800 magnolia ave, riverside, ca 92505, usa",33.9066064,-117.4696075,"RIVERSIDE",NA,NA,"Riverside","Acute Care Hospitals","Yes","050686"
"ST LOUISE REGIONAL HOSPITAL","9400 no name uno, gilroy, ca 95020, usa",37.0367167,-121.5711608,"SANTA CLARA",NA,NA,"Gilroy","Acute Care Hospitals","Yes","050688"
"SAN RAMON REGIONAL MEDICAL CENTER","6001 norris canyon rd, san ramon, ca 94583, usa",37.7759705,-121.9582426,"CONTRA COSTA",NA,NA,"San Ramon","Acute Care Hospitals","Yes","050689"
"KAISER FOUNDATION HOSPITAL-SANTA ROSA","401 bicentennial way, santa rosa, ca 95403, usa",38.47212,-122.7270141,"SONOMA",NA,NA,"Santa Rosa","Acute Care Hospitals","Yes","050690"
"KECK HOSPITAL OF USC","1500 san pablo st, los angeles, ca 90033, usa",34.0619943,-118.2012607,"LOS ANGELES",NA,NA,"Los Angeles","Acute Care Hospitals","No","050696"
"PATIENTS' HOSPITAL OF REDDING","2900 eureka way, redding, ca 96001, usa",40.5859087,-122.416861,"SHASTA",NA,NA,"Redding","Acute Care Hospitals","No","050697"
"SOUTHWEST HEALTHCARE SYSTEM","25500 medical center dr, murrieta, ca 92562, usa",33.5590999,-117.1839646,"RIVERSIDE",NA,NA,"Murrieta","Acute Care Hospitals","Yes","050701"
"MISSION COMMUNITY HOSPITAL","14850 roscoe blvd, panorama city, ca 91402, usa",34.2202962,-118.456665,"LOS ANGELES",NA,NA,"Panorama City","Acute Care Hospitals","No","050704"
"FRESNO SURGICAL HOSPITAL","6125 n fresno st, fresno, ca 93710, usa",36.8248459,-119.7819144,"FRESNO",NA,NA,"Fresno","Acute Care Hospitals","No","050708"
"DESERT VALLEY HOSPITAL","16850 bear valley rd, victorville, ca 92395, usa",34.4722857,-117.2980128,"SAN BERNARDINO",NA,NA,"Victorville","Acute Care Hospitals","Yes","050709"
"KAISER FOUNDATION HOSPITAL - FRESNO","7300 n fresno st, fresno, ca 93720, usa",36.8424331,-119.780467,"FRESNO",NA,NA,"Fresno","Acute Care Hospitals","Yes","050710"
"SUTTER MATERNITY & SURGERY CENTER OF SANTA CRUZ","2900 chanticleer ave, santa cruz, ca 95065, usa",36.987682,-121.9774604,"SANTA CRUZ",NA,NA,"Santa Cruz","Acute Care Hospitals","No","050714"
"LAC/RANCHO LOS AMIGOS NATIONAL REHABILITATION  CTR","7601 imperial hwy, downey, ca 90242, usa",33.9293317,-118.1585885,"LOS ANGELES",NA,NA,"Downey","Acute Care Hospitals","No","050717"
"KAISER FOUNDATION HOSPITAL - BALDWIN PARK","1011 baldwin park blvd, baldwin park, ca 91706, usa",34.0655652,-117.9859943,"LOS ANGELES",NA,NA,"Baldwin Park","Acute Care Hospitals","No","050723"
"BAKERSFIELD HEART HOSPITAL","3001 sillect ave, bakersfield, ca 93308, usa",35.3847081,-119.0399171,"KERN",NA,NA,"Bakersfield","Acute Care Hospitals","Yes","050724"
"STANISLAUS SURGICAL HOSPITAL","1421 oakdale rd, modesto, ca 95355, usa",37.6647978,-120.9583221,"STANISLAUS",NA,NA,"Modesto","Acute Care Hospitals","No","050726"
"COMMUNITY HOSPITAL OF LONG BEACH","1720 termino ave, long beach, ca 90804, usa",33.7884737,-118.1452922,"LOS ANGELES",NA,NA,"Long Beach","Acute Care Hospitals","Yes","050727"
"WHITTIER HOSPITAL MEDICAL CENTER","9080 colima rd, whittier, ca 90605, usa",33.9498216,-118.0033296,"LOS ANGELES",NA,NA,"Whittier","Acute Care Hospitals","Yes","050735"
"MONTEREY PARK HOSPITAL","900 s atlantic blvd, monterey park, ca 91754, usa",34.0495478,-118.1383262,"LOS ANGELES",NA,NA,"Monterey Park","Acute Care Hospitals","No","050736"
"GARFIELD MEDICAL CENTER","525 n garfield ave, monterey park, ca 91754, usa",34.0678947,-118.1238043,"LOS ANGELES",NA,NA,"Monterey Park","Acute Care Hospitals","Yes","050737"
"GREATER EL MONTE COMMUNITY HOSPITAL","1701 santa anita ave, south el monte, ca 91733, usa",34.0480516,-118.0434003,"LOS ANGELES",NA,NA,"South El Monte","Acute Care Hospitals","No","050738"
"CENTINELA HOSPITAL MEDICAL CENTER","555 e hardy st, inglewood, ca 90301, usa",33.9509085,-118.3484579,"LOS ANGELES",NA,NA,"Inglewood","Acute Care Hospitals","No","050739"
"MARINA DEL REY HOSPITAL","4650 lincoln blvd, marina del rey, ca 90292, usa",33.9817974,-118.4402399,"LOS ANGELES",NA,NA,"Marina Del Rey","Acute Care Hospitals","Yes","050740"
"OLYMPIA MEDICAL CENTER","5900 w olympic blvd, los angeles, ca 90036, usa",34.0572875,-118.360485,"LOS ANGELES",NA,NA,"Los Angeles","Acute Care Hospitals","No","050742"
"ANAHEIM GLOBAL MEDICAL CENTER","1025 s anaheim blvd, anaheim, ca 92805, usa",33.8198344,-117.9094512,"ORANGE",NA,NA,"Anaheim","Acute Care Hospitals","No","050744"
"CHAPMAN GLOBAL MEDICAL CENTER","2601 e chapman ave, orange, ca 92869, usa",33.7886124,-117.8262888,"ORANGE",NA,NA,"Orange","Acute Care Hospitals","Yes","050745"
"ORANGE COUNTY GLOBAL MEDICAL CENTER","1001 n tustin ave, santa ana, ca 92705, usa",33.7542839,-117.8328006,"ORANGE",NA,NA,"Santa Ana","Acute Care Hospitals","Yes","050746"
"SOUTH COAST GLOBAL MEDICAL CENTER","2701 s bristol st, santa ana, ca 92707, usa",33.7110583,-117.8851902,"ORANGE",NA,NA,"Santa Ana","Acute Care Hospitals","Yes","050747"
"KAISER FOUNDATION HOSPITAL MANTECA","1777 w yosemite ave, manteca, ca 95337, usa",37.7982558,-121.2462723,"SAN JOAQUIN",NA,NA,"Manteca","Acute Care Hospitals","Yes","050748"
"MIRACLE MILE MEDICAL CENTER","6000 san vicente blvd, los angeles, ca 90036, usa",34.05731,-118.3623112,"LOS ANGELES",NA,NA,"Los Angeles","Acute Care Hospitals","No","050751"
"MENLO PARK SURGICAL HOSPITAL","570 willow rd, menlo park, ca 94025, usa",37.4614452,-122.1590825,"SAN MATEO",NA,NA,"Menlo Park","Acute Care Hospitals","No","050754"
"SHERMAN OAKS HOSPITAL","4929 van nuys blvd, sherman oaks, ca 91403, usa",34.1602807,-118.4495134,"LOS ANGELES",NA,NA,"Sherman Oaks","Acute Care Hospitals","Yes","050755"
"ALVARADO HOSPITAL MEDICAL CENTER","6655 alvarado rd, san diego, ca 92120, usa",32.7766415,-117.0573188,"SAN DIEGO",NA,NA,"San Diego","Acute Care Hospitals","Yes","050757"
"MONTCLAIR HOSPITAL MEDICAL CENTER","5000 san bernardino st, montclair, ca 91763, usa",34.0787364,-117.6960075,"SAN BERNARDINO",NA,NA,"Montclair","Acute Care Hospitals","Yes","050758"
"KAISER FOUNDATION HOSPITAL - ANTIOCH","kaiser antioch medical center - main building, 4501 sand creek rd, antioch, ca 94531, usa",37.9508418,-121.7749286,"CONTRA COSTA",NA,NA,"Antioch","Acute Care Hospitals","Yes","050760"
"PROVIDENCE TARZANA MEDICAL CENTER","18321 clark st, tarzana, ca 91356, usa",34.1710084,-118.5320407,"LOS ANGELES",NA,NA,"Tarzana","Acute Care Hospitals","Yes","050761"
"SILVER LAKE MEDICAL CENTER","1711 w temple st, los angeles, ca 90026, usa",34.0695317,-118.2634888,"LOS ANGELES",NA,NA,"Los Angeles","Acute Care Hospitals","No","050763"
"SHASTA REGIONAL MEDICAL CENTER","1100 butte st, redding, ca 96001, usa",40.5855541,-122.3877573,"SHASTA",NA,NA,"Redding","Acute Care Hospitals","Yes","050764"
"KAISER FOUNDATION HOSPITAL-MORENO VALLEY","27300 iris ave, moreno valley, ca 92555, usa",33.897404,-117.186026,"RIVERSIDE",NA,NA,"Moreno Valley","Acute Care Hospitals","Yes","050765"
"SUTTER SURGICAL HOSPITAL - NORTH VALLEY","455 plumas blvd, yuba city, ca 95991, usa",39.1318175,-121.6134333,"SUTTER",NA,NA,"Yuba City","Acute Care Hospitals","No","050766"
"KAISER FOUNDATION HOSPITAL - VACAVILLE","1 quality dr, vacaville, ca 95688, usa",38.3882169,-121.9387685,"SOLANO",NA,NA,"Vacaville","Acute Care Hospitals","Yes","050767"
"HOAG ORTHOPEDIC INSTITUTE","16250 sand canyon ave, irvine, ca 92618, usa",33.6607471,-117.7724594,"ORANGE",NA,NA,"Irvine","Acute Care Hospitals","No","050769"
"LOMA LINDA UNIVERSITY MEDICAL CENTER-MURRIETA","28062 baxter rd, murrieta, ca 92563, usa",33.6145875,-117.1691492,"RIVERSIDE",NA,NA,"Murrieta","Acute Care Hospitals","Yes","050770"
"COAST PLAZA HOSPITAL","13100 studebaker rd, norwalk, ca 90650, usa",33.9127726,-118.0988257,"LOS ANGELES",NA,NA,"Norwalk","Acute Care Hospitals","Yes","050771"
"KAISER FOUNDATION HOSPITAL - ROSEVILLE","1600 eureka rd, roseville, ca 95661, usa",38.7474074,-121.2506572,"PLACER",NA,NA,"Roseville","Acute Care Hospitals","Yes","050772"
"SAN LEANDRO HOSPITAL","13855 e 14th st, san leandro, ca 94578, usa",37.7122362,-122.1433524,"ALAMEDA",NA,NA,"San Leandro","Acute Care Hospitals","Yes","050773"
"TEMECULA VALLEY HOSPITAL","31700 temecula pkwy, temecula, ca 92592, usa",33.4811362,-117.1060989,"RIVERSIDE",NA,NA,"Temecula","Acute Care Hospitals","Yes","050775"
"COLLEGE MEDICAL CENTER","2776 pacific avenue, long beach, ca 90806, usa",33.8069502,-118.1928532,"LOS ANGELES",NA,NA,"Long Beach","Acute Care Hospitals","Yes","050776"
"KAISER FOUNDATION HOSPITAL - SAN LEANDRO","2500 merced st, san leandro, ca 94577, usa",37.7064867,-122.1647052,"ALAMEDA",NA,NA,"San Leandro","Acute Care Hospitals","Yes","050777"
"LOMA LINDA UNIVERSITY CHILDREN'S HOSPITAL","11234 anderson st suite a, loma linda, ca 92354, usa",34.0494519,-117.2641774,"SAN BERNARDINO",NA,NA,"Loma Linda","Acute Care Hospitals","No","050778"
"MARTIN LUTHER KING, JR. COMMUNITY HOSPITAL","1680 e 120th st, los angeles, ca 90059, usa",33.9231768,-118.2437996,"LOS ANGELES",NA,NA,"Los Angeles","Acute Care Hospitals","Yes","050779"
"FOOTHILL REGIONAL MEDICAL CENTER","14662 newport ave, tustin, ca 92780, usa",33.7301887,-117.828455,"ORANGE",NA,NA,"Tustin","Acute Care Hospitals","No","050780"
"SONOMA WEST MEDICAL CENTER","501 petaluma ave, sebastopol, ca 95472, usa",38.3970312,-122.8190115,"SONOMA",NA,NA,"Sebastopol","Acute Care Hospitals","Yes","050781"
"CASA COLINA HOSPITAL","255 e bonita ave, pomona, ca 91767, usa",34.0975963,-117.7469367,"LOS ANGELES",NA,NA,"Pomona","Acute Care Hospitals","No","050782"
"COLUSA MEDICAL CENTER","199 e webster st, colusa, ca 95932, usa",39.2063006,-122.0007145,"COLUSA",NA,NA,"Colusa","Acute Care Hospitals","Yes","050783"
"EASTERN PLUMAS HOSPITAL - PORTOLA CAMPUS","500 1st ave, portola, ca 96122, usa",39.8055424,-120.462856,"PLUMAS",NA,NA,"Portola","Critical Access Hospitals","Yes","051300"
"ADVENTIST HEALTH TEHACHAPI VALLEY","115 w e st, tehachapi, ca 93561, usa",35.1303509,-118.4487561,"KERN",NA,NA,"Tehachapi","Critical Access Hospitals","Yes","051301"
"SOUTHERN INYO HOSPITAL","501 e locust st, lone pine, ca 93545, usa",36.6090539,-118.0578529,"INYO",NA,NA,"Lone Pine","Critical Access Hospitals","Yes","051302"
"MAMMOTH HOSPITAL","mammoth hospital, 85 sierra park rd, mammoth lakes, ca 93546, usa",37.644145,-118.9636244,"MONO",NA,NA,"Mammoth Lakes","Critical Access Hospitals","Yes","051303"
"JOHN C FREMONT HEALTHCARE DISTRICT","5189 hospital rd, mariposa, ca 95338, usa",37.500397,-119.977678,"MARIPOSA",NA,NA,"Mariposa","Critical Access Hospitals","Yes","051304"
"MAYERS MEMORIAL HOSPITAL","43563 ca-299, fall river mills, ca 96028, usa",41.0237722,-121.423551,"SHASTA",NA,NA,"Fall River Mills","Critical Access Hospitals","Yes","051305"
"GLENN MEDICAL CENTER","1133 w sycamore st, willows, ca 95988, usa",39.5213602,-122.2084362,"GLENN",NA,NA,"Willows","Critical Access Hospitals","Yes","051306"
"CATALINA ISLAND MEDICAL CENTER","100 falls canyon rd, avalon, ca 90704, usa",33.3391608,-118.3307162,"LOS ANGELES",NA,NA,"Avalon","Critical Access Hospitals","No","051307"
"SURPRISE VALLEY COMMUNITY HOSPITAL","741 main st, cedarville, ca 96104, usa",41.5331981,-120.1718755,"MODOC",NA,NA,"Cedarville","Critical Access Hospitals","Yes","051308"
"JEROLD PHELPS COMMUNITY HOSPITAL","733 cedar st, garberville, ca 95542, usa",40.1016415,-123.7922407,"HUMBOLDT",NA,NA,"Garberville","Critical Access Hospitals","Yes","051309"
"ADVENTIST HEALTH HOWARD MEMORIAL","1 marcela dr, willits, ca 95490, usa",39.3899426,-123.3389404,"MENDOCINO",NA,NA,"Willits","Critical Access Hospitals","Yes","051310"
"ORCHARD HOSPITAL","240 spruce st, gridley, ca 95948, usa",39.3675541,-121.6894693,"BUTTE",NA,NA,"Gridley","Critical Access Hospitals","Yes","051311"
"MOUNTAINS COMMUNITY HOSPITAL","29101 hospital rd, lake arrowhead, ca 92352, usa",34.2653942,-117.168661,"SAN BERNARDINO",NA,NA,"Lake Arrowhead","Critical Access Hospitals","Yes","051312"
"KERN VALLEY HEALTHCARE DISTRICT","6412 laurel ave, mountain mesa, ca 93240, usa",35.6350753,-118.4067585,"KERN",NA,NA,"Lake Isabella","Critical Access Hospitals","Yes","051314"
"TRINITY HOSPITAL","60 easter ave, weaverville, ca 96093, usa",40.7380728,-122.9395503,"TRINITY",NA,NA,"Weaverville","Critical Access Hospitals","Yes","051315"
"FAIRCHILD MEDICAL CENTER","444 bruce st, yreka, ca 96097, usa",41.7193201,-122.6456943,"SISKIYOU",NA,NA,"Yreka","Critical Access Hospitals","Yes","051316"
"ADVENTIST HEALTH CLEARLAKE","15630 18th ave, clearlake, ca 95422, usa",38.9353458,-122.6200816,"LAKE",NA,NA,"Clearlake","Critical Access Hospitals","Yes","051317"
"REDWOOD MEMORIAL HOSPITAL","3300 renner dr, fortuna, ca 95540, usa",40.5827344,-124.1362107,"HUMBOLDT",NA,NA,"Fortuna","Critical Access Hospitals","Yes","051318"
"MERCY MEDICAL CENTER MT SHASTA","914 pine st, mt shasta, ca 96067, usa",41.3187005,-122.3209208,"SISKIYOU",NA,NA,"Mount Shasta","Critical Access Hospitals","Yes","051319"
"BANNER LASSEN MEDICAL CENTER","1800 spring ridge dr, susanville, ca 96130, usa",40.4367392,-120.6279894,"LASSEN",NA,NA,"Susanville","Critical Access Hospitals","Yes","051320"
"HEALDSBURG DISTRICT HOSPITAL","1375 university ave, healdsburg, ca 95448, usa",38.627093,-122.8643251,"SONOMA",NA,NA,"Healdsburg","Critical Access Hospitals","Yes","051321"
"COLORADO RIVER MEDICAL CENTER","1401 bailey ave, needles, ca 92363, usa",34.8331484,-114.6175395,"SAN BERNARDINO",NA,NA,"Needles","Critical Access Hospitals","Yes","051323"
"NORTHERN INYO HOSPITAL","150 pioneer ln, bishop, ca 93514, usa",37.3619709,-118.4061853,"INYO",NA,NA,"Bishop","Critical Access Hospitals","Yes","051324"
"MENDOCINO COAST DISTRICT HOSPITAL","700 river dr, fort bragg, ca 95437, usa",39.4313778,-123.800388,"MENDOCINO",NA,NA,"Fort Bragg","Critical Access Hospitals","Yes","051325"
"PLUMAS DISTRICT HOSPITAL","1065 bucks lake rd, quincy, ca 95971, usa",39.9389362,-120.9621319,"PLUMAS",NA,NA,"Quincy","Critical Access Hospitals","Yes","051326"
"SENECA DISTRICT HOSPITAL","130 brentwood dr, chester, ca 96020, usa",40.305719,-121.2348282,"PLUMAS",NA,NA,"Chester","Critical Access Hospitals","Yes","051327"
"TAHOE FOREST HOSPITAL","10121 pine ave, truckee, ca 96161, usa",39.3250999,-120.2009614,"NEVADA",NA,NA,"Truckee","Critical Access Hospitals","Yes","051328"
"SUTTER LAKESIDE HOSPITAL","5176 hill rd e, lakeport, ca 95453, usa",39.1047076,-122.9069825,"LAKE",NA,NA,"Lakeport","Critical Access Hospitals","Yes","051329"
"MODOC MEDICAL CENTER","228 w mcdowell ave, alturas, ca 96101, usa",41.47963,-120.5454258,"MODOC",NA,NA,"Alturas","Critical Access Hospitals","Yes","051330"
"SANTA YNEZ VALLEY COTTAGE HOSPITAL","2050 viborg rd, solvang, ca 93463, usa",34.6018764,-120.1261802,"SANTA BARBARA",NA,NA,"Solvang","Critical Access Hospitals","Yes","051331"
"MARK TWAIN MEDICAL CENTER","768 mountain ranch rd, san andreas, ca 95249, usa",38.1900761,-120.6706256,"CALAVERAS",NA,NA,"San Andreas","Critical Access Hospitals","No","051332"
"RIDGECREST REGIONAL HOSPITAL","1081 n china lake blvd, ridgecrest, ca 93555, usa",35.64086,-117.671187,"KERN",NA,NA,"Ridgecrest","Critical Access Hospitals","Yes","051333"
"OJAI VALLEY COMMUNITY HOSPITAL","1306 maricopa hwy, ojai, ca 93023, usa",34.4428287,-119.2643526,"VENTURA",NA,NA,"Ojai","Critical Access Hospitals","Yes","051334"
"BEAR VALLEY COMMUNITY HOSPITAL","41870 garstin dr, big bear lake, ca 92315, usa",34.2465111,-116.8884951,"SAN BERNARDINO",NA,NA,"Big Bear Lake","Critical Access Hospitals","No","051335"
"VALLEY CHILDREN'S HOSPITAL","9300 valley children's pl, madera, ca 93636, usa",36.8840366,-119.8003218,"MADERA",NA,NA,"Madera","Childrens","Yes","053300"
"CHILDREN'S HOSPITAL & RESEARCH CENTER OAKLAND","747 52nd st, oakland, ca 94609, usa",37.8371901,-122.2670282,"ALAMEDA",NA,NA,"Oakland","Childrens","Yes","053301"
"CHILDREN'S HOSP OF LOS ANGELES","4650 sunset blvd, los angeles, ca 90027, usa",34.0976068,-118.2910238,"LOS ANGELES",NA,NA,"Los Angeles","Childrens","Yes","053302"
"RADY CHILDREN'S HOSPITAL - SAN DIEGO","3020 children's way, san diego, ca 92123, usa",32.7977575,-117.151407,"SAN DIEGO",NA,NA,"San Diego","Childrens","No","053303"
"CHILDREN'S HOSPITAL OF ORANGE COUNTY","1201 w la veta ave, orange, ca 92868, usa",33.7807653,-117.8657964,"ORANGE",NA,NA,"Orange","Childrens","No","053304"
"LUCILE SALTER PACKARD CHILDREN'S HSP AT STANFORD","725 welch rd, palo alto, ca 94304, usa",37.4360801,-122.1738746,"SANTA CLARA",NA,NA,"Palo Alto","Childrens","No","053305"
"CHILDREN'S HOSPITAL AT MISSION","27700 medical center rd 5th floor, mission viejo, ca 92691, usa",33.5610153,-117.6653937,"ORANGE",NA,NA,"Mission Viejo","Childrens","Yes","053306"
"HEALTHBRIDGE CHILDREN'S HOSPITAL - ORANGE","393 s tustin st, orange, ca 92866, usa",33.7827853,-117.8338445,"ORANGE",NA,NA,"Orange","Childrens","No","053308"
"MILLER CHILDREN'S HOSPITAL","2801 atlantic ave, long beach, ca 90806, usa",33.808777,-118.1865102,"LOS ANGELES",NA,NA,"Long Beach","Childrens","No","053309"
"SHRINERS HOSPITALS FOR CHILDREN","3160 geneva st, los angeles, ca 90020, usa",34.0672495,-118.2864185,"LOS ANGELES",NA,NA,"Los Angeles","Childrens","No","053310"
"SHRINERS HOSPITALS FOR CHILDREN NORTHERN CALIF","2425 stockton blvd, sacramento, ca 95817, usa",38.552912,-121.4552698,"SACRAMENTO",NA,NA,"Sacramento","Childrens","No","053311"
