"FAC_NAME","FAC_ADDRESS_ONE","LATITUDE","LONGITUDE","COUNTY","CENS_TRACT","FAC_CITY","OSHPD_ID"
"MONTAGE MEDICAL GROUP","23845 HOLMAN HWY","36.57634","-121.91395","Monterey","6053011900","MONTEREY","306274092"
"HURTT FAMILY HEALTH CLINIC - SANTA ANA","1100 N TUSTIN AVE","33.75487","-117.83426","Orange","6059075403","SANTA ANA","306304555"
"ARIA COMMUNITY HEALTH CENTER RIVERDALE","3554 W MOUNT WHITNEY AVE","36.43084","-119.8621","Fresno","6019007700","RIVERDALE","306105115"
"ALTAMED MEDICAL GROUP - SANTA ANA, MAIN","1400 N MAIN ST","33.7567114","-117.8681643","Orange","6059075003","SANTA ANA","306304440"
"CENTRAL NEIGHBORHOOD HEALTH FOUNDATIO/INGLEWOOD","2710 W MANCHESTER BLVD","33.95996","-118.32342","Los Angeles","6037600704","INGLEWOOD","306198294"
"ANPHON MEDICAL CENTER","333 E NUTWOOD ST","33.96074","-118.350661","Los Angeles","6037601001","INGLEWOOD","306198154"
"ST. ANTHONY MEDICAL CENTER/HOLLYWOOD CLINIC","6368 HOLLYWOOD BLVD","34.10159","-118.32873","Los Angeles","6037190700","LOS ANGELES","306196159"
"KORYO HEALTH FOUNDATION","1058 S VERMONT AVE","34.05138","-118.29157","Los Angeles","6037213402","LOS ANGELES","306191373"
"SAN JOSE FOOTHILL FAMILY COMMUNITY CLINIC, INC.","2880 STORY RD","37.353636","-121.822635","Santa Clara","6085503510","SAN JOSE","306434203"
"SEASIDE COMMUNITY HEALTH CENTER","1130 FREMONT BLVD","36.6006605","-121.8490991","Monterey","6053013600","SEASIDE","306274083"
"ROOSEVELT HEALTH CENTER","1926 19TH AVE","37.7897817","-122.2373363","Alameda","6001405901","OAKLAND","306014277"
"CITY HELP WELLNESS CENTER","2301 BELLEVUE AVE","34.0745764","-118.2695435","Los Angeles","6037195710","LOS ANGELES","306196179"
"ENGEMANN STUDENT HEALTH CENTER","1031 W 34TH ST","34.0252377","-118.2887765","Los Angeles","6037222700","LOS ANGELES","306197777"
"SACRAMENTO COMMUNITY CLINIC - SOUTHGATE","7275 E SOUTHGATE DR","38.49355","-121.43766","Sacramento","6067005002","SACRAMENTO","306344146"
"CHAPA-DE INDIAN HEALTH PROGRAM, INC","11670 ATWOOD RD","38.93485","-121.09873","Placer","6061021501","AUBURN","306312257"
"AMPLA HEALTH LINDHURST MEDICAL AND DENTAL","4941 OLIVEHURST AVE","39.0973143","-121.5510757","Yuba","6115040500","OLIVEHURST","306582254"
"VISTA COMMUNITY CLINIC","1000 VALE TERRACE DR","33.20906","-117.22881","San Diego","6073019601","VISTA","306370856"
"EUCLID MEDICAL AND MENTAL HEALTH SERVICES","1733 EUCLID AVE","32.7232461","-117.0832519","San Diego","6073002712","SAN DIEGO","306374478"
"TZU CHI MOBILE CLINIC","175 DEMPSEY RD","37.4321416","-121.8858405","Santa Clara","6085504418","MILPITAS","306434217"
"MISSION CITY COMMUNITY NETWORK, INC. - POMONA MOBILE CLINIC","1818 N ORANGE GROVE AVE","34.07694","-117.74895","Los Angeles","6037402102","POMONA","306198033"
"ST. JAMES HEALTH CENTER","55 E JULIAN ST","37.34114","-121.89266","Santa Clara","6085501000","SAN JOSE","306434004"
"SOUTH GATE COMMUNITY CLINIC","5720 IMPERIAL HWY","33.9299315","-118.1688782","Los Angeles","6037536200","SOUTH GATE","306197779"
"NORTH EAST MEDICAL SERVICES - SAN BRUNO AVENUE","2574 SAN BRUNO AVE","37.7290258","-122.4045065","San Francisco","6075025702","SAN FRANCISCO","306384207"
"NEIGHBORHOOD HEALTHCARE - TEMECULA","41840 ENTERPRISE CIR N","33.51795","-117.17007","Riverside","6065051200","TEMECULA","306334665"
"MISSION CITY COMMUNITY NETWORK-HOLLYWOOD","4842 HOLLYWOOD BLVD","34.10176","-118.29519","Los Angeles","6037191201","LOS ANGELES","306196258"
"THE CHARLOTTE MAXWELL COMPLEMENTARY CLINIC","610 16TH ST","37.80723","-122.27429","Alameda","6001402800","OAKLAND","306014253"
"ST. JOHNS WELL CHILD AND FAMILY CENTER","6505 8TH AVE","33.98053","-118.32654","Los Angeles","6037234901","LOS ANGELES","306197172"
"BAART COMMUNITY HEALTHCARE - E STREET CLINIC","1235 E ST","36.7324265","-119.7993869","Fresno","6019000200","FRESNO","306105070"
"HURTT FAMILY HEALTH CLINIC","1 HOPE DR","33.71489","-117.83342","Orange","6059075515","TUSTIN","306304423"
"ALTAMED MEDICAL GROUP - GARDEN GROVE, HARBOR","12751 HARBOR BLVD","33.7776476","-117.9154686","Orange","6059088502","GARDEN GROVE","306304439"
"ALTAMED MEDICAL GROUP - ANAHEIM, LINCOLN","1814 W LINCOLN AVE","33.8321645","-117.9463514","Orange","6059087103","ANAHEIM","306304441"
"TARZANA TREATMENT CENTERS FAMILY MEDICAL VAN NUYS CLINIC","14660 OXNARD ST","34.17936","-118.45223","Los Angeles","6037128400","VAN NUYS","306198242"
"QUEENSCARE HEALTH CENTERS","4448 YORK BLVD","34.12374","-118.21886","Los Angeles","6037186201","LOS ANGELES","306196099"
"NESTOR COMMUNITY HEALTH CENTER","1016 OUTER RD","32.57797","-117.08254","San Diego","6073010107","SAN DIEGO","306374450"
"SIERRA FAMILY MEDICAL CLINIC, INC.","15301 TYLER FOOTE RD","39.3657253","-121.0365496","Nevada","6057000900","NEVADA CITY","306294009"
"TIBURCIO VASQUEZ HEALTH CENTER, INC. FIREHOUSE CLINIC","28300 HUNTWOOD AVE","37.632","-122.06339","Alameda","6001438204","HAYWARD","306014373"
"OVER 60 HEALTH CENTER","3260 SACRAMENTO ST","37.84816","-122.27793","Alameda","6001424002","BERKELEY","306014161"
"COMMUNITY MEDICAL CENTERS - MANTECA","200 COTTAGE AVE","37.79958","-121.19823","San Joaquin","6077005110","MANTECA","306394101"
"SAN BENITO HEALTH FOUNDATION","351 FELICE DR","36.85309","-121.417","San Benito","6069000300","HOLLISTER","306351812"
"AHF HEALTHCARE CENTER - SAN FRANCISCO","100 CHURCH ST","37.7694503","-122.4291929","San Francisco","6075016900","SAN FRANCISCO","306384180"
"LA CLINICA VALLEJO","243 GEORGIA ST","38.10112","-122.25907","Solano","6095250900","VALLEJO","306484019"
"CENTRAL CITY COMMUNITY HEALTH CENTER MOBILE UNIT","5968 S CENTRAL AVE","33.98568","-118.256441","Los Angeles","6037239202","LOS ANGELES","306197167"
"TIBURCIO VASQUEZ HEALTH CENTER, INC.","22331 MISSION BLVD","37.67446","-122.08678","Alameda","6001435400","HAYWARD","306014369"
"AMPLA HEALTH GRIDLEY MEDICAL","520 KENTUCKY ST","39.36385","-121.69653","Butte","6007003501","GRIDLEY","306044002"
"GARDNER DOWNTOWN HEALTH CENTER","725 E SANTA CLARA ST","37.3434594","-121.8753544","Santa Clara","6085501200","SAN JOSE","306434235"
"OBRIA MEDICAL CLINICS OF SOUTHERN CALIFORNIA, INC. - BUENA P","8352 COMMONWEALTH AVE","33.86992","-117.98735","Orange","6059110603","BUENA PARK","306198197"
"ALTAMED MEDICAL GROUP: SANTA ANA CENTRAL","1155 W CENTRAL AVE","33.71257","-117.88432","Orange","6059074005","SANTA ANA","306304570"
"CENTRAL CITY COMMUNITY HEALTH CENTER, INC.","2237 W BALL RD","33.81779","-117.96089","Orange","6059087701","ANAHEIM","306304371"
"MACT MEDICAL CLINIC, SONORA","13975 MONO WAY","37.97833","-120.33951","Tuolumne","6109004100","SONORA","306554009"
"FOSHAY CLINIC","3751 S HARVARD BLVD","34.01918","-118.30621","Los Angeles","6037222500","LOS ANGELES","306196121"
"LA AMISTAD FAMILY HEALTH CENTER","353 S MAIN ST","33.78287","-117.86727","Orange","6059076000","ORANGE","306300226"
"SLO NOOR CLINIC","1428 PHILLIPS LN","35.28799","-120.65742","San Luis Obispo","6079011002","SAN LUIS OBISPO","306404079"
"AHF HEALTHCARE CENTER - DOWNTOWN","1400 S GRAND AVE","34.0360682","-118.2650579","Los Angeles","6037224010","LOS ANGELES","306197824"
"SAMUEL DIXON FAMILY HEALTH CENTER, INC.","30257 SAN MARTINEZ RD","34.44739","-118.66442","Los Angeles","6037920106","CASTAIC","306194195"
"AHF HEALTHCARE CENTER - HOLLYWOOD","1300 N VERMONT AVE","34.09569","-118.29173","Los Angeles","6037191302","LOS ANGELES","306194239"
"SUTTER COUNTY - PEACH TREE CLINIC","1445 VETERANS MEMORIAL CIR","39.14504","-121.63687","Sutter","6101050604","YUBA CITY","306514040"
"TIGER HEALTH CLINIC","4610 FOOTHILL BLVD","37.77367","-122.20957","Alameda","6001407600","OAKLAND","306014211"
"MONTAGE MEDICAL GROUP","30 GARDEN CT","36.58452","-121.855731","Monterey","6053013300","MONTEREY","306274089"
"CLINICA ALTA VISTA","1515 FRUITVALE AVE","37.7791","-122.22513","Alameda","6001406202","OAKLAND","306014205"
"MISSION CITY COMTY NETWORK - PACOIMA MIDDLE SCHOOL","9919 LAUREL CANYON BLVD","34.25063","-118.42355","Los Angeles","6037104822","PACOIMA","306196716"
"NEVHC HOMELESS MOBILE CLINIC","1172 N MACLAY AVE","34.29584","-118.4241","Los Angeles","6037320100","SAN FERNANDO","306197031"
"WESTERN SIERRA MEDICAL CENTER","844 OLD TUNNEL RD","39.23658","-121.03068","Nevada","6057000600","GRASS VALLEY","306294027"
"CENTRAL VALLEY INDIAN HEALTH CLINIC PRATHER","29369 AUBERRY RD","37.03865","-119.51793","Fresno","6019006405","PRATHER","306104069"
"COMMUNITY HEALTH CENTERS OF SAN MIGUEL","1385 MISSION ST","35.75256","-120.69623","San Luis Obispo","6079010016","SAN MIGUEL","306404102"
"LOS ANGELES COMMUNITY CLINIC, INC.","1830 W OLYMPIC BLVD","34.05055","-118.27734","Los Angeles","6037209520","LOS ANGELES","306198083"
"ALTAMED MEDICAL GROUP - SANTA ANA - BRISTOL","2720 S BRISTOL ST","33.71091","-117.88545","Orange","6059074111","SANTA ANA","306304543"
"SOUTH BAY FAMILY HEALTH CARE","270 E 223RD ST","33.8241928","-118.2728879","Los Angeles","6037543701","CARSON","306197826"
"ST. JOHNS WELL CHILD AND FAMILY CENTER","1555 W 110TH ST","33.9354794","-118.3037135","Los Angeles","6037600302","LOS ANGELES","306197823"
"AZUSA HEALTH SERVICES","472 S CITRUS AVE","34.1149251","-117.8901769","Los Angeles","6037404000","AZUSA","306197881"
"WEIGHT LOSS SURGERY INSTITUTE OF THE CENTRAL COAST","316 S STRATFORD AVE","34.95025","-120.41476","Santa Barbara","6083002211","SANTA MARIA","306424103"
"UNITED INDIAN HEALTH SERVICES, INC.","1675 NORTHCREST DR","41.77536","-124.199081","Del Norte","6015000104","CRESCENT CITY","306084007"
"UNITED HEALTH CENTERS OF THE SAN JOAQUIN VALLEY","6425 W BOWLES AVE","36.601","-119.90691","Fresno","6019007600","RAISIN CITY","306105127"
"UNITED HEALTH CENTERS OF THE SAN JOAQUIN VALLEY","106 E MAIN ST","36.62891","-119.67867","Fresno","6019001600","FOWLER","306105134"
"SANTEE FAMILY MEDICINE","120 TOWN CENTER PARKWAY","32.8407","-116.98875","San Diego","6073016614","SANTEE","306374563"
"COMMUNITY HEALTH CLINIC OLE","1222 PINE ST","38.50589","-122.47227","Napa","6055201602","SAINT HELENA","306284021"
"PEACH TREE NORTH SACRAMENTO","3810 ROSIN CT","38.63775","-121.47546","Sacramento","6067007001","SACRAMENTO","306344231"
"GREENFIELD COMMUNITY HEALTH CENTER","9001 S H ST","35.2740574","-119.0213091","Kern","6029003202","BAKERSFIELD","306154177"
"AHF HEALTHCARE CENTER - OAKLAND","400 30TH ST","37.8190119","-122.2646799","Alameda","6001401300","OAKLAND","306014254"
"SAC SAN BERNARDINO CAMPUS","250 N G ST","34.10371","-117.29907","San Bernardino","6071005701","SAN BERNARDINO","306364558"
"INDIAN HEALTH CENTER OF SANTA CLARA VALLEY","2039 FOREST AVE","37.3274","-121.934181","Santa Clara","6085500500","SAN JOSE","306434283"
"MT. PLEASANT HEALTH CENTER","1650 S WHITE RD","37.346497","-121.810304","Santa Clara","6085503509","SAN JOSE","306434250"
"CHAPCARE VACCO","10408 VACCO ST","34.047333","-118.0443703","Los Angeles","6037433700","SOUTH EL MONTE","306197834"
"CAMARENA HEALTH A STREET","124 S A ST","36.96399","-120.05455","Madera","6039000800","MADERA","306204032"
"GASTON MIDDLE SCHOOL HEALTH AND WELLNESS CENTER","1120 E CHURCH AVENUE","36.7141221","-119.7975412","Fresno","6019000901","FRESNO","306105117"
"HEALTH TO HOPE CLINICS","2880 HULEN PL","33.9869249","-117.35352","Riverside","6065030502","RIVERSIDE","306334664"
"POMONA COMMUNITY HEALTH CENTER","1556 S SULTANA AVE","34.04545","-117.646","San Bernardino","6071001812","ONTARIO","306364520"
"COMMUNITY MEDICAL CENTERS, E. MARCH LANE","1801 E MARCH LN","38.00314","-121.28701","San Joaquin","6077003409","STOCKTON","306394121"
"ARIA COMMUNITY HEALTH CENTER STRATFORD","20326 MAIN ST","36.18962","-119.82303","Kings","6031001601","STRATFORD","306164041"
"ALPHA PREGANCY HELP CENTER MOBILE","700 LOUGHBOROUGH DR","37.32272","-120.47987","Merced","6047001004","MERCED","306244058"
"CENTRAL NEIGHBORHOOD HEALTH FOUNDATION","2614 S GRAND AVE","34.02588","-118.272618","Los Angeles","6037224600","LOS ANGELES","306197882"
"NECC HARBOR CITY HEALTH CENTER","1403 LOMITA BLVD","33.798336","-118.301832","Los Angeles","6037293302","HARBOR CITY","306197827"
"FERNDALE COMMUNITY HEALTH CENTER","638 MAIN ST","40.5784","-124.261361","Humboldt","6023011200","FERNDALE","306124042"
"FAMILY HEALTHCARE NETWORK","31180 N ROAD 72","36.35585","-119.4124","Tulare","6107000900","GOSHEN","306544105"
"OMNI FAMILY HEALTH","925 G ST","36.59801","-119.45264","Fresno","6019006602","REEDLEY","306105138"
"CLINICAS DEL CAMINO REAL, INC. - EAST SIMI VALLEY","4370 EVE ROAD","34.28259","-118.70948","Ventura","6111008401","SIMI VALLEY","306564269"
"COMMUNITY HEALTH CENTERS, MOBILE DENTAL VAN 2","150 TEJAS PL","35.026608","-120.498978","San Luis Obispo","6079012402","NIPOMO","306404081"
"PEACH TREE MIDTOWN","1900 T ST","38.5656286","-121.4857578","Sacramento","6067002000","SACRAMENTO","306344070"
"NORTHERN VALLEY INDIAN HEALTH, INC.","175 W COURT ST","38.6785307","-121.7923274","Yolo","6113010902","WOODLAND","306574006"
"CORONA LIFE SERVICES","623 N MAIN ST","33.88843","-117.56428","Riverside","6065040809","CORONA","306334709"
"ICU MOBILE RIVERSIDE COUNTY","22433 STANLEY LN","33.58555","-117.26503","Riverside","6065043272","WILDOMAR","306334693"
"KERMAN UNIFIED SCHOOL DISTRICT COMMUNITY HEALTH CENTER","702 S 8TH ST","36.7245462","-120.0564702","Fresno","6019004002","KERMAN","306105103"
"ARIA COMMUNITY HEALTH CENTER AMC","148 E KINGS ST","36.00226","-120.136541","Kings","6031001701","AVENAL","306164039"
"OROSI FAMILY MEDICAL CARE","12683 AVENUE 416","36.544663","-119.289624","Tulare","6107000201","OROSI","306544054"
"CHULA VISTA MEDICAL PLAZA","678 3RD AVE","32.6286022","-117.0755014","San Diego","6073013000","CHULA VISTA","306374498"
"UNITED HEALTH CENTERS OF THE SAN JOAQUIN VALLEY","1560 E MANNING AVE","36.604145","-119.432597","Fresno","6019006604","REEDLEY","306105116"
"UNITED HEALTH CENTERS OF THE SAN JOAQUIN VALLEY","1270 N LEMOORE AVE","36.3157","-119.780071","Kings","6031000403","LEMOORE","306164037"
"PREVENTIVE CARE PATHWAYS","5709 MARKET ST","37.84176","-122.274544","Alameda","6001400700","OAKLAND","306014296"
"NEIGHBORHOOD HEALTHCARE - MENIFEE","26926 CHERRY HILLS BLVD","33.71055","-117.19088","Riverside","6065042711","MENIFEE","306334694"
"NEIGHBORHOOD HEALTH CARE - DEVONSHIRE AVE","903 E DEVONSHIRE AVE","33.75116","-116.96275","Riverside","6065043401","HEMET","306334722"
"FAMILY HEALTHCARE NETWORK - TULARE","263 S. WEST STREET","36.20413","-119.36684","Tulare","6107002202","TULARE","306544101"
"NECC GAGE HEALTH CENTER","2975 ZOE AVE","33.9793489","-118.216067","Los Angeles","6037533106","HUNTINGTON PARK","306197844"
"EISNER PEDIATRIC AND FAMILY CENTER - WOMENS HEALTH CENTER","1513 S GRAND AVE","34.03609","-118.26614","Los Angeles","6037224010","LOS ANGELES","306198085"
"AGHABY COMPREHENSIVE COMMUNITY HEALTH CENTER","349 W COMPTON BLVD","33.89598","-118.22771","Los Angeles","6037542602","COMPTON","306198293"
"LOS ANGELES CHRISTIAN HEALTH CENTERS - TELECARE CORE LA","1005 S CENTRAL AVE","34.031413","-118.244873","Los Angeles","6037226002","LOS ANGELES","306197831"
"LOS ANGELES CHRISTIAN HEALTH CENTERS - EXODUS RECOVERY - ICM","1920 MARENGO ST","34.057296","-118.20969","Los Angeles","6037203300","LOS ANGELES","306197828"
"LOS ANGELES CHRISTIAN HEALTH CENTERS - TELECARE SERVICE AREA 4","600 ST PAUL AVE","34.053109","-118.260635","Los Angeles","6037209200","LOS ANGELES","306197830"
"LOS ANGELES CHRISTIAN HEALTH CENTERS - NEW GENESIS","456 S MAIN ST","34.04717","-118.24807","Los Angeles","6037207302","LOS ANGELES","306197829"
"CLINICA PARA LA MUJER","3624 MLK JR BLVD","33.93158","-118.20317","Los Angeles","6037540202","LYNWOOD","306198288"
"CHAPCARE-GARVEY","10127 GARVEY AVE","34.06277","-118.04871","Los Angeles","6037433101","EL MONTE","306197952"
"THE ACHIEVABLE CLINIC","5901 GREEN VALLEY CIR","33.98414","-118.39258","Los Angeles","6037703001","CULVER CITY","306197841"
"THE CHILDRENS CLINIC FAMILY HEALTH CENTER CABRILLO GATEWAY","2000 SAN GABRIEL AVE","33.79263","-118.22395","Los Angeles","6037572800","LONG BEACH","306198095"
"ALTURA CENTERS FOR HEALTH","3035 E BARDSLEY AVE","36.1964969","-119.3021458","Tulare","6107002400","TULARE","306544092"
"ALTURA CENTERS FOR HEALTH","16686 ROAD 168","36.09267","-119.1967","Tulare","6107003200","PORTERVILLE","306544098"
"ALTURA CENTERS FOR HEALTH","600 N CHERRY ST","36.21677","-119.33763","Tulare","6107002303","TULARE","306544097"
"OMNI FAMILY HEALTH","4600 PANAMA LN","35.29596","-119.05429","Kern","6029003114","BAKERSFIELD","306154173"
"OMNI FAMILY HEALTH","1001 MAIN ST","35.76916","-119.2457","Kern","6029005004","DELANO","306150786"
"SHARE OUR SELVES COMMUNITY HEALTH CENTER","1550 SUPERIOR AVE","33.63299","-117.92669","Orange","6059063605","COSTA MESA","306304013"
"CAMINO HEALTH CENTER","30300 CAMINO CAPISTRANO","33.52204","-117.66873","Orange","6059042312","SAN JUAN CAPISTRANO","306304335"
"ST. JUDE NEIGHBORHOOD HEALTH CENTER","731 S HIGHLAND AVE","33.86348","-117.92872","Orange","6059011601","FULLERTON","306304388"
"WELLSPACE HEALTH OAK PARK COMMUNITY HEALTH CENTER","3415 M L KING BLVD","38.54372","-121.46469","Sacramento","6067002800","SACRAMENTO","306344163"
"CHINO HILLS PRIMARY CARE CENTER","3110 CHINO AVE","34.01073","-117.73789","San Bernardino","6071000103","CHINO HILLS","306364355"
"COMPREHENSIVE HEALTH CENTER - METRO","3177 OCEAN VIEW BLVD","32.70116","-117.12585","San Diego","6073003902","SAN DIEGO","306371285"
"PARADISE HILLS FAMILY CLINIC","2400 E 8TH ST","32.68279","-117.08199","San Diego","6073012002","NATIONAL CITY","306374432"
"CITY HEIGHTS FAMILY HEALTH CENTER","5454 EL CAJON BLVD","32.7581401","-117.0776962","San Diego","6073002804","SAN DIEGO","306374471"
"FAMILYHEALTH AT CITY COLLEGE","1550 BROADWAY","32.71577","-117.14992","San Diego","6073005200","SAN DIEGO","306374518"
"NIPOMO COMMUNITY MEDICAL CENTER","150 TEJAS PL","35.02661","-120.49898","San Luis Obispo","6079012402","NIPOMO","306401170"
"WASHINGTON NEIGHBORHOOD HEALTH CLINIC","100 OAK ST","37.32173","-121.88176","Santa Clara","6085501700","SAN JOSE","306434132"
"FAMILY HEALTHCARE NETWORK","33025 ROAD 159","36.38897","-119.21809","Tulare","6107000800","IVANHOE","306544005"
"FAMILY HEALTHCARE NETWORK","41651 SIERRA DR","36.43836","-118.90519","Tulare","6107000100","THREE RIVERS","306544059"
"FAMILY HEALTHCARE NETWORK","12586 AVENUE 408","36.530437","-119.290283","Tulare","6107000201","OROSI","306544061"
"FAMILY HEALTHCARE NETWORK","31180 ROAD 72","36.35109","-119.41909","Tulare","6107000900","GOSHEN","306544091"
"NILAND HEALTH CLINIC","8027 HIGHWAY 111","33.25725","-115.54574","Imperial","6025010102","NILAND","306134005"
"BAKER STREET VILLAGE COMMUNITY HEALTH CENTER","1015 BAKER ST","35.37905","-118.99206","Kern","6029001300","BAKERSFIELD","306154199"
"ALL FOR HEALTH, HEALTH FOR ALL, INC.","519 E BROADWAY","34.14636","-118.24958","Los Angeles","6037302002","GLENDALE","306197090"
"TRI-CITY HEALTH CENTER - MAIN STREET VILLAGE","3607 MAIN ST","37.533773","-121.956337","Alameda","6001442302","FREMONT","306014309"
"WELLSPACE HEALTH ALHAMBRA COMMUNITY HEALTH CENTER","2425 ALHAMBRA BLVD","38.55638","-121.47231","Sacramento","6067001800","SACRAMENTO","306344229"
"BANJ FAMILY MEDICAL CLINIC","3620 MLK JR BLVD","33.93187","-118.20341","Los Angeles","6037540202","LYNWOOD","306198290"
"COMMUNITY MEDICINE INC","8540 ALONDRA BLVD","33.88915","-118.15011","Los Angeles","6037553902","PARAMOUNT","306198326"
"ALTAMED PACE COVINA","535 S 2ND AVE","34.08007","-117.88791","Los Angeles","6037406102","COVINA","306197951"
"HARMONY HEALTH MEDICAL CLINIC AND FAMILY RESOURCES CENTER","1908 N BEALE RD","39.12784","-121.54581","Yuba","6115040303","MARYSVILLE","306584012"
"WELLSPACE HEALTH SAN JUAN COMMUNITY HEALTH CENTER","5959 GREENBACK LN","38.6805","-121.32248","Sacramento","6067008131","CITRUS HEIGHTS","306344209"
"NORTH EAST MEDICAL SERVICES - EASTMOOR","211 EASTMOOR AVE","37.6846442","-122.478062","San Mateo","6081601400","DALY CITY","306414128"
"HAVENSCOURT HEALTH CENTER","1390 66TH AVE","37.762045","-122.193299","Alameda","6001408800","OAKLAND","306014325"
"SACRAMENTO COMMUNITY CLINIC - EXPLORER","3030 EXPLORER DR","38.56348","-121.33269","Sacramento","6067009004","SACRAMENTO","306344212"
"WELLSPACE HEALTH RANCHO CORDOVA COMMUNITY HEALTH CENTER","10423 OLD PLACERVILLE RD","38.57035","-121.30682","Sacramento","6067009007","SACRAMENTO","306344189"
"ARLANZA FAMILY HEALTH CENTER","8856 ARLINGTON AVE","33.94638","-117.467261","Riverside","6065041101","RIVERSIDE","306334577"
"HEALTH TO HOPE CLINICS (CVRM)","47470 VAN BUREN ST","33.70449","-116.198141","Riverside","6065940400","INDIO","306334706"
"DESERT HOT SPRINGS HEALTH AND WELLNESS CENTER","11750 CHOLLA DR","33.96394","-116.513271","Riverside","6065044509","DESERT HOT SPRINGS","306334683"
"EL PROYECTO DEL BARRIO, INC, BALDWIN PARK COMMUNITY CLINIC","3942 MAINE AVE","34.08453","-117.96175","Los Angeles","6037405202","BALDWIN PARK","306197955"
"AMH COMPREHENSIVE MEDICAL CENTERS","711 N ALVARADO ST","34.07411","-118.26566","Los Angeles","6037195710","LOS ANGELES","306198184"
"ALTAMED MEDICAL GROUP - HUNTINGTON PARK","1900 E SLAUSON AVE","33.989167","-118.238919","Los Angeles","6037532700","HUNTINGTON PARK","306197956"
"ALTAMED PACE SOUTH LOS ANGELES","1776 E CENTURY BLVD","33.9451","-118.241291","Los Angeles","6037242200","LOS ANGELES","306197942"
"LA MAESTRA COMMUNITY HEALTH CENTERS - NATIONAL CITY","217 HIGHLAND AVE","32.687505","-117.101706","San Diego","6073011802","NATIONAL CITY","306374479"
"FAMILY HEALTHCARE NETWORK","1107 W POPLAR AVE","36.05128","-119.04243","Tulare","6107003400","PORTERVILLE","306542019"
"OCCIDENTAL AREA HEALTH CENTER","3802 MAIN ST","38.4088","-122.94753","Sonoma","6097154302","OCCIDENTAL","306494014"
"FORTUNA COMMUNITY HEALTH CENTER","3306 RENNER DR","40.582424","-124.135999","Humboldt","6023010901","FORTUNA","306124044"
"BLOOMINGTON COMMUNITY HEALTH CENTER","18601 VALLEY BLVD","34.07045","-117.39815","San Bernardino","6071003606","BLOOMINGTON","306360209"
"VISTA COMMUNITY CLINIC - GRAPEVINE","134 GRAPEVINE RD","33.1914245","-117.2754931","San Diego","6073019405","VISTA","306374031"
"ESCONDIDO FAMILY MEDICINE","255 N ASH ST","33.12867","-117.06621","San Diego","6073020202","ESCONDIDO","306374404"
"CLINICA DE SALUD DEL VALLE DE SALINAS","950 CIRCLE DR","36.67958","-121.62666","Monterey","6053000502","SALINAS","306271848"
"FOOTHILL FAMILY CLINIC","1066 S WHITE RD","37.3569296","-121.819584","Santa Clara","6085504102","SAN JOSE","306434259"
"GILROY NEIGHBORHOOD CLINIC AT SOUTH VALLEY JR H.S.","7861 MURRAY AVE","37.01637","-121.56623","Santa Clara","6085512604","GILROY","306434164"
"BROOKWOOD HEALTH CENTER","983 SONOMA AVE","38.4404884","-122.7024519","Sonoma","6097152000","SANTA ROSA","306494121"
"COMMUNITY MEDICAL CENTERS - CHANNEL","701 E CHANNEL ST","37.95609","-121.28198","San Joaquin","6077000100","STOCKTON","306394036"
"WELLSPACE HEALTH J STREET COMMUNITY HEALTH CENTER","1820 J ST","38.57709","-121.48154","Sacramento","6067001101","SACRAMENTO","306341898"
"NORTH EAST MEDICAL SERVICES - CLEMENT","1033 CLEMENT ST","37.7826074","-122.470139","San Francisco","6075040200","SAN FRANCISCO","306384225"
"NEIGHBORHOOD HEALTHCARE - LAKESIDE","10039 VINE ST","32.86119","-116.92118","San Diego","6073016804","LAKESIDE","306374164"
"JWCH NORWALK REGIONAL HEALTH CENTER","12360 FIRESTONE BLVD","33.90587","-118.069961","Los Angeles","6037552200","NORWALK","306196808"
"NORTHEAST VALLEY HEALTH - PACOIMA HEALTH CENTER","12756 VAN NUYS BLVD","34.27388","-118.410641","Los Angeles","6037104105","PACOIMA","306190962"
"NORTHEAST COMMUNITY CLINIC","5428 N FIGUEROA ST","34.10753","-118.196141","Los Angeles","6037183810","LOS ANGELES","306197102"
"NORTHEAST VALLEY HEALTH CORP LAC-CANOGA PARK HLTH","7107 REMMET AVE","34.19949","-118.600621","Los Angeles","6037134520","CANOGA PARK","306194809"
"NORTHEAST VALLEY HLTH CORP LAC-VALENCIA HLTH CNTR","23763 VALENCIA BLVD","34.41463","-118.55063","Los Angeles","6037920329","VALENCIA","306194810"
"ST JOHNS WELL CHILD AND FAMILY CENTER - DR. LOUIS","5701 S HOOVER ST","33.989949","-118.2874208","Los Angeles","6037232700","LOS ANGELES","306196692"
"AHF HEALTHCARE CENTER-WESTSIDE HEALTHCARE CLINIC","99 N LA CIENEGA BLVD","34.0676","-118.37633","Los Angeles","6037700802","BEVERLY HILLS","306194615"
"THE SABAN COMMUNITY CLINIC - HOLLYWOOD HEALTH CENTER","6043 HOLLYWOOD BLVD","34.10169","-118.32155","Los Angeles","6037191000","LOS ANGELES","306194414"
"HUNTINGTON PARK FAMILY HEALTH CENTER","2680 SATURN AVE","33.9767708","-118.22288","Los Angeles","6037533104","HUNTINGTON PARK","306197407"
"BARTZ-ALTADONNA COMMUNITY HEALTH CENTER","43322 GINGHAM AVE","34.6699189","-118.1222408","Los Angeles","6037900504","LANCASTER","306197701"
"VISTA COMMUNITY HEALTH CENTER","14117 HUBBARD ST","34.29835","-118.44054","Los Angeles","6037107010","SYLMAR","306197817"
"SOUTH BAY FAMILY HEALTH CARE CENTER","2114 ARTESIA BLVD","33.87276","-118.3745","Los Angeles","6037620701","REDONDO BEACH","306190733"
"T.H.E. CLINIC AT RUTH TEMPLE HEALTH CENTER","3834 S WESTERN AVE","34.01659","-118.30888","Los Angeles","6037231300","LOS ANGELES","306195048"
"COMPREHENSIVE COMMUNITY HEALTH CTR. INC-EAGLE ROCK","1704 COLORADO BLVD","34.1391141","-118.2038707","Los Angeles","6037181400","LOS ANGELES","306196528"
"MISSION CITY COMMUNITY NETWORK, INC. - SEPULVEDA","8527 SEPULVEDA BLVD.","34.22557","-118.46773","Los Angeles","6037117408","NORTH HILLS","306198400"
"COMPREHENSIVE COMMUNITY HEALTH CTR., INC-N HOLLYWOOD","12157 VICTORY BLVD","34.187018","-118.3985591","Los Angeles","6037123901","NORTH HOLLYWOOD","306196530"
"ST. ANTHONY MEDICAL CENTER/IMPERIAL CLINIC","837 W IMPERIAL HWY","33.93101","-118.2905","Los Angeles","6037241202","LOS ANGELES","306196164"
"FAMILY HEALTH CENTER","1760-70 N ORANGE GROVE AVE., STE. 101","34.07588","-117.74928","Los Angeles","6037402102","POMONA","306196123"
"ST. ANTHONY MEDICAL CENTER/ PICO CLINIC","2515 W PICO BLVD","34.0473","-118.29211","Los Angeles","6037213320","LOS ANGELES","306196166"
"TARZANA TREATMENT CENTERS FAMILY MEDICAL RESEDA CLINIC","7101 BAIRD AVE","34.19946","-118.53738","Los Angeles","6037131020","RESEDA","306197739"
"POMONA COMMUNITY HEALTH CENTER","750 S PARK AVE","34.0527","-117.75431","Los Angeles","6037408800","POMONA","306195000"
"VENICE FAMILY CLINIC - ROBERT LEVINE FAMILY HEALTH.","905 VENICE BLVD","33.99358","-118.454341","Los Angeles","6037273600","VENICE","306194818"
"VENICE FAMILY CLINIC","604 ROSE AVE","33.999","-118.471641","Los Angeles","6037273200","VENICE","306190817"
"NORTHEAST VALLEY HEALTH CORPORATION","1600 SAN FERNANDO RD","34.28877","-118.448461","Los Angeles","6037320300","SAN FERNANDO","306190567"
"EL PROYECTO DEL BARRIO, INC. - WINNETKA CLINIC","20800 SHERMAN WAY","34.20052","-118.586491","Los Angeles","6037134002","WINNETKA","306195042"
"VENICE FAMILY CLINIC SIMMS/MANN HEALTH AND WELLNESS CENTER","2509 PICO BLVD","34.02333","-118.463371","Los Angeles","6037701801","SANTA MONICA","306194819"
"VALLEY COMMUNITY HEALTHCARE","6801 COLDWATER CANYON AVE","34.19446","-118.414761","Los Angeles","6037123420","NORTH HOLLYWOOD","306190564"
"UCLA SCHOOL OF NURSING HEALTH CENTER","545 S SAN PEDRO ST","34.04328","-118.24457","Los Angeles","6037206300","LOS ANGELES","306194016"
"SOUTH CENTRAL FAMILY HEALTH CENTER","4425 S CENTRAL AVE","34.00307","-118.256861","Los Angeles","6037228600","LOS ANGELES","306191356"
"CASTLE FAMILY HEALTH CENTER AT WINTON","6596 N WINTON WAY","37.3835602","-120.6134887","Merced","6047000505","WINTON","306244050"
"FAMILY FIRST HEALTH CARE, A SERVICE OF PLND. PARNT.","6095 N 1ST ST","36.82463","-119.77239","Fresno","6019005405","FRESNO","306105075"
"CASTLE FAMILY HEALTH CENTER AT BLOSS","1251 GROVE AVE","37.3509508","-120.6071754","Merced","6047000701","ATWATER","306244051"
"TIBURCIO VASQUEZ HEALTH CENTER, INC","16110 E 14TH ST","37.69773","-122.11768","Alameda","6001433900","SAN LEANDRO","306014338"
"LIVE OAK MEDICAL CLINIC","9980 LIVE OAK BLVD","39.27578","-121.66118","Sutter","6101050701","LIVE OAK","306514038"
"ROLLAND AND KATHRYN LOWE MEDICAL CENTER","835 WEBSTER ST","37.79952","-122.27122","Alameda","6001403000","OAKLAND","306014327"
"NORTHERN VALLEY INDIAN HEALTH, INC","845 W EAST AVE","39.74774","-121.87641","Butte","6007000402","CHICO","306044148"
"AMPLA HEALTH ORLAND MEDICAL AND DENTAL","1211 CORTINA DR","39.74164","-122.20163","Glenn","6021010100","ORLAND","306112582"
"NATIVE AMERICAN HEALTH CENTER","2950 INTERNATIONAL BLVD","37.77892","-122.2284","Alameda","6001406100","OAKLAND","306014240"
"BREATHMOBILE - MOBILE PRIMARY CARE CLINIC","920 PERALTA ST","37.8081661","-122.2965249","Alameda","6001402200","OAKLAND","306014261"
"UNIVERSITY COMMUNITY HEALTH CENTER","2933 UNIVERSITY AVE","33.9777557","-117.3654523","Riverside","6065030400","RIVERSIDE","306334650"
"MORENO VALLEY FAMILY HEALTH CENTER","22675 ALESSANDRO BLVD","33.916984","-117.267328","Riverside","6065046700","MORENO VALLEY","306334611"
"FORT HELP MISSION","1101 CAPP ST","37.7489008","-122.4170161","San Francisco","6075020900","SAN FRANCISCO","306384223"
"COMMUNITY HEALTH CLINIC OLE","1141 PEAR TREE LN","38.32128","-122.29198","Napa","6055200504","NAPA","306281467"
"DEL NORTE COMMUNITY HEALTH CENTER","550 E WASHINGTON BLVD","41.77275","-124.19857","Del Norte","6015000104","CRESCENT CITY","306084005"
"ST. JOSEPH MOBILE HEALTH CLINIC","1450 MEDICAL CENTER DR","38.3475974","-122.6827477","Sonoma","6097151309","ROHNERT PARK","306494111"
"SONOMA VALLEY COMMUNITY HEALTH CENTER","19270 SONOMA HWY","38.2986","-122.4752","Sonoma","6097150202","SONOMA","306494131"
"COMMUNITY MEDICAL CENTERS - VACAVILLE","600 NUT TREE RD","38.36116","-121.94965","Solano","6095252911","VACAVILLE","306484040"
"BOLINAS FAMILY PRACTICE","88 MESA RD","37.91061","-122.69703","Marin","6041132100","BOLINAS","306214044"
"COMMUNITY HEALTH CENTERS SANTA MARIA","2801 SANTA MARIA WAY","34.909","-120.43386","Santa Barbara","6083002007","SANTA MARIA","306424010"
"CLINICA DE SALUD DEL VALLE DE SALINAS - CASTROVILLE","10561 MERRITT ST","36.76693","-121.75963","Monterey","6053010400","CASTROVILLE","306274030"
"CLINICA DEL VALLE DEL PAJARO","45 NEILSON ST","36.92827","-121.79253","Santa Cruz","6087110600","WATSONVILLE","306444023"
"SALUD PARA LA GENTE CLINIC","204 E BEACH ST","36.91232","-121.75402","Santa Cruz","6087110300","WATSONVILLE","306441852"
"FREE CLINIC OF SIMI VALLEY","2060 TAPO ST","34.27274","-118.70891","Ventura","6111008201","SIMI VALLEY","306560832"
"CLINICAS DEL CAMINO REAL INC FILLMORE","355 CENTRAL AVE","34.40028","-118.91371","Ventura","6111000302","FILLMORE","306561895"
"DELANO COMMUNITY HEALTH CENTER","1508 GARCES HWY","35.7614","-119.23655","Kern","6029005003","DELANO","306154070"
"CENTRAL BAKERSFIELD COMMUNITY HEALTH CENTER","301 BRUNDAGE LN","35.35387","-119.00505","Kern","6029002000","BAKERSFIELD","306154027"
"OMNI FAMILY HEALTH","277 E FRONT ST","35.3997","-119.46587","Kern","6029003700","BUTTONWILLOW","306150014"
"ALTURA CENTERS FOR HEALTH","1101 N CHERRY ST","36.22335","-119.3375","Tulare","6107002303","TULARE","306544050"
"UNITED HEALTH CENTERS OF THE SAN JOAQUIN VALLEY - EARLIMART","476 E WASHINGTON AVE","35.88431","-119.27165","Tulare","6107004400","EARLIMART","306540003"
"NORTH PARK FAMILY HEALTH CENTER","3544 30TH ST","32.7429422","-117.1303957","San Diego","6073001400","SAN DIEGO","306374160"
"LOGAN HEIGHTS FAMILY HEALTH CENTER","1809 NATIONAL AVE","32.7014037","-117.1467081","San Diego","6073005000","SAN DIEGO","306370813"
"NEIGHBORHOOD HEALTHCARE EL CAJON","855 E MADISON AVE","32.80047","-116.95226","San Diego","6073016301","EL CAJON","306371511"
"NOBLEQUEST HEALTH FOUNDATION CLINIC","14435 HAMLIN ST","34.18869","-118.44771","Los Angeles","6037128102","VAN NUYS","306198492"
"CENTRAL VALLEY INDIAN HEALTH, BULLARD CLINIC","255 W BULLARD AVE","36.82308","-119.71436","Fresno","6019005606","CLOVIS","306105140"
"WEST BERKELEY FAMILY PRACTICE","2031 6TH ST","37.86703","-122.29735","Alameda","6001423200","BERKELEY","306014113"
"WEST OAKLAND HEALTH CENTER","700 ADELINE ST","37.80441","-122.28795","Alameda","6001402500","OAKLAND","306010992"
"BERKELEY PRIMARY CARE ACCESS CLINIC, INC","2001 DWIGHT WAY","37.86379","-122.26895","Alameda","6001422900","BERKELEY","306014044"
"LOGAN HEALTH CENTER","1800 H ST","37.59134","-122.02661","Alameda","6001440308","UNION CITY","306014112"
"BURNEY HEALTH CENTER","37491 ENTERPRISE DR","40.8878404","-121.6525744","Shasta","6089012701","BURNEY","306454063"
"TULELAKE HEALTH CENTER","498 MAIN ST","41.95506","-121.4767","Siskiyou","6093000100","TULELAKE","306472345"
"BIG VALLEY MEDICAL CENTER","554 MEDICAL CENTER DR","41.1213","-121.143","Lassen","6035040100","BIEBER","306182250"
"BUTTE VALLEY HEALTH CENTER","610 W 3RD ST","41.96424","-121.92421","Siskiyou","6093000200","DORRIS","306472258"
"FALL RIVER VALLEY HEALTH CENTER","43563 STATE HWY 299 E","41.02423","-121.42442","Shasta","6089012702","FALL RIVER MILLS","306454044"
"ELM COMMUNITY HEALTH CENTER","2740 S ELM AVE","36.70171","-119.79087","Fresno","6019001000","FRESNO","306104012"
"CAMARENA HEALTH","505 E ALMOND AVE","36.9455454","-120.0509088","Madera","6039000502","MADERA","306204027"
"OCEANSIDE-CARLSBAD COMMUNITY CLINIC","605 CROUCH ST","33.19623","-117.35373","San Diego","6073018509","OCEANSIDE","306374434"
"VISTA COMMUNITY CLINIC - HORNE STREET","517 N HORNE ST","33.20131","-117.37846","San Diego","6073018400","OCEANSIDE","306374295"
"VISTA COMMUNITY CLINIC","4700 N RIVER RD","33.24537","-117.31045","San Diego","6073018609","OCEANSIDE","306374329"
"OPERATION SAMAHAN MIRA MESA OUTREACH CLINIC","10737 CAMINO RUIZ","32.9139","-117.14378","San Diego","6073008357","SAN DIEGO","306371354"
"WHITNEY YOUNG FAMILY HEALTH CLINIC","1755 MAPLE ST","34.11433","-117.32505","San Bernardino","6071004302","SAN BERNARDINO","306364261"
"SAC HEALTH SYSTEMS NORTON","1454 E 2ND ST","34.10357","-117.25643","San Bernardino","6071980100","SAN BERNARDINO","306364196"
"WELL OF HEALING MOBILE MEDICAL CLINIC","7623 EAST AVE","34.1152473","-117.5139302","San Bernardino","6071002037","FONTANA","306364300"
"MONTAGE MEDICAL GROUP","23845 HOLMAN HWY","36.57634","-121.91395","Monterey","6053011900","MONTEREY","306274090"
"GARDNER HEALTH CENTER","195 E VIRGINIA ST","37.32592","-121.87773","Santa Clara","6085501600","SAN JOSE","306430775"
"MISSION NEIGHBORHOOD RESOURCE CENTER","165 CAPP ST","37.7640633","-122.4183111","San Francisco","6075020100","SAN FRANCISCO","306384214"
"EAST NILES COMMUNITY HEALTH CENTER","7800 NILES ST","35.3763","-118.91749","Kern","6029000907","BAKERSFIELD","306154188"
"NORTH OF THE RIVER COMMUNITY HEALTH CENTER","2525 N CHESTER AVE","35.42974","-119.02138","Kern","6029000101","BAKERSFIELD","306154128"
"34TH STREET COMMUNITY HEALTH CENTER","2000 PHYSICIANS BLVD","35.3970568","-119.0086935","Kern","6029000600","BAKERSFIELD","306154167"
"SOUTH BAKERSFIELD COMMUNITY HEALTH CENTER","2400 WIBLE RD","35.33307","-119.03895","Kern","6029002900","BAKERSFIELD","306154113"
"MC FARLAND COMMUNITY HEALTH CENTER","217 W KERN AVE","35.67801","-119.22975","Kern","6029004701","MC FARLAND","306154020"
"LIFELONG MEDICAL CARE - DOWNTOWN OAKLAND CLINIC AND SUPPORTIVE HOUSING P","616 16TH ST","37.807256","-122.274352","Alameda","6001402800","OAKLAND","306014229"
"LIFELONG MEDICAL CARE - EAST OAKLAND","10700 MACARTHUR BLVD","37.74211","-122.15121","Alameda","6001410100","OAKLAND","306014131"
"SOS CHILDREN AND FAMILY HEALTH CENTER","307 PLACENTIA AVE","33.62627","-117.93104","Orange","6059063603","NEWPORT BEACH","306304561"
"CENTRAL CITY COMMUNITY HEALTH CENTER, INC.","12511 BROOKHURST ST","33.78107","-117.95868","Orange","6059088701","GARDEN GROVE","306304489"
"CLINICA MONSENOR OSCAR A. ROMERO","2032 MARENGO ST","34.05669","-118.20764","Los Angeles","6037203300","LOS ANGELES","306196513"
"CLINICA MSR. OSCAR A ROMERO","123 S ALVARADO ST","34.06598","-118.27081","Los Angeles","6037208502","LOS ANGELES","306194031"
"ALTAMED MOBIL MEDICAL CLINIC","5427 WHITTIER BLVD","34.0198609","-118.1531488","Los Angeles","6037531701","LOS ANGELES","306196034"
"ELIZABETH HEALTH CENTER - NECC","2822 E FLORENCE AVE","33.97355","-118.21915","Los Angeles","6037534802","HUNTINGTON PARK","306198343"
"UNITED AMERICAN INDIAN INVOLVEMENT INC.","1125 W 6TH ST","34.0544","-118.26284","Los Angeles","6037209200","LOS ANGELES","306196846"
"EISNER PEDIATRIC AND FAMILY MEDICAL CENTER","1500 S OLIVE ST","34.03567","-118.26498","Los Angeles","6037224010","LOS ANGELES","306190127"
"ALTAMED PACE - HUNTINGTON PARK","1900 E SLAUSON AVE","33.98917","-118.23892","Los Angeles","6037532700","HUNTINGTON PARK","306198383"
"ALTAMED MEDICAL GROUP","9436  SLAUSON AVE","33.96805","-118.09567","Los Angeles","6037502601","PICO RIVERA","306194050"
"BAART LYNWOOD CLINIC","11315  ATLANTIC AVE","33.92274","-118.18692","Los Angeles","6037540102","LYNWOOD","306196828"
"ARROYO VISTA FAMILY HEALTH CENTER - LOMA DRIVE","303  LOMA DR","34.05975","-118.26575","Los Angeles","6037209104","LOS ANGELES","306197052"
"BAART BEVERLY CLINIC","1926 BEVERLY BLVD","34.06586","-118.26859","Los Angeles","6037208401","LOS ANGELES","306196244"
"ORDER OF MALTA  LOS ANGELES CLINIC","2222 OCEAN VIEW AVE","34.06285","-118.27447","Los Angeles","6037208801","LOS ANGELES","306191140"
"ST JOHNS WELL CHILD AND FAMILY CENTER","15715 S ATLANTIC AVE","33.88978","-118.19301","Los Angeles","6037542106","E RANCHO DOMINGUEZ","306197598"
"ST. JOHNS WELL CHILD AND FAMILY CENTER","4085 S VERMONT AVE","34.0093101","-118.2915593","Los Angeles","6037231600","LOS ANGELES","306197820"
"CLARIS HEALTH","11500 W OLYMPIC BLVD","34.0361","-118.44465","Los Angeles","6037267700","LOS ANGELES","306197040"
"QUEENSCARE HEALTH CENTERS","184 BIMINI PL","34.07084","-118.29051","Los Angeles","6037211122","LOS ANGELES","306196662"
"SIERRA HEALTH CENTER","501 S BROOKHURST RD","33.86492","-117.9594","Orange","6059001901","FULLERTON","306300052"
"ALTAMED MEDICAL GROUP-E.L.A./WHITTIER","5427 WHITTIER BLVD","34.01964","-118.15349","Los Angeles","6037531701","LOS ANGELES","306190446"
"TARZANA TREATMENT CENTERS","422 W AVENUE P","34.60167","-118.13642","Los Angeles","6037910201","PALMDALE","306197593"
"ALTAMED MEDICAL GROUP - PICO RIVERA, PASSONS","6336 PASSONS BLVD","33.984898","-118.085623","Los Angeles","6037500800","PICO RIVERA","306197858"
"WEST COUNTY MEDICAL CORPORATION","2272 PACIFIC AVE","33.79844","-118.19364","Los Angeles","6037573100","LONG BEACH","306197609"
"EDISON PACIFIC","437 S PACIFIC AVE","34.140506","-118.2644416","Los Angeles","6037302302","GLENDALE","306196548"
"SAN FRANCISCO AIDS FOUNDATION","470 CASTRO ST","37.76132","-122.43507","San Francisco","6075020500","SAN FRANCISCO","306384234"
"LAMONT COMMUNITY HEALTH CENTER","8787 HALL RD","35.25967","-118.90805","Kern","6029006401","LAMONT","306151071"
"SAN YSIDRO HEALTH CENTER","4004 BEYER BLVD","32.55828","-117.04684","San Diego","6073010005","SAN YSIDRO","306371257"
"OMNI FAMILY HEALTH","1100 4TH ST","35.14987","-119.45307","Kern","6029003500","TAFT","306154042"
"OMNI FAMILY HEALTH","1022 CALLOWAY DR","35.36767","-119.11114","Kern","6029003812","BAKERSFIELD","306154205"
"FAMILY HEALTHCARE NETWORK - SPRINGVILLE","35800 HWY190","36.14351","-118.766","Tulare","6107002700","SPRINGVILLE","306544058"
"FAMILY HEALTH CENTER","1611 1ST ST","35.35506","-119.02047","Kern","6029001902","BAKERSFIELD","306151765"
"ALTURA CENTERS FOR HEALTH","737 W BARDSLEY AVE","36.19643","-119.35747","Tulare","6107003001","TULARE","306544080"
"SUTTER NORTH BROWNSVILLE FAMILY PRACTICE CENTER","16911 WILLOW GLEN RD","39.4470185","-121.2815589","Yuba","6115041100","BROWNSVILLE","306584004"
"AMPLA HEALTH LOS MOLINOS MEDICAL","7981 STATE HWY 99E","40.02747","-122.09992","Tehama","6103000900","LOS MOLINOS","306524016"
"NORTHERN VALLEY INDIAN HEALTH, INC.","207 N BUTTE ST","39.52209","-122.19539","Glenn","6021010400","WILLOWS","306114003"
"OMNI FAMILY HEALTH","655 S CENTRAL VALLEY HWY","35.49434","-119.26358","Kern","6029004102","SHAFTER","306154114"
"ARVIN COMMUNITY HEALTH CENTER","1305 BEAR MOUNTAIN BLVD","35.20895","-118.8393","Kern","6029006303","ARVIN","306154136"
"BAKERSFIELD MEDICAL AND MENTAL HEALTH SERVICES","1010 1/2 S UNION AVE","35.34381","-119.00291","Kern","6029002500","BAKERSFIELD","306154111"
"FAMILY HEALTHCARE NETWORK","201 E LAKEVIEW AVE","36.41734","-119.09754","Tulare","6107000702","WOODLAKE","306544089"
"EAST OAKLAND HEALTH CENTER","7450 INTERNATIONAL BLVD","37.7586","-122.18576","Alameda","6001408900","OAKLAND","306010802"
"TIBURCIO VASQUEZ HEALTH CENTER","22331 MISSION BLVD","37.67452","-122.08685","Alameda","6001435400","HAYWARD","306014194"
"SHASTA LAKE CITY FAMILY HEALTH CENTER","4215 FRONT ST","40.6811","-122.37041","Shasta","6089011703","SHASTA LAKE","306454041"
"WELLSPACE HEALTH NORTH HIGHLANDS COMMUNITY HEALTH CENTER","6015 WATT AVE","38.6765","-121.38291","Sacramento","6067007403","NORTH HIGHLANDS","306344177"
"WINTERS HEALTHCARE CLINIC","23 MAIN ST","38.5217876","-121.9696219","Yolo","6113011300","WINTERS","306574017"
"COMMUNITY MEDICAL CENTERS - HAMMER","1721 E HAMMER LN","38.02106","-121.29124","San Joaquin","6077003405","STOCKTON","306394074"
"BERKELEY COMMUNITY HEALTH PROJECT","2339 DURANT AVE","37.8675","-122.26176","Alameda","6001422800","BERKELEY","306012807"
"DOCTORS OFFICE/FAIR OAKS COMMUNITY HEALTH CENTERS","1057 E GRAND AVE","35.1187056","-120.5953861","San Luis Obispo","6079011902","ARROYO GRANDE","306404034"
"OJAI VALLEY COMMUNITY HEALTH CENTER","1200 MARICOPA HWY","34.44207","-119.26317","Ventura","6111000901","OJAI","306564045"
"CLINICAS DEL CAMINO REAL, INC., OXNARD","650 META ST","34.19535","-119.17595","Ventura","6111009100","OXNARD","306561169"
"ANGELES COMMUNITY HEALTH CENTER - HUNTINGTON PARK","6208 SEVILLE AVE","33.98395","-118.22261","Los Angeles","6037532605","HUNTINGTON PARK","306198295"
"ANTELOPE VALLEY COMMUNITY CLINIC PALMDALE EAST","37926 47TH ST E","34.57118","-118.04499","Los Angeles","6037910713","PALMDALE","306198382"
"VIA CARE 607","607 S. ATLANTIC BLVD.","34.02478","-118.15603","Los Angeles","6037531701","LOS ANGELES","306198494"
"INLAND FAMILY COMMUNITY HEALTH CENTER","665 N D ST","34.11154","-117.29187","San Bernardino","6071005701","SAN BERNARDINO","306364366"
"CASTLE FAMILY HEALTH CENTER AT CASTLE","3605 HOSPITAL RD","37.3666709","-120.5767154","Merced","6047000503","ATWATER","306244049"
"CENTRAL VALLEY INDIAN HEALTH, INC.","2740 HERNDON AVE","36.83738","-119.66104","Fresno","6019005907","CLOVIS","306105101"
"UNITED HEALTH CTRS OF SAN JOAQUIN VALLEY","16928 11 TH ST","36.20533","-120.10272","Fresno","6019007802","HURON","306101872"
"UNITED HEALTH CENTERS OF THE SAN JOAQUIN VALLEY","121 BARBOZA ST","36.76658","-120.384","Fresno","6019008301","MENDOTA","306104041"
"UNITED HEALTH CENTERS OF THE SAN JOAQUIN VALLEY","2502 JENSEN AVE","36.70682","-119.57214","Fresno","6019006000","SANGER","306105022"
"UNITED HEALTH CTRS OF SAN JOAQUIN VALLEY - PARLIER","650 S ZEDIKER AVE","36.60494","-119.52103","Fresno","6019006802","PARLIER","306101191"
"GARLAND COMMUNITY HEALTH CENTER","3727 N 1ST ST","36.78519","-119.77272","Fresno","6019005100","FRESNO","306105065"
"EASTON COMMUNITY HEALTH CENTER","5784 S ELM AVE","36.65135","-119.79079","Fresno","6019001800","FRESNO","306105015"
"REGIONAL MEDICAL COMMUNITY HEALTH CENTER","2505 E DIVISADERO ST","36.74335","-119.78062","Fresno","6019000502","FRESNO","306105040"
"ORANGE AND BUTLER COMMUNITY HEALTH CENTER","1350 S ORANGE AVE","36.72907","-119.76368","Fresno","6019000400","FRESNO","306100019"
"UNITED HEALTH CTRS OF SAN JOAQUIN VALLEY","445 11TH ST","36.62739","-119.3191","Fresno","6019006502","ORANGE COVE","306100771"
"MENDOCINO COAST CLINICS, INC.","205 SOUTH ST","39.43026","-123.80384","Mendocino","6045010500","FORT BRAGG","306234003"
"REDWOOD COAST MEDICAL SERVICES INC","46900 OCEAN DR","38.76931","-123.53119","Mendocino","6045011102","GUALALA","306231022"
"COMMUNITY MEDICAL CENTERS - DIXON","131 W A ST","38.44553","-121.82323","Solano","6095253402","DIXON","306482335"
"ALLIANCE MEDICAL CENTER","1381 UNIVERSITY ST","38.6277183","-122.8637813","Sonoma","6097153902","HEALDSBURG","306491404"
"POINT REYES MEDICAL CLINIC","3 6TH ST","38.06928","-122.80862","Marin","6041133000","POINT REYES","306214009"
"REDWOODS RURAL HEALTH CENTER, INC","101 WEST COAST RD","40.11687","-123.81342","Humboldt","6023011500","REDWAY","306121917"
"SACRAMENTO COMMUNITY CLINIC - DEL PASO","2200 DEL PASO BLVD","38.61013","-121.45066","Sacramento","6067006900","SACRAMENTO","306344147"
"COACHELLA HEALTH CLINIC","49111 STATE HWY 111","33.69198","-116.18458","Riverside","6065940400","COACHELLA","306334608"
"ALTAMED MEDICAL GROUP, BELL","6901 ATLANTIC AVE","33.97308","-118.18782","Los Angeles","6037533603","BELL","306196523"
"ARROYO VISTA FAMILY HEALTH CENTER","4815 VALLEY BLVD","34.066249","-118.1798873","Los Angeles","6037201601","LOS ANGELES","306196231"
"INGLEWOOD MEDICAL AND MENTAL HEALTH SERVICES","4450 W CENTURY BLVD","33.94541","-118.354","Los Angeles","6037601801","INGLEWOOD","306191169"
"KOREAN  COMMUNITY SERVICES","7212 ORANGETHORPE AVE","33.85891","-118.00725","Orange","6059110500","BUENA PARK","306304483"
"CENTRAL CITY COMMUNITY HEALTH CLINIC","12116 BEACH BLVD","33.7861821","-117.9927744","Orange","6059088104","STANTON","306304383"
"LIVINGSTONE COMMUNITY HEALTH CLINIC","12362 BEACH BLVD","33.7827018","-117.9927384","Orange","6059088104","STANTON","306304516"
"WESTERN SIERRA MEDICAL CLINIC","209 NEVADA ST","39.55922","-120.82953","Sierra","6091010000","DOWNIEVILLE","306461280"
"COMMUNITY HEALTH CENTERS MOBILE MEDICAL VAN NO.4","2050 S. BLOSSER RD","34.9243","-120.45382","Santa Barbara","6083002402","SANTA MARIA","306424116"
"AXIS COMMUNITY HEALTH","3311 PACIFIC AVE","37.6761","-121.75598","Alameda","6001451501","LIVERMORE","306013649"
"WILLIAM BYRON RUMFORD MEDICAL CLINIC","2960 SACRAMENTO ST","37.85386","-122.27925","Alameda","6001423400","BERKELEY","306014018"
"COMMUNITY HEALTH CENTERS DEL MAR","2120 CIENAGA ST","35.09812","-120.60884","San Luis Obispo","6079012200","OCEANO","306404103"
"FAMILY MEDICINE CENTER","1400 E CHURCH ST","34.9520362","-120.4132187","Santa Barbara","6083002211","SANTA MARIA","306424088"
"AMERICAN INDIAN HEALTH AND SERVICES","4141 STATE ST","34.44047","-119.76126","Santa Barbara","6083000102","SANTA BARBARA","306424040"
"ISLA VISTA NEIGHBORHOOD CLINIC","970 EMBARCADERO DEL MAR","34.41168","-119.85701","Santa Barbara","6083002924","GOLETA","306420845"
"WESTSIDE NEIGHBORHOOD CLINIC","628 W MICHELTORENA ST","34.4191","-119.71586","Santa Barbara","6083001101","SANTA BARBARA","306420850"
"EASTSIDE NEIGHBORHOOD CLINIC","915 N MILPAS ST","34.43036","-119.69091","Santa Barbara","6083000600","SANTA BARBARA","306421172"
"SANTA CLARITA HEALTH CENTER","18533 SOLEDAD CANYON RD","34.41648","-118.45684","Los Angeles","6037920035","CANYON COUNTRY","306196865"
"KHEIR HEALTH SERVICE CENTER","3727 W 6TH ST","34.06359","-118.30369","Los Angeles","6037211802","LOS ANGELES","306196729"
"WEST COUNTY MEDICAL CORPORATION","100 E MARKET ST","33.85427","-118.19357","Los Angeles","6037571703","LONG BEACH","306195036"
"ASIAN PACIFIC HEALTH CARE VENTURE, INC - LOS FELIZ HEALTHCARE CENTER","1530 HILLHURST AVE","34.09942","-118.28737","Los Angeles","6037195300","LOS ANGELES","306194983"
"LAWNDALE MEDICAL AND MENTAL HEALTH SERVICES","14611 HAWTHORNE BLVD","33.89882","-118.35278","Los Angeles","6037603900","LAWNDALE","306197969"
"CENTER FOR FAMILY HEALTH AND EDUCATION","8727 VAN NUYS BLVD","34.22833","-118.45022","Los Angeles","6037120103","PANORAMA CITY","306197742"
"ARROYO VISTA FAMILY HEALTH CENTER-LINCOLN HEIGHTS","2411 N BROADWAY","34.07366","-118.21638","Los Angeles","6037199000","LOS ANGELES","306196696"
"HAWAIIAN GARDENS MEDICAL AND MENTAL HEALTH SERVICES","21619 NORWALK BLVD","33.83297","-118.07207","Los Angeles","6037555102","HAWAIIAN GARDENS","306197970"
"NORTHEAST COMMUNITY CLINIC - GRAND","1400 S GRAND AVE","34.03702","-118.26545","Los Angeles","6037224010","LOS ANGELES","306197350"
"NORTH ORANGE COUNTY REGIONAL HEALTH FOUNDATION","901 W ORANGETHORPE AVE","33.8599176","-117.9398493","Orange","6059011102","FULLERTON","306304356"
"SAN FERNANDO HIGH SCHOOL TEEN HEALTH CENTER","11051 OMELVENY AVE","34.27104","-118.44063","Los Angeles","6037109500","SAN FERNANDO","306198057"
"LAWNDALE MEDICAL AND MENTAL HEALTH SERVICES","4023 MARINE AVE","33.89475","-118.34444","Los Angeles","6037603801","LAWNDALE","306194784"
"VENICE FAMILY CLINIC - COLEN FAMILY HEALTH CENTER","4700 INGLEWOOD BLVD","33.9937097","-118.4146373","Los Angeles","6037275500","CULVER CITY","306196757"
"JWCH INSTITUTE, INC, MEDICAL CLINIC/WEINGART CENTER","522 S SAN PEDRO ST","34.0435591","-118.2442608","Los Angeles","6037206300","LOS ANGELES","306197450"
"NORTHEAST VALLEY HEALTH CORP. - HOMELESS DIVISION","7843 LANKERSHIM BLVD","34.2134","-118.38781","Los Angeles","6037121802","NORTH HOLLYWOOD","306194641"
"FHCCGLA DOWNEY FAMILY MEDICAL CENTER","12113-A WOODRUFF AVE","33.9239942","-118.1167729","Los Angeles","6037551101","DOWNEY","306197744"
"COMPREHENSIVE COMMUNITY HEALTH CENTERS, INC","801 S CHEVY CHASE DR","34.1367071","-118.2403881","Los Angeles","6037302102","GLENDALE","306196855"
"SANTA CLARITA MEDICAL AND MENTAL HEALTH SERVICES","24625 ARCH ST","34.38461","-118.52894","Los Angeles","6037920332","NEWHALL","306194836"
"BUDDIST TZU CHI FREE CLINIC","1000 S GARFIELD AVE","34.08455","-118.12304","Los Angeles","6037481603","ALHAMBRA","306194481"
"CHAP - DEL MAR","3160 E DEL MAR BLVD","34.14217","-118.08553","Los Angeles","6037463200","PASADENA","306197163"
"SAMUEL DIXON FAMILY HEALTH CENTER CYN CNTRY CLINIC","27225 CAMP PLENTY RD","34.41652","-118.47596","Los Angeles","6037920036","CANYON COUNTRY","306196160"
"EAST VALLEY COMMUNITY HEALTH CENTER INC.","1555 S GAREY AVE","34.04311","-117.74971","Los Angeles","6037403000","POMONA","306197914"
"EAST VALLEY COMMUNITY HEALTH CENTER","420 S GLENDORA AVE","34.06751","-117.92519","Los Angeles","6037406500","WEST COVINA","306191053"
"NEWHALL HEALTH CENTER","23772 NEWHALL AVE","34.37156","-118.51596","Los Angeles","6037920337","NEWHALL","306197331"
"WILMINGTON COMMUNITY CLINIC","1009 N AVALON BLVD","33.78321","-118.26273","Los Angeles","6037294520","WILMINGTON","306191038"
"EAST VALLEY COMMUNITY HEALTH CENTER, INC. - VILLACORTA SCHOOL CLINIC","17840 VILLA CORTA ST","34.0180184","-117.9115566","Los Angeles","6037408138","LA PUENTE","306197723"
"COMPLETE CARE COMMUNITY HEALTH CENTER","2928 E CESAR E CHAVEZ AVE","34.04365","-118.20068","Los Angeles","6037204200","LOS ANGELES","306197050"
"MISSION CITY COMMUNITY NETWORK, INC. - LA PUENTE","1025 N WILLOW AVE","34.05425","-117.97056","Los Angeles","6037406901","LA PUENTE","306198134"
"ALTAMED MEDICAL AND DENTAL GROUP - WEST COVINA","1300 S SUNSET AVE","34.0601066","-117.9474575","Los Angeles","6037406800","WEST COVINA","306197629"
"NORTHEAST COMMUNITY CLINIC - HAWTHORNE","4455 W 117TH ST","33.9284057","-118.3539227","Los Angeles","6037602103","HAWTHORNE","306197630"
"BAART COMMUNITY HEALTHCARE-ZONAL CLINIC","1701 ZONAL AVE","34.06219","-118.21066","Los Angeles","6037203300","LOS ANGELES","306194670"
"LK HEALTH","901 W WHITTIER BLVD","34.01044","-118.11001","Los Angeles","6037532101","MONTEBELLO","306197967"
"EL PROYECTO DEL BARRIO, INC., ESPERANZA CLINIC","9140 VAN NUYS BLVD","34.2366077","-118.4498792","Los Angeles","6037119341","PANORAMA CITY","306198123"
"KEDREN COMMUNITY CARE CLINIC","4211 AVALON BLVD","34.00728","-118.26531","Los Angeles","6037228320","LOS ANGELES","306197865"
"ALTAMED MEDICAL GROUP AT HOLLYWOOD PRESBYTERIAN MED. CTR.","1300 N VERMONT AVE","34.096032","-118.2910096","Los Angeles","6037191302","LOS ANGELES","306197736"
"LESTONNAC FREE CLINIC","1215 E CHAPMAN AVE","33.78787","-117.84039","Orange","6059075805","ORANGE","306300230"
"SOUTH BAY FAMILY HEALTH CARE CENTER","742 W GARDENA BLVD","33.88165","-118.28859","Los Angeles","6037291220","GARDENA","306191020"
"CLINICA DE SALUD DEL VALLE DE SALINAS - GREENFIELD","808 OAK AVE","36.32126","-121.24274","Monterey","6053011203","GREENFIELD","306274015"
"COMPRECARE HEALTH CENTER","3030 ALUM ROCK AVE","37.36524","-121.82905","Santa Clara","6085504001","SAN JOSE","306431874"
"UNITED INDIAN HEALTH SERVICES, INC.","1600 WEEOT WAY","40.89669","-124.0896","Humboldt","6023001101","ARCATA","306124024"
"MENDOCINO COAST CLINICS, INC.","855 SEQUOIA CIR","39.43009","-123.80238","Mendocino","6045010500","FORT BRAGG","306234029"
"CAMARENA HEALTH","49169 ROAD 426","37.330157","-119.6505392","Madera","6039000104","OAKHURST","306204031"
"TACHI MEDICAL CENTER","16835 ALKALI DR","36.23732","-119.76089","Kings","6031001601","LEMOORE","306164020"
"CAMARENA HEALTH","401 TRINITY AVE","37.1206","-120.26094","Madera","6039000300","CHOWCHILLA","306204022"
"LIVINGSTON COMMUNITY HEALTH","1140 MAIN ST","37.37984","-120.72345","Merced","6047000304","LIVINGSTON","306240921"
"CAMERENA HEALTH","344 E 6TH ST","36.96284","-120.0557","Madera","6039000800","MADERA","306200062"
"ANZA COMMUNITY HEALTH CENTER","58581 US HWY 371","33.55723","-116.63925","Riverside","6065044403","ANZA","306334691"
"CENTRO MEDICO COMMUNITY CLINIC","1307 W 6TH ST","33.8786477","-117.5894676","Riverside","6065041703","CORONA","306334508"
"MEDICAL CLINIC AT ELLA","1304 ELLA ST","35.27709","-120.64961","San Luis Obispo","6079011002","SAN LUIS OBISPO","306404096"
"NORTH EAST MEDICAL SERVICES","1520 STOCKTON ST","37.7999","-122.40903","San Francisco","6075010600","SAN FRANCISCO","306382711"
"HEALTHRIGHT 360","558 CLAYTON ST","37.76992","-122.44857","San Francisco","6075016600","SAN FRANCISCO","306380827"
"NORTH EAST MEDICAL SERVICES - TARAVAL STREET","2308 TARAVAL ST","37.7425839","-122.491152","San Francisco","6075032901","SAN FRANCISCO","306384178"
"NORTH EAST MEDICAL SERVICES - 1400 NORIEGA","1400 NORIEGA ST","37.7544174","-122.4787913","San Francisco","6075032802","SAN FRANCISCO","306384227"
"SONOMA COUNTY INDIAN HEALTH PROJECT, INC","144 STONY POINT RD","38.4404873","-122.7436514","Sonoma","6097153002","SANTA ROSA","306491021"
"PERINATAL SERVICES OF NORTHCOUNTRY CLINIC","3800 JANES RD","40.89672","-124.093","Humboldt","6023001101","ARCATA","306124036"
"JEWISH COMMUNITY FREE CLINIC","50 MONTGOMERY DR","38.44284","-122.70309","Sonoma","6097152000","SANTA ROSA","306494129"
"THE CENTER FOR LIFE CHOICES","425 S ORCHARD AVE","39.14835","-123.19887","Mendocino","6045011500","UKIAH","306234036"
"SECOND MOBILE UNIT","3696 JACOBS AVE","40.80447","-124.12637","Humboldt","6023000800","EUREKA","306124032"
"LA MAESTRA COMMUNITY HEALTH CENTERS - EL CAJON","165 S 1ST ST","32.79399","-116.94456","San Diego","6073015704","EL CAJON","306374341"
"BRAWLEY OPEN ACCESS HEALTH CENTER","283 MAIN ST.","32.97866","-115.53765","Imperial","6025010500","BRAWLEY","306134035"
"ALLIANCE HEALTH CLINIC, INC.","5952 EL CAJON BLVD","32.76026","-117.06941","San Diego","6073002804","SAN DIEGO","306374401"
"GROSSMONT SPRING VALLEY FAMILY HEALTH CENTER","8788 JAMACHA RD","32.71483","-117.00966","San Diego","6073013906","SPRING VALLEY","306374260"
"MID-CITY COMMUNITY CLINIC","4290 POLK AVE","32.75143","-117.10232","San Diego","6073002202","SAN DIEGO","306370936"
"COMPREHENSIVE HEALTH CENTER - EUCLID","286 EUCLID AVE","32.70779","-117.08508","San Diego","6073003304","SAN DIEGO","306374261"
"ELM STREET FAMILY HEALTH CENTER","140 ELM ST","32.7241","-117.16318","San Diego","6073005700","SAN DIEGO","306374495"
"25TH STREET FAMILY MEDICINE","316 25TH ST","32.7086808","-117.1405531","San Diego","6073004800","SAN DIEGO","306374402"
"NORTH COUNTY HEALTH SERVICES RAMONA","217 EARLHAM ST","33.05113","-116.85454","San Diego","6073020809","RAMONA","306371400"
"NEIGHBORHOOD HEALTHCARE  - PAUMA VALLEY","16650 HIGHWAY 76","33.2935","-116.96919","San Diego","6073019101","PAUMA VALLEY","306374263"
"BORREGO MEDICAL CLINIC","4343 YAQUI PASS RD","33.18074","-116.33241","San Diego","6073021000","BORREGO SPRINGS","306374281"
"BEACH AREA FAMILY HEALTH CENTER","3705 MISSION BLVD","32.78268","-117.25247","San Diego","6073007600","SAN DIEGO","306370847"
"LINDA VISTA HEALTH CARE CENTER","6973 LINDA VISTA RD","32.78721","-117.16982","San Diego","6073008800","SAN DIEGO","306370738"
"MARIAN COMMUNITY CLINICS SANTA MARIA","117 W  BUNNY AVE","34.96327","-120.43679","Santa Barbara","6083002303","SANTA MARIA","306424030"
"MEDICAL CLINIC AT CASA","100 CASA ST","35.29275","-120.66479","San Luis Obispo","6079010902","SAN LUIS OBISPO","306404092"
"SLO ONCOLOGY AND HEMATOLOGY HEALTH CENTER","715 TANK FARM RD","35.24824","-120.64324","San Luis Obispo","6079011503","SAN LUIS OBISPO","306404090"
"CHINESE HOSPITAL DALY CITY HEALTH SERVICES","93 SKYLINE PLAZA","37.682973","-122.48813","San Mateo","6081601501","DALY CITY","306414107"
"SAN JOSE HIGH NEIGHBORHOOD CLINIC","1149 E JULIAN ST","37.35082","-121.87159","Santa Clara","6085501401","SAN JOSE","306434156"
"MONTAGE MEDICAL GROUP","275 THE CROSSROADS","36.53683","-121.908824","Monterey","6053011604","CARMEL","306274077"
"INDIAN HEALTH CENTER OF SANTA CLARA VALLEY","1642 E CAPITOL EXPY","37.30612","-121.81192","Santa Clara","6085503337","SAN JOSE","306434227"
"HOPE PROJECT","39500 LIBERTY ST","37.549","-121.977041","Alameda","6001441927","FREMONT","306014227"
"KINGSBURG COMMUNITY HEALTH CENTER","1250 SMITH ST","36.51289","-119.54886","Fresno","6019007201","KINGSBURG","306105132"
"COALINGA VALLEY HEALTH CLINICS, INC. - HURON","36617 CENTRAL AVE","36.2015363","-120.1022961","Fresno","6019007801","HURON","306105012"
"GOLDEN VALLEY HEALTH CENTER","200 C ST","37.4670106","-121.1256525","Stanislaus","6099003202","PATTERSON","306502212"
"GOLDEN VALLEY HEALTH CENTER - 6TH ST MODESTO","1114 6TH ST","37.63905","-121.00575","Stanislaus","6099001700","MODESTO","306502214"
"PLACERVILLE HEALTH AND WELLNESS CENTER","4641 MISSOURI FLAT RD","38.696061","-120.823665","El Dorado","6017031502","PLACERVILLE","306094026"
"OMNI FAMILY HEALTH","3409 CALLOWAY DR","35.3918","-119.11006","Kern","6029003807","BAKERSFIELD","306154146"
"OMNI FAMILY HEALTH","1014 CALLOWAY DR","35.3653","-119.11415","Kern","6029003812","BAKERSFIELD","306154161"
"OMNI FAMILY HEALTH","525 ROBERTS LN","35.4086","-119.03126","Kern","6029000400","BAKERSFIELD","306154126"
"OMNI FAMILY HEALTH","4151 MEXICALI DR","35.3172","-119.08165","Kern","6029003123","BAKERSFIELD","306154191"
"AMPLA HEALTH RICHLAND MEDICAL","334 SAMUEL DR","39.12312","-121.6088","Sutter","6101050302","YUBA CITY","306514007"
"CHAPA-DE INDIAN HEALTH PROGRAM, INC.","1350 E MAIN ST","39.23174","-121.04641","Nevada","6057000501","GRASS VALLEY","306294021"
"AMPLA HEALTH ARBUCKLE MEDICAL AND DENTAL","89 PUTNAM WAY","39.02029","-122.061249","Colusa","6011000100","ARBUCKLE","306064005"
"MCCLOUD HEALTHCARE CLINIC, INC.","116 W MINNESOTA AVE","41.2522457","-122.1364186","Siskiyou","6093001200","MCCLOUD","306474014"
"AMPLA HEALTH COLUSA MEDICAL AND DENTAL","555 FREMONT ST","39.20789","-122.01115","Colusa","6011000500","COLUSA","306064002"
"NORTH COUNTY HEALTH SERVICES - LA MISION","3220 MISSION AVE","33.21379","-117.34774","San Diego","6073018603","OCEANSIDE","306374449"
"KERMAN HEALTH CENTER","449 S MADERA AVE","36.72858","-120.0603","Fresno","6019004001","KERMAN","306105068"
"GOLDEN VALLEY HEALTH CENTER - MERCED","847 W CHILDS AVE","37.28823","-120.49794","Merced","6047001503","MERCED","306240945"
"SAN JOAQUIN HEALTH CENTER","21890 COLORADO AVE","36.605463","-120.184312","Fresno","6019008200","SAN JOAQUIN","306100021"
"GOLDEN VALLEY HEALTH CENTER - PLANADA","9235 E BROADWAY ST","37.29052","-120.32013","Merced","6047001901","PLANADA","306242217"
"GOLDEN VALLEY HEALTH CENTER","1510 FLORIDA AVE","37.66605","-120.99622","Stanislaus","6099001300","MODESTO","306504026"
"GOLDEN VALLEY HEALTH CENTER","401 LESHER DR","37.2943384","-120.503025","Merced","6047001503","MERCED","306244036"
"GOLDEN VALLEY HEALTH CENTER - GUSTINE-NEWMAN","637 MERCED ST","37.3148","-121.01626","Stanislaus","6099003500","NEWMAN","306244045"
"GOLDEN VALLEY HEALTH CENTERS","1717 LAS VEGAS ST","37.60528","-121.00275","Stanislaus","6099002402","MODESTO","306504020"
"GOLDEN VALLEY HEALTH CENTER","2760 3RD ST","37.59218","-120.9545","Stanislaus","6099002602","CERES","306504061"
"COMMUNITY HEALTH CENTERS - OCEANO","1981 CIENEGA ST","35.0986056","-120.6099215","San Luis Obispo","6079012200","OCEANO","306404055"
"ST. VINCENT DE PAUL VILLAGE FAMILY HEALTH CENTER","1501 IMPERIAL AVE","32.7057571","-117.1498896","San Diego","6073005100","SAN DIEGO","306374018"
"NORTH COUNTY HEALTH SERVICES SAN MARCOS","150 VALPREDA RD","33.1406","-117.15608","San Diego","6073020023","SAN MARCOS","306371576"
"GOLDEN VALLEY HEALTH CENTERS","1141 N OLIVE AVE","37.50399","-120.83985","Stanislaus","6099003906","TURLOCK","306504060"
"FAMILY HEALTHCARE NETWORK","329 W 8TH ST","36.32702","-119.6501","Kings","6031000900","HANFORD","306164028"
"GOLDEN VALLEY HEALTH CENTER - RIVERBANK","4150 PATTERSON RD","37.73262","-120.9198529","Stanislaus","6099000402","RIVERBANK","306504073"
"GOLDEN VALLEY HEALTH CENTER","1920 MEMORIAL DRIVE","37.60017","-120.96103","Stanislaus","6099002604","CERES","306504083"
"COMMUNITY HEALTH CENTERS CAMBRIA","2515 MAIN ST","35.56553","-121.08013","San Luis Obispo","6079010404","CAMBRIA","306404056"
"CHINO HILLS PRIMARY CARE CENTER","2140 GRAND AVE","33.99657","-117.75761","San Bernardino","6071000104","CHINO HILLS","306364248"
"UNICARE COMMUNITY HEALTH CENTER, INC.","437 N EUCLID AVE","34.06804","-117.65125","San Bernardino","6071001400","ONTARIO","306364530"
"UNICARE COMMUNITY HEALTH CENTER, INC.","570 S MOUNT VERNON AVE","34.09058","-117.31386","San Bernardino","6071012400","SAN BERNARDINO","306364542"
"MOUNTAIN EMPIRE FAMILY MEDICINE","31115 HIGHWAY 94","32.608722","-116.474071","San Diego","6073021100","CAMPO","306371163"
"SHERMAN HEIGHTS FAMILY HEALTH CENTER","2391 ISLAND AVE","32.71047","-117.14259","San Diego","6073004700","SAN DIEGO","306374398"
"SOUTH BAY FAMILY HEALTH AND DENTAL CENTER","330-340 E 8TH STREET","32.67693","-117.1029","San Diego","6073011700","NATIONAL CITY","306374565"
"LONG VALLEY HEALTH CENTER","50 BRANSCOMB RD","39.68782","-123.48416","Mendocino","6045010200","LAYTONVILLE","306231010"
"CONSOLIDATED TRIBAL HEALTH PROJECT, INC.","6991 N STATE ST","39.24321","-123.20697","Mendocino","6045010801","REDWOOD VALLEY","306234010"
"RAVENSWOOD FAMILY HEALTH CENTER","1885 BAY RD","37.47279","-122.13241","San Mateo","6081611800","EAST PALO ALTO","306414146"
"ST. LUKES HEALTH CARE CENTER - ADULT CLINIC","1580 VALENCIA ST","37.74757","-122.42023","San Francisco","6075025300","SAN FRANCISCO","306381339"
"CLINIC BY THE BAY","4877 MISSION ST","37.72041","-122.43803","San Francisco","6075026004","SAN FRANCISCO","306384231"
"NORTH EAST MEDICAL SERVICES - 1870 LUNDY","1870 LUNDY AVE","37.3926","-121.89025","Santa Clara","6085504322","SAN JOSE","306434262"
"THE CHILDRENS CLINIC FAMILY HEALTH CTR IN CENTRAL LONG BEACH","2360 PACIFIC AVE","33.8001","-118.19364","Los Angeles","6037573100","LONG BEACH","306197624"
"THE CHILDRENS CLINIC FAMILY HEALTH CENTER IN BELLFLOWER","17660 LAKEWOOD BLVD","33.8715818","-118.1425744","Los Angeles","6037554302","BELLFLOWER","306197625"
"EL CENTRO HEALTH CLINIC","651 WAKE AVE","32.77067","-115.55814","Imperial","6025011803","EL CENTRO","306134024"
"PETALUMA HEALTH CENTER","1179 N MCDOWELL BLVD","38.26838","-122.65943","Sonoma","6097150607","PETALUMA","306494066"
"MARIN COMMUNITY CLINIC","5 BON AIR RD","37.94391","-122.53955","Marin","6041120000","LARKSPUR","306214061"
"LA CLINICA OAKLEY","2021 MAIN ST","38.0040564","-121.7329198","Contra Costa","6013302005","OAKLEY","306074160"
"ASHLAND FREE MEDICAL CLINIC","50 E LEWELLING BLVD","37.68672","-122.12083","Alameda","6001433700","SAN LORENZO","306014200"
"LA CLINICA MONUMENT","2000 SIERRA RD","37.9526152","-122.0367198","Contra Costa","6013337200","CONCORD","306074159"
"SAN LORENZO HIGH HEALTH CENTER","50 E LEWELLING BLVD","37.6885922","-122.1229557","Alameda","6001433700","SAN LORENZO","306014262"
"TECHNICLINIC","4351 BROADWAY","37.831642","-122.254379","Alameda","6001401200","OAKLAND","306014210"
"TIBURCIO VASQUEZ HEALTH CENTER, INC. - SILVA CAMPUS","680 W TENNYSON RD","37.6314711","-122.0685786","Alameda","6001438203","HAYWARD","306014312"
"TUOLUMNE ME-WUK INDIAN HEALTH CENTER","18880 CHERRY VALLEY BLVD","37.96341","-120.24041","Tuolumne","6109003200","TUOLUMNE","306554016"
"LODI MEMORIAL COMMUNITY CLINIC - TRINITY","10200 TRINITY PKWY","38.04769","-121.37244","San Joaquin","6077004002","STOCKTON","306394091"
"PEACH TREE - YUBA CITY/COLUSA","1275 THARP RD","39.14584","-121.64842","Sutter","6101050603","YUBA CITY","306514050"
"OMNI FAMILY HEALTH","320 JAMES ST","35.50326","-119.27717","Kern","6029004101","SHAFTER","306154100"
"SAMARITAN HOUSE FREE CLINIC","19 W 39TH AVE","37.53258","-122.29335","San Mateo","6081607200","SAN MATEO","306414089"
"AHF HEALTHCARE CENTER - UPLAND","8263 GROVE AVE","34.10424","-117.62851","San Bernardino","6071002101","RANCHO CUCAMONGA","306364298"
"LOS ANGELES CHRISTIAN HEALTH CENTERS","311 WINSTON ST","34.04541","-118.24471","Los Angeles","6037206200","LOS ANGELES","306194839"
"SOUTHERN CALIFORNIA MEDICAL CENTER, INC.","14550 HAYNES ST","34.18968","-118.45064","Los Angeles","6037127806","VAN NUYS","306198289"
"THE CHILDRENS CLINIC FAMILY HEALTH CENTER ROOSEVELT","1574 LINDEN AVE","33.78677","-118.18662","Los Angeles","6037575300","LONG BEACH","306198097"
"EISNER PEDIATRIC AND FAMILY MEDICAL CENTER AT LYNWOOD","3680 E IMPERIAL HWY","33.93202","-118.20146","Los Angeles","6037540203","LYNWOOD","306198131"
"BAART LA PUENTE CLINIC","15229 E AMAR RD","34.03783","-117.95262","Los Angeles","6037407601","LA PUENTE","306196246"
"WESLEY HEALTH CENTERS","14371 CLARK AVE","33.90329","-118.1341","Los Angeles","6037554001","BELLFLOWER","306197623"
"MEDICAL MISSION ADVENTURES","11540 BONHAM AVE","34.27991","-118.37709","Los Angeles","6037104124","SYLMAR","306197614"
"CHOC ORANGE CLINIC","455 S MAIN ST","33.78093","-117.86734","Orange","6059076000","ORANGE","306304331"
"CENTRAL NEIGHBORHOOD HEALTH FOUNDATION","2707 S CENTRAL AVE","34.01754","-118.25549","Los Angeles","6037226700","LOS ANGELES","306196981"
"HOLLYWOOD MEDICAL AND MENTAL HEALTH SERVICES","5015 W PICO BLVD","34.04782","-118.34646","Los Angeles","6037217200","LOS ANGELES","306197273"
"SOUTHERN CALIFORNIA MEDICAL CENTER, INC.","8825 WHITTIER BLVD","34.0018","-118.08469","Los Angeles","6037500600","PICO RIVERA","306197431"
"SOUTHERN CALIFORNIA MEDICAL CENTER, INC.","12100 VALLEY BLVD","34.06143","-118.01664","Los Angeles","6037433901","EL MONTE","306197169"
"COMMUNITY HEALTH CENTERS TEMPLETON","325 POSADA LN","35.55271","-120.72136","San Luis Obispo","6079012704","TEMPLETON","306404074"
"COMMUNITY HEALTH CENTERS SANTA MARIA II","1835 N BROADWAY","34.97349","-120.43561","Santa Barbara","6083002305","SANTA MARIA","306424094"
"CASA PACIFICA HEALTH CLINIC","1722 S LEWIS RD","34.18693","-119.03664","Ventura","6111005600","CAMARILLO","306564078"
"SERVE THE PEOPLE COMMUNITY HEALTH CENTER","1206 E 17TH ST","33.75983","-117.85396","Orange","6059075403","SANTA ANA","306304470"
"COMMUNITY HEALTH ALLIANCE OF PASADENA","1855 N FAIR OAKS AVE","34.17753","-118.1508","Los Angeles","6037460900","PASADENA","306195098"
"COMPLETE CARE HEALTH CENTER - SOUTH GATE","5831 FIRESTONE BLVD","33.94913","-118.16374","Los Angeles","6037536102","SOUTH GATE","306196892"
"EL PROYECTO DEL BARRIO, INC.","8902 WOODMAN AVE","34.2315385","-118.4371588","Los Angeles","6037119800","ARLETA","306194229"
"VERMONT COMMUNITY CLINIC","5320 S VERMONT AVE","33.99388","-118.29148","Los Angeles","6037232700","LOS ANGELES","306197863"
"COMPREHENSIVE COMMUNITY HEALTH CTR., INC-HIGHLAND PARK","5059 YORK BLVD","34.12113","-118.2049","Los Angeles","6037183401","LOS ANGELES","306196529"
"ST. JOHNS WELL CHILD AND FAMILY CENTER","1910 MAGNOLIA AVE","34.03963","-118.2864","Los Angeles","6037221602","LOS ANGELES","306197141"
"MISSION HOPE HEALTH CENTER","1325 E CHURCH ST","34.95211","-120.41471","Santa Barbara","6083002211","SANTA MARIA","306424090"
"COMMUNITY MEDICAL CENTERS, GLEASON HOUSE","423 S SAN JOAQUIN ST","37.94882","-121.28603","San Joaquin","6077000100","STOCKTON","306394118"
"CLINICA DE SALUD DEL VALLE DE SALINAS-MHC (HOMES)","440 AIRPORT BLVD","36.66529","-121.61672","Monterey","6053980000","SALINAS","306274199"
"SHINGLETOWN MEDICAL CENTER","31292 ALPINE MEADOWS RD","40.49141","-121.88582","Shasta","6089012603","SHINGLETOWN","306452335"
"GOLDEN VALLEY HEALTH CENTER","1130 6TH ST","37.63942","-121.00619","Stanislaus","6099001700","MODESTO","306504039"
"WEST FRESNO COMMUNITY HEALTH CENTER","302 FRESNO ST","36.72409","-119.80887","Fresno","6019000300","FRESNO","306105035"
"EL DORADO COMMUNITY HEALTH CENTER CAMERON PARK","3104 PONTE MORINO DR","38.66304","-120.96672","El Dorado","6017030803","CAMERON PARK","306094028"
"MAYVIEW COMMUNITY HEALTH CENTER - PA","270 GRANT AVE","37.42697","-122.14159","Santa Clara","6085511500","PALO ALTO","306431857"
"MAYVIEW COMMUNITY HEALTH CENTER - MV","900 MIRAMONTE AVE","37.38721","-122.08832","Santa Clara","6085509801","MOUNTAIN VIEW","306434261"
"NEIGHBORHOOD HEALTHCARE ESCONDIDO","460 N ELM ST","33.12831","-117.07276","San Diego","6073020202","ESCONDIDO","306374093"
"NORTHCOUNTRY CLINIC-ARCATA","785 18TH ST","40.87605","-124.08372","Humboldt","6023001000","ARCATA","306121005"
"IMPERIAL BEACH HEALTH CENTER","949 PALM AVE","32.5838","-117.11343","San Diego","6073010502","IMPERIAL BEACH","306370876"
"CLINICA DE SALUD DEL VALLE DE SALINAS - PAJARO","29 BISHOP ST","36.90152","-121.749521","Monterey","6053010101","ROYAL OAKS","306274087"
"OVERFELT HIGH SCHOOL HEALTH CLINIC","1835 CUNNINGHAM AVE","37.32972","-121.8297","Santa Clara","6085503504","SAN JOSE","306434105"
"FRANKLIN MCKINLEY DISTRICT CLINIC","645 WOOL CREEK DR","37.31392","-121.84941","Santa Clara","6085503122","SAN JOSE","306434155"
"HUMBOLDT OPEN DOOR CLINIC","770 10TH ST","40.8698","-124.08612","Humboldt","6023001000","ARCATA","306120983"
"HEALTHRIGHT 360","117 N SAN MATEO DR","37.5684","-122.328871","San Mateo","6081605900","SAN MATEO","306414147"
"TIBURCIO VASQUEZ HEALTH CENTER, INC.","33255  9TH ST","37.60277","-122.02599","Alameda","6001440200","UNION CITY","306011057"
"NORTH FORK INDIAN AND COMMUNITY HEALTH CENTER","32938 ROAD 222,","37.22622","-119.50992","Madera","6039000102","NORTH FORK","306200054"
"HEMET MEDICAL AND DENTAL CENTER","1023 E. FLORIDA AVENUE","33.74755","-116.96163","Riverside","6065043401","HEMET","306334727"
"BLYTHE HEALTH CLINIC","321 W HOBSONWAY","33.61041","-114.59987","Riverside","6065046102","BLYTHE","306330061"
"RIVERSIDE LIFE SERVICES","3727 McCRAY ST","33.948865","-117.3975276","Riverside","6065031100","RIVERSIDE","306334644"
"SACRAMENTO NATIVE AMERICAN  HEALTH CENTER, INC.","2020 J ST","38.57652","-121.47939","Sacramento","6067001101","SACRAMENTO","306342248"
"OMNI FAMILY HEALTH","1215 JEFFERSON ST","35.7725","-119.24511","Kern","6029005004","DELANO","306154115"
"KERN RIVER HEALTH CENTER","67 EVANS RD","35.70664","-118.4576","Kern","6029005201","WOFFORD HEIGHTS","306150030"
"RAY M DICKINSON WELLNESS CENTER","425 N DATE ST","33.12922","-117.07166","San Diego","6073020202","ESCONDIDO","306374286"
"FAMILY HEALTHCARE NETWORK","9416 ROAD 238","35.96074","-119.03998","Tulare","6107004500","TERRA BELLA","306544095"
"FAMILY HEALTHCARE NETWORK","1008 N CHERRY ST","36.22225","-119.33761","Tulare","6107002303","TULARE","306544104"
"FAMILY HEALTHCARE NETWORK","4177 AVENUE 368","36.45373","-119.48764","Tulare","6107000302","TRAVER","306544102"
"LIVINGWELL MEDICAL CLINIC","105 CATHERINE LN","39.23033","-121.04702","Nevada","6057000501","GRASS VALLEY","306294026"
"ANDERSON FAMILY HEALTH CENTER","2801 SILVER ST","40.44707","-122.29957","Shasta","6089012000","ANDERSON","306454034"
"HAPPY VALLEY FAMILY HEALTH CENTER","16300 CLOVERDALE RD","40.47415","-122.45455","Shasta","6089012302","ANDERSON","306454035"
"SHASTA COMMUNITY HEALTH CENTER HOPE VAN 2 - OUTREACH FOR PEOPLE EVERYWHERE","1035 PLACER ST","40.5830374","-122.3852105","Shasta","6089010100","REDDING","306454066"
"TARZANA TREATMENT CENTERS FAMILY MEDICAL GRANADA HILL CLINIC","10605 BALBOA BLVD","34.26268","-118.50231","Los Angeles","6037111301","GRANADA HILLS","306198006"
"CHINATOWN SERVICE CENTER FAMILY HEALTH CLINIC","767 N HILL ST","34.06253","-118.23973","Los Angeles","6037207102","LOS ANGELES","306191109"
"CHOC CLINIC GARDEN GROVE","10602 CHAPMAN AVE","33.7882919","-117.9480686","Orange","6059088302","GARDEN GROVE","306304363"
"UNITED HEALTH CENTERS OF THE SAN JOAQUIN VALLEY","601 3RD ST","36.61428","-119.5276","Fresno","6019006802","PARLIER","306105133"
"FAMILY HEALTHCARE NETWORK","730 N FARMERSVILLE BLVD","36.30349","-119.20706","Tulare","6107001601","FARMERSVILLE","306544087"
"OMNI FAMILY HEALTH","210 N CHESTER AVE","35.40752","-119.0209","Kern","6029000400","BAKERSFIELD","306154190"
"MARYSVILLE IMMEDIATE CARE","724 5TH ST","39.1398613","-121.594602","Yuba","6115040100","MARYSVILLE","306584010"
"DESERT HOT SPRINGS COMMUNITY HEALTH CENTER","66675 PIERSON BLVD","33.96139","-116.49826","Riverside","6065044510","DESERT HOT SPRINGS","306334692"
"MECCA HEALTH CLINIC","91275 66TH AVE","33.5684003","-116.0743921","Riverside","6065045604","MECCA","306334568"
"MACT MEDICAL CLINIC SAN ANDREAS","1113 HWY 49","38.20821","-120.69723","Calaveras","6009000300","SAN ANDREAS","306054013"
"MARIN COMMUNITY CLINIC - SAN RAFAEL","3110 KERNER BLVD","37.957832","-122.500331","Marin","6041112202","SAN RAFAEL","306214045"
"MARIN CITY HEALTH AND WELLNESS CENTER","630 DRAKE AVE","37.87217","-122.5149","Marin","6041129000","SAUSALITO","306214048"
"MARIN COMMUNITY CLINIC","6100 REDWOOD BLVD","38.096084","-122.5631199","Marin","6041104102","NOVATO","306214047"
"OLE HEALTH","470 CHADBOURNE RD","38.23561","-122.08274","Solano","6095252402","FAIRFIELD","306484069"
"SOUTH OF MARKET HEALTH CENTER","229 7TH ST","37.77763","-122.40889","San Francisco","6075017802","SAN FRANCISCO","306384221"
"NORTH EAST MEDICAL SERVICES - NORIEGA","1450 NORIEGA ST","37.7543153","-122.4794556","San Francisco","6075032802","SAN FRANCISCO","306384210"
"CHALDEAN AND MIDDLE-EASTERN SOCIAL SERVICES","436 S MAGNOLIA AVE","32.79113","-116.96233","San Diego","6073015802","EL CAJON","306374528"
"ST. ANTHONY MEDICAL CLINIC","150 GOLDEN GATE AVE","37.78199","-122.41316","San Francisco","6075012501","SAN FRANCISCO","306384201"
"SAN FRANCISCO CITY IMPACT HEALTH AND WELLNESS CENTER","140 TURK ST","37.78315","-122.41148","San Francisco","6075012502","SAN FRANCISCO","306384228"
"CLINICAS DEL CAMINO REAL, INC. - SIMI VALLEY","1424 MADERA RD","34.2646305","-118.7961657","Ventura","6111007700","SIMI VALLEY","306564234"
"REALOPTIONS","1671 THE ALAMEDA","37.33694","-121.91854","Santa Clara","6085500600","SAN JOSE","306434276"
"REALOPTIONS","298 SAN ANTONIO RD","37.40599","-122.1108","Santa Clara","6085509401","MOUNTAIN VIEW","306434275"
"FAMILY HEALTHCARE NETWORK","400 E OAK AVE","36.33201","-119.2886","Tulare","6107001200","VISALIA","306544063"
"OMNI FAMILY HEALTH","1133 CHELSEA ST","35.64338","-117.66729","Kern","6029005300","RIDGECREST","306154156"
"LAGUNA BEACH COMMUNITY CLINIC, INC","362 3RD ST","33.54388","-117.78087","Orange","6059062632","LAGUNA BEACH","306301235"
"NORTHEAST COMMUNITY CLINIC","200 E ANAHEIM ST","33.78003","-118.26092","Los Angeles","6037294701","WILMINGTON","306197557"
"GARFIELD HEALTH CENTER-ATLANTIC","701 S ATLANTIC BLVD","34.05371","-118.13642","Los Angeles","6037482101","MONTEREY PARK","306198195"
"CALIFORNIA FAMILY CARE","1414 S GRAND AVE","34.03691","-118.26552","Los Angeles","6037224010","LOS ANGELES","306194804"
"VCC: THE GARY CENTER","201 S HARBOR BLVD","33.93025","-117.93308","Orange","6059001404","LA HABRA","306304603"
"EL PROYECTO DEL BARRIO, INC. - NORTHRIDGE COMMUNITY CLINIC","18250 ROSCOE BLVD","34.22076","-118.53129","Los Angeles","6037131400","NORTHRIDGE","306198381"
"SACRAMENTO LIFE CENTER","2316 BELL EXECUTIVE LN","38.59719","-121.40969","Sacramento","6067005505","SACRAMENTO","306344234"
"MONTAGE MEDICAL GROUP","2930 2ND AVE","36.666074","-121.809153","Monterey","6053014102","MARINA","306274080"
"BAART COMMUNITY HEALTHCARE - VAN NESS CLINIC","539 N VAN NESS AVE","36.75119","-119.79893","Fresno","6019002300","FRESNO","306105069"
"UNITED HEALTH CENTERS OF THE SAN JOAQUIN VALLEY","517 S MADERA AVE","36.72717","-120.06032","Fresno","6019004001","KERMAN","306105044"
"CENTRO MEDICO, CATHEDRAL CITY","69175 RAMON RD","33.81585","-116.45658","Riverside","6065940600","CATHEDRAL CITY","306334582"
"ROOTS COMMUNITY HEALTH CENTER","9925 INTERNATIONAL BLVD","37.743235","-122.1697924","Alameda","6001409300","OAKLAND","306014311"
"HEALTH TO HOPE CLINICS - MOBILE UNIT 2","2880 HULEN PLACE","33.98692","-117.35387","Riverside","6065030502","RIVERSIDE","306334731"
"NORTHEASTERN HEALTH CENTER","1850 SPRING RIDGE DR","40.4376356","-120.6259598","Lassen","6035040303","SUSANVILLE","306184010"
"STINSON BEACH MEDICAL CENTER","3419 STATE RT 1","37.91411","-122.66478","Marin","6041132100","STINSON BEACH","306214024"
"PENINSULA HEALTHCARE CONNECTION, INC","33 ENCINA AVE","37.4391","-122.16094","Santa Clara","6085511609","PALO ALTO","306434228"
"CLINICAS DEL CAMINO REAL, INC. NEWBURY PARK","1000 NEWBURY RD","34.1836","-118.90458","Ventura","6111005909","NEWBURY PARK","306564155"
"CENTRAL FRESNO COMMUNITY HEALTH CENTER","4711 W ASHLAN AVE","36.79346","-119.87848","Fresno","6019003809","FRESNO","306100674"
"MONTEREY PLAZA HEALTH CLINIC","5504 MONTEREY HWY","37.25462","-121.80039","Santa Clara","6085512039","SAN JOSE","306434287"
"H STREET CLINIC, LLC","1329 N H ST","34.1238515","-117.3005213","San Bernardino","6071005500","SAN BERNARDINO","306364382"
"COMMUNITY HEALTH CENTERS ARBOR","1418 E MAIN ST","34.9524769","-120.4135154","Santa Barbara","6083002211","SANTA MARIA","306414114"
"GOLDEN VALLEY HEALTH CENTER - DOS PALOS","1405 CALIFORNIA AVE","36.98662","-120.62905","Merced","6047002402","DOS PALOS","306244001"
"SAN ANTONIO NEIGHBORHOOD HEALTH CENTER","1030 INTERNATIONAL BLVD","37.79166","-122.24917","Alameda","6001405402","OAKLAND","306013628"
"LA CLINICA  DE LA RAZA","3451 E 12TH ST","37.77572","-122.22341","Alameda","6001406100","OAKLAND","306014188"
"LA CLINICA PITTSBURG - MEDICAL","2240 GLADSTONE DR","38.00661","-121.86644","Contra Costa","6013313102","PITTSBURG","306074083"
"OPERATION SAMAHAN HEALTH CLINIC","2743 HIGHLAND AVE","32.66105","-117.09202","San Diego","6073011602","NATIONAL CITY","306371602"
"HILMAR COMMUNITY HEALTH CENTER","7970 LANDER AVE","37.403817","-120.850117","Merced","6047000402","HILMAR","306244057"
"OMNI FAMILY HEALTH","2101 7TH ST","35.59426","-119.34989","Kern","6029004401","WASCO","306154028"
"ELICA HEALTH CENTERS HEALTH ON WHEELS","3701 J ST","38.57057","-121.45683","Sacramento","6067001500","SACRAMENTO","306344224"
"WELLSPACE SOUTH VALLEY COMMUNITY HEALTH CENTER","8233 E STOCKTON BLVD","38.45925","-121.41005","Sacramento","6067009320","SACRAMENTO","306344164"
"APLA HEALTH AND WELNESS - LONG BEACH CENTER","1043 ELM AVE","33.77964","-118.18802","Los Angeles","6037576301","LONG BEACH","306190893"
"WELLSPACE HEALTH AMADOR COMMUNITY HEALTH CENTER","11333 PROSPECT DR","38.37161","-120.80049","Amador","6005000303","JACKSON","306030896"
"TARZANA TREATMENT CENTER FAMILY MEDICAL CLINIC","8330 RESEDA BLVD","34.22161","-118.53604","Los Angeles","6037115403","NORTHRIDGE","306197007"
"ST JOHNS CHILD AND FAMILY CENTER","808 W 58TH ST","33.98966","-118.28749","Los Angeles","6037232700","LOS ANGELES","306197306"
"ST JOHNS WELL CHILD AND FAM CENTER-LINCOLN HEIGHTS","2512 ALTA ST","34.07467","-118.20461","Los Angeles","6037199202","LOS ANGELES","306196520"
"ST. JOHNS WELL CHILD AND FAMILY CENTER","15301 S SAN JOSE AVE","33.8941997","-118.1817669","Los Angeles","6037542106","COMPTON","306197743"
"HERALD CHRISTIAN HEALTH CENTER","1661 HANOVER RD","33.9905","-117.92106","Los Angeles","6037408211","CITY OF INDUSTRY","306198094"
"ANTELOPE VALLEY COMMUNITY CLINIC MOBILE HEALTH CLINIC 1","45104 10TH ST W","34.7026822","-118.1472625","Los Angeles","6037900806","LANCASTER","306197872"
"CHOC CLINIC AT THE BOYS AND GIRLS CLUB OF S.A.","1000 HIGHLAND ST","33.7372","-117.87865","Orange","6059074902","SANTA ANA","306304272"
"ASIAN HEALTH SERVICE","818 WEBSTER ST","37.79947","-122.27117","Alameda","6001403000","OAKLAND","306011006"
"SIERRA HEALTH CENTER","1801 TULLY RD","37.67056","-121.01228","Stanislaus","6099000805","MODESTO","306504008"
"EUREKA COMMUNITY HEALTH CENTER","2200 TYDD ST","40.8017753","-124.1469789","Humboldt","6023000500","EUREKA","306124039"
"ALEXANDER VALLEY HEALTHCARE","6 TARMAN DR","38.7980954","-123.0178003","Sonoma","6097154201","CLOVERDALE","306494100"
"SACRAMENTO COMMUNITY CLINIC - ASSEMBLY COURT","5524 ASSEMBLY CT","38.49356","-121.43954","Sacramento","6067005002","SACRAMENTO","306344180"
"HEALTH TO HOPE CLINICS - MOBILE UNIT 3","2880 HULEN PL","33.98692","-117.35387","Riverside","6065030502","RIVERSIDE","306334736"
"HERALD CHRISTIAN HEALTH CENTER","8841 GARVEY AVE","34.06277","-118.07584","Los Angeles","6037433601","ROSEMEAD","306198203"
"ALTAMED MEDICAL AND DENTAL GROUP - E.L.A.BOYLE HEIGHTS","3945 WHITTIER BLVD","34.02395","-118.18786","Los Angeles","6037531202","LOS ANGELES","306196538"
"ASIAN PACIFIC HEALTH CARE VENTURE, INC. - BELMONT HEALTH CNT","180 UNION PL","34.0621979","-118.2653357","Los Angeles","6037208302","LOS ANGELES","306197784"
"SAN FERNANDO COMMUNITY HEALTH CENTER","732 MOTT ST","34.27666","-118.44428","Los Angeles","6037320300","SAN FERNANDO","306197981"
"CANBY FAMILY PRACTICE","670 COUNTY ROAD 83","41.443663","-120.895382","Modoc","6049000300","CANBY","306254001"
"PEACH TREE CLINIC","5730 PACKARD AVE","39.11868","-121.56552","Yuba","6115040302","MARYSVILLE","306584009"
"HEALTH MOBILE","1659 SCOTT BLVD","37.35435","-121.95948","Santa Clara","6085505303","SANTA CLARA","306434176"
"DESERT AIDS PROJECT","1695 N SUNRISE WAY","33.84459","-116.52821","Riverside","6065044602","PALM SPRINGS","306334054"
"ST. JOHNS WELL CHILD AND FAMILY CENTER","1555 W 110TH ST","33.9355","-118.30369","Los Angeles","6037600302","LOS ANGELES","306198009"
"UNICARE COMMUNITY HEALTH CENTER, INC.","1501 E HOLT AVE","34.06322","-117.72047","Los Angeles","6037402702","POMONA","306198005"
"ALTAMED MEDICAL GROUP - ORANGE, CHAPMAN","4010 E CHAPMAN AVE","33.7873641","-117.8109605","Orange","6059075807","ORANGE","306304372"
"CHULA VISTA FAMILY HEALTH CENTER","251 LANDIS AVE","32.64253","-117.08148","San Diego","6073012302","CHULA VISTA","306374421"
"LA MAESTRA COMMUNITY HEALTH CENTERS - CITY HEIGHTS","4060 FAIRMOUNT AVE","32.75053","-117.10093","San Diego","6073002202","SAN DIEGO","306374445"
"RITTER HEALTH CENTER","16 RITTER ST","37.9713918","-122.5252431","Marin","6041111000","SAN RAFAEL","306214057"
"J ROPHE MEDICAL","1626 MYRTLE AVE","40.79456","-124.13621","Humboldt","6023000800","EUREKA","306124045"
"GRAVENSTEIN COMMUNITY HEALTH CENTER","652 PETALUMA AVE","38.39636","-122.81996","Sonoma","6097153403","SEBASTOPOL","306494132"
"TRI-STATE COMMUNITY HEALTHCARE CENTER","1402 BAILEY AVE","34.8327781","-114.6186385","San Bernardino","6071010700","NEEDLES","306364466"
"MISSION CITY COMMUNITY NETWORK - INGLEWOOD","501 E HARDY ST","33.9491","-118.34882","Los Angeles","6037601100","INGLEWOOD","306197527"
"MISSION CITY COMMUNITY NETWORK, INC. - ORANGE GROVE","1818 N ORANGE GROVE AVE","34.07694","-117.74895","Los Angeles","6037402102","POMONA","306197646"
"MISSION CITY COMMUNITY NETWORK, INC. - NORTHRIDGE","8363 RESEDA BLVD","34.22262","-118.53612","Los Angeles","6037115404","NORTHRIDGE","306197482"
"MISSION CITY COMMUNITY NETWORK, INC. - MONROVIA","513 E LIME AVE","34.1482","-117.99339","Los Angeles","6037431001","MONROVIA","306197647"
"MISSION CITY COMMUNITY NETWORK, INC. - PARTHENIA","15210 PARTHENIA ST","34.228154","-118.4636864","Los Angeles","6037117530","NORTH HILLS","306197648"
"MISSION CITY COMMUNITY NETWORK, INC.  - PRAIRIE","301 N PRAIRIE AVE","33.9657318","-118.3440046","Los Angeles","6037601001","INGLEWOOD","306197763"
"EAST BAKERSFIELD COMMUNITY HEALTH CENTER","815 MARTIN LUTHER KING BLVD","35.36581","-118.98519","Kern","6029002200","BAKERSFIELD","306150057"
"NORTH COUNTY HEALTH SERVICES - GRAND AVENUE FAMILY MEDICINE","727 W SAN MARCOS BLVD","33.13684","-117.17977","San Diego","6073020029","SAN MARCOS","306374419"
"NCHS MISSION MESA COMMUNITY HEALTH CENTER","2210 MESA DR","33.20795","-117.35813","San Diego","6073018510","OCEANSIDE","306374200"
"SAN FRANCISCO FREE CLINIC","4900 CALIFORNIA ST","37.7847806","-122.47012","San Francisco","6075040200","SAN FRANCISCO","306384025"
"WINTERHAVEN HEALTH CLINIC","2133 WINTERHAVEN DR","32.73859","-114.6356","Imperial","6025940000","WINTERHAVEN","306134014"
"CENTRO MEDICO, EL CAJON","133 W MAIN ST","32.79492","-116.96277","San Diego","6073015802","EL CAJON","306374549"
"HILL COUNTRY COMMUNITY CLINIC","29632 HWY 299 E","40.78966","-121.94712","Shasta","6089012601","ROUND MOUNTAIN","306452320"
"BENTLEY HEALTH CENTER","12619 BENTLEY ST","37.64074","-120.76132","Stanislaus","6099002801","WATERFORD","306504091"
"WELLSPACE HEALTH ROSEVILLE COMMUNITY HEALTH CENTER","5 MEDICAL PLAZA DR","38.7650447","-121.2476456","Placer","6061022400","ROSEVILLE","306314050"
"TRI-CITY HEALTH CENTER IRVINGTON DAVE","40910 FREMONT BLVD.","37.53357","-121.96026","Alameda","6001442302","FREMONT","306014387"
"TRI-CITY HEALTH CENTER","2299 MOWRY AVE","37.5567","-121.98179","Alameda","6001441923","FREMONT","306014097"
"KHEIR WILSHIRE CLINIC","3255 WILSHIRE BLVD","34.06182","-118.29307","Los Angeles","6037212101","LOS ANGELES","306198034"
"WESLEY HEALTH CENTERS (LYNWOOD 2)","3580 E IMPERIAL HWY","33.930084","-118.205888","Los Angeles","6037540203","LYNWOOD","306197785"
"ST. JOHNS WELL CHILD AND FAMILY CENTER","326 W 23RD ST","34.02939","-118.27139","Los Angeles","6037224020","LOS ANGELES","306198021"
"THE CHILDENS CLINIC FAMILY HEALTH CENTER WESTSIDE","2125 SANTA FE AVE","33.7958","-118.21555","Los Angeles","6037572800","LONG BEACH","306195054"
"EAST VALLEY CMMTY HEALTH CNTR, INC. - COVINA HEALTH CENTER","276 W COLLEGE ST","34.08747","-117.89409","Los Angeles","6037406101","COVINA","306198019"
"R.O.A.D.S. COMMUNITY CARE CLINIC","121 S LONG BEACH BLVD","33.89488","-118.20794","Los Angeles","6037542401","COMPTON","306198026"
"ALL CARE ONE COMMUNITY HEALTH CENTER","7300 SANTA FE AVE","33.973577","-118.22998","Los Angeles","6037534803","HUNTINGTON PARK","306197866"
"ALL-INCLUSIVE COMMUNITY HEALTH CENTER","3920 EAGLE ROCK BLVD","34.11935","-118.23013","Los Angeles","6037186302","LOS ANGELES","306196197"
"ORDER OF MALTA CLINIC OF NORTHERN CALIFORNIA","2121 HARRISON ST","37.81075","-122.26253","Alameda","6001403400","OAKLAND","306014245"
"CLINICA CHOC PARA NINOS","406 S MAIN ST","33.74227","-117.86772","Orange","6059074601","SANTA ANA","306304155"
"HARBOR COMMUNITY CLINIC","593 W 6TH  ST","33.73875","-118.28994","Los Angeles","6037296600","SAN PEDRO","306190363"
"EL DORADO COMMUNITY HEALTH CENTER CAMERON PARK MAIN","3100 POINTE MORINO DR","38.66237","-120.96737","El Dorado","6017030803","CAMERON PARK","306094030"
"LIFELONG BROOKSIDE COMMUNITY HEALTH CENTER - RICHMOND","1030 NEVIN AVE","37.9368","-122.35917","Contra Costa","6013377000","RICHMOND","306074133"
"LIFE LONG BROOKSIDE COMMUNITY HEALTH CENTER SAN PABLO","2023 VALE RD","37.95356","-122.33801","Contra Costa","6013369001","SAN PABLO","306074080"
"SAN DIEGO FAMILY CARE","7011 LINDA VISTA ROAD","32.78826","-117.16898","San Diego","6073008800","SAN DIEGO","306374553"
"NORTH EAST MEDICAL SERVICES - LUNDY","1715 LUNDY AVE","37.3882","-121.88692","Santa Clara","6085504322","SAN JOSE","306434202"
"HOPE MEDI-VAN","1601 COFFEE RD","37.6681327","-120.9768957","Stanislaus","6099000909","MODESTO","306504071"
"TRI-CITY HEALTH CENTER","1999 MOWRY AVE","37.55807","-121.98065","Alameda","6001441924","FREMONT","306014339"
"ALBERT J. THOMAS MEDICAL CLINIC","10615 INTERNATIONAL BLVD","37.73845","-122.16619","Alameda","6001409300","OAKLAND","306014019"
"SOUTHERN TRINITY HEALTH SERVICES","321 VAN DUZEN RD","40.46051","-123.53034","Trinity","6105000400","BRIDGEVILLE","306532242"
"ARROYO VISTA FAMILY HEALTH CENTER","6000 N FIGUEROA ST","34.11147","-118.18891","Los Angeles","6037183701","LOS ANGELES","306191135"
"ANGELES COMMUNITY HEALTH CENTER - LOS ANGELES","1919 W 7TH ST","34.05574","-118.27515","Los Angeles","6037208902","LOS ANGELES","306198407"
"PICO ALISO COMMUNITY CLINIC","1625 E 4TH ST","34.042944","-118.222481","Los Angeles","6037206032","LOS ANGELES","306197168"
"CENTRAL CITY COMMUNITY HEALTH CENTER, INC.","10050 GARVEY AVE","34.06271","-118.05003","Los Angeles","6037433504","EL MONTE","306198039"
"VALLEY COMMUNITY HEALTHCARE","9119 HASKELL AVE","34.23575","-118.47637","Los Angeles","6037117202","NORTH HILLS","306198018"
"CENTRAL CITY COMMUNITY HEALTH CENTER, INC.","13742 AMAR RD","34.05386","-117.97667","Los Angeles","6037406901","LA PUENTE","306198038"
"CENTRAL CITY COMMUNITY HEALTH CENTER, INC.","4126 MAINE AVE","34.08743","-117.96039","Los Angeles","6037405102","BALDWIN PARK","306198040"
"TARZANA TREATMENT CTR FAMILY MED CLINIC-LANCASTER","907 W LANCASTER BLVD","34.69736","-118.14717","Los Angeles","6037900806","LANCASTER","306195049"
"S. MARK TAPER FOUNDATION HEALTH CLINIC","4000 S MAIN ST","34.0104694","-118.2737963","Los Angeles","6037228420","LOS ANGELES","306197430"
"AVENAL COMMUNITY HEALTH CENTER","1000 SKYLINE BLVD","36.007458","-120.121476","Kings","6031001701","AVENAL","306164018"
"COMMUNITY MEDICAL CENTERS, WATERLOO","1031 WATERLOO RD","37.96727","-121.2724","San Joaquin","6077001600","STOCKTON","306394117"
"HANSEN FAMILY HEALTH CENTER","215 W BEAMER ST","38.68484","-121.79419","Yolo","6113010902","WOODLAND","306574021"
"BAART-ANTIOCH","3707 SUNSET LN","37.9845","-121.8042","Contra Costa","6013308001","ANTIOCH","306074112"
"WASHINGTON ON WHEELS","2000 MOWRY AVE","37.55801","-121.98063","Alameda","6001441924","FREMONT","306014179"
"UNICARE COMMUNITY HEALTH CENTER, INC.","308 N LA CADENA DR","34.06817","-117.32401","San Bernardino","6071012500","COLTON","306364577"
"SOUTHWEST COMMUNITY HEALTH CENTER","751 LOMBARDI CT","38.42789","-122.74859","Sonoma","6097153300","SANTA ROSA","306494058"
"KERN VALLEY MEDICAL CENTER","6310 LAKE ISABELLA BLVD","35.62729","-118.47382","Kern","6029005204","LAKE ISABELLA","306154110"
"ANTELOPE VALLEY COMMUNITY CLINIC HEALTH AND WELLNESS CENTER","45104 10TH ST W","34.70245","-118.14809","Los Angeles","6037900806","LANCASTER","306197488"
"EL PROYECTO DEL BARRIO, INC. - AZUSA CLINIC","150 N AZUSA AVE","34.12384","-117.90756","Los Angeles","6037404301","AZUSA","306196735"
"ANTELOPE VALLEY COMMUNITY CLINIC - PALMDALE","2151 E PALMDALE BLVD","34.58014","-118.08993","Los Angeles","6037910601","PALMDALE","306197490"
"TENDERLOIN HEALTH SERVICES, A PROGRAM OF HEALTHRIGHT 360","330 ELLIS ST","37.78506","-122.41167","San Francisco","6075012301","SAN FRANCISCO","306384165"
"NORTH EAST MEDICAL SERVICES-LELAND AVENUE","82 LELAND AVE","37.71182","-122.40524","San Francisco","6075026403","SAN FRANCISCO","306384053"
"NEIGHBORHOOD HEALTHCARE - GRAND AVE","1001 E GRAND AVE","33.12636","-117.06815","San Diego","6073020602","ESCONDIDO","306374410"
"RIVERSIDE LIFE SERVICES MOBILE CLINIC","3727 MCCRAY ST","33.94857","-117.39694","Riverside","6065031100","RIVERSIDE","306334744"
"PEOPLES COMMUNITY CLINIC","540 N SAN JACINTO ST","33.7555","-116.95864","Riverside","6065043508","HEMET","306334702"
"MAGNOLIA COMMUNITY HEALTH CENTER","9380 MAGNOLIA AVE","33.9215031","-117.4443678","Riverside","6065031601","RIVERSIDE","306334647"
"VCC: LAKE ELSINORE","30195 FRASER DR","33.68451","-117.3679","Riverside","6065043005","LAKE ELSINORE","306334728"
"MI CLINICA","1058 3RD AVE","32.61456","-117.06947","San Diego","6073013102","CHULA VISTA","306374529"
"LIFELONG ASHBY HEALTH CENTER","3075 ADELINE ST","37.85309","-122.26957","Alameda","6001423901","BERKELEY","306014360"
"COMPREHENSIVE COMMUNITY HEALTH CENTERS, INC. - SUNLAND","8316 FOOTHILL BLVD","34.25965","-118.31432","Los Angeles","6037103400","SUNLAND","306191327"
"AMPLA HEALTH OROVILLE MEDICAL AND DENTAL","2800 LINCOLN ST","39.5023","-121.55168","Butte","6007003002","OROVILLE","306044166"
"THE CENTER FOR HEALTH AND PREVENTION","1152 E GRAND AVE","35.1201","-120.59823","San Luis Obispo","6079011902","ARROYO GRANDE","306400795"
"COMMUNITY HEALTH CENTERS SANTA MARIA HIGH SCHOOL","901 S BROADWAY","34.94302","-120.43602","Santa Barbara","6083002404","SANTA MARIA","306424058"
"CLINICAS DEL CAMINO REAL INC VENTURA","200 S WELLS RD","34.29317","-119.15971","Ventura","6111001201","VENTURA","306561202"
"WALK-IN CARE AND FAMILY CARE","217 W CENTRAL AVE","34.66083","-120.46007","Santa Barbara","6083002802","LOMPOC","306424093"
"THE CENTER FOR HEALTH AND PREVENTION","705 GRAND AVE","35.29018","-120.65325","San Luis Obispo","6079011002","SAN LUIS OBISPO","306400771"
"MEDICAL CLINIC  AT MORRO","658 MORRO AVE","35.36456","-120.85111","San Luis Obispo","6079010602","MORRO BAY","306404101"
"CLINICAS DEL CAMINO REAL, INC.-EL RIO","221 E VENTURA BLVD","34.23271","-119.17132","Ventura","6111005003","OXNARD","306564192"
"TUOLUMNE ME-WUK HEALTH AND WELLNESS CENTER","22044 CEDAR RD","37.9849","-120.36513","Tuolumne","6109004100","SONORA","306554021"
"SACRAMENTO LIFE CENTER MOBILE CLINIC NO.2","2316 BELL EXECUTIVE LANE","38.59719","-121.40969","Sacramento","6067005505","SACRAMENTO","306344233"
"COMMUNITY MEDICAL CENTERS - MARIPOSA ROAD","2015 E MARIPOSA RD","37.9389051","-121.2444401","San Joaquin","6077002100","STOCKTON","306394111"
"HEALTHCARE FOR THE HOMELESS MOBILE MEDICAL UNIT","195 E VIRGINA ST","37.3261081","-121.8778473","Santa Clara","6085501600","SAN JOSE","306434204"
"CHINA LAKE COMMUNITY HEALTH CLINIC","1041 N CHINA LAKE BLVD","35.6391452","-117.6698908","Kern","6029005401","RIDGECREST","306154170"
"SALUD CLINIC","500B JEFFERSON BLVD","38.5881","-121.52701","Yolo","6113010102","WEST SACRAMENTO","306574014"
"WESTWOOD FAMILY PRACTICE","209 BIRCH ST","40.3008799","-121.0019418","Lassen","6035040200","WESTWOOD","306182322"
"CENTRO MEDICO, ESCONDIDO","1121 E WASHINGTON AVE","33.13229","-117.06933","San Diego","6073020202","ESCONDIDO","306374448"
"VALLEY VILLAGE PRIMARY CARE CLINIC","390 N WINCHESTER BLVD","37.33212","-121.95027","Santa Clara","6085505900","SANTA CLARA","306434107"
"CSVS NORTH MAIN","2180 N MAIN ST","36.72672","-121.65632","Monterey","6053010506","SALINAS","306274093"
"CLINICA DE SALUD DEL VALLE DE SALINAS GONZALES","126 FIFTH ST","36.50835","-121.44443","Monterey","6053010804","GONZALES","306274094"
"TELEHEALTH AND VISITING SPECIALIST CENTER","2426 BUHNE ST","40.78592","-124.14066","Humboldt","6023000600","EUREKA","306124030"
"ELSIE ALLEN HEALTH CENTER","599 BELLEVUE AVE","38.40191","-122.73455","Sonoma","6097153200","SANTA ROSA","306494080"
"MARIN COMMUNITY CLINIC - SAN RAFAEL CAMPUS","3260 KERNER BLVD","37.96103","-122.50175","Marin","6041112202","SAN RAFAEL","306214054"
"SAMARITAN HOUSE FREE CLINIC OF REDWOOD CITY","114 5TH AVE","37.4688","-122.20726","San Mateo","6081610601","REDWOOD CITY","306414104"
"COMMUNITY HEALTH CENTERS DEL VALLE","430 S BLOSSER RD","34.94924","-120.45373","Santa Barbara","6083002402","SANTA MARIA","306424105"
"COMMUNITY HEALTH CLINIC OLE","911 WASHINGTON ST","38.57809","-122.57709","Napa","6055202000","CALISTOGA","306284016"
"COMMUNITY HEALTH CLINIC OLE","1100 TRANCAS ST","38.32339","-122.29694","Napa","6055200602","NAPA","306284020"
"CHINESE COMMUNITY HEALTH SERVICES","1800 31ST AVE","37.7534634","-122.4891481","San Francisco","6075032902","SAN FRANCISCO","306384154"
"MISSION CITY COMMUNITY NETWORK, INC.","15206 PARTHENIA ST","34.22818","-118.46373","Los Angeles","6037117530","NORTH HILLS","306194138"
"CLINICA DE SALUD DEL VALLE DE SALINAS-SOLEDAD","799 FRONT ST","36.42509","-121.32633","Monterey","6053011102","SOLEDAD","306274007"
"GRANGER SCHOOL BASED HEALTH CENTER","2101 GRANGER AVE","32.67262","-117.07387","San Diego","6073012102","NATIONAL CITY","306374519"
"D STREET MEDICAL CENTER","590 N D ST","34.1097","-117.29192","San Bernardino","6071005701","SAN BERNARDINO","306364566"
"CHASE AVENUE FAMILY HEALTH CENTER","1111 W CHASE AVE","32.78168","-116.97659","San Diego","6073015302","EL CAJON","306374280"
"BEHAVIIORAL HEALTH SERVICES - FAMILY HEALTH CENTER","2501 W EL SEGUNDO BLVD","33.91648","-118.32065","Los Angeles","6037602700","HAWTHORNE","306198247"
"APLA HEALTH AND WELLNESS CENTER - BALDWIN HILLS","3743  S LA BREA AVE","34.0192235","-118.3556598","Los Angeles","6037236000","LOS ANGELES","306197797"
"VENICE MEDICAL AND MENTAL HEALTH SERVICES","717 LINCOLN BLVD","33.999312","-118.464182","Los Angeles","6037273200","VENICE","306195045"
"CSC COMMUNITY HEALTH CENTER - SAN GABRIEL VALLEY","320 S GARFIELD AVE","34.09181","-118.12448","Los Angeles","6037481002","ALHAMBRA","306197166"
"THE FAMILY CLINIC OF LONG BEACH","1045 ATLANTIC AVE","33.7802376","-118.1853912","Los Angeles","6037576301","LONG BEACH","306197351"
"CHAPCARE LIME","513 EAST LIME AVENUE","34.1482","-117.99317","Los Angeles","6037431001","MONROVIA","306198225"
"WESLEY HEALTH CENTER (LYNWOOD)","3591 E IMPERIAL HWY","33.9306956","-118.2055316","Los Angeles","6037540202","LYNWOOD","306197571"
"CHILDRENS CLINIC FAMILY HLTH CTR, THE/N LONG BEACH","1060 E 70TH ST","33.88181","-118.17949","Los Angeles","6037570202","LONG BEACH","306196497"
"LOS ANGELES MISSION COLLEGE, STUDENT HLTH CTR","13356 ELDRIDGE AVE","34.31392","-118.41958","Los Angeles","6037106111","SYLMAR","306196173"
"INDIAN HEALTH CENTER OF SANTA CLARA VALLEY","1333 MERIDIAN AVE","37.30175","-121.91365","Santa Clara","6085502202","SAN JOSE","306431525"
"UNIVERSAL COMMUNITY HEALTH CENTER","2801 S SAN PEDRO ST","34.01963","-118.26257","Los Angeles","6037226700","LOS ANGELES","306198409"
"WHITE MEMORIAL COMMUNITY HEALTH CENTER","1828 E CESAR E CHAVEZ AVE","34.05023","-118.21552","Los Angeles","6037203500","LOS ANGELES","306198405"
"BUDDHIST TZU CHI FREE CLINIC (MOBILE CLINIC)","1000 S GARFIELD AVE","34.08455","-118.12304","Los Angeles","6037481603","ALHAMBRA","306196288"
"MISSION CITY COMMUNITY NETWORK, INC. - VICTORVILLE","15201 ELEVENTH ST","34.52726","-117.2925","San Bernardino","6071009913","VICTORVILLE","306364485"
"UNITED HEALTH CENTERS OF THE SAN JOAQUIN VALLEY","1209 WHITLEY AVE","36.09801","-119.56283","Kings","6031001402","CORCORAN","306164032"
"TZU CHI MOBILE CLINIC","3898 N ANN AVE","36.788526","-119.727413","Fresno","6019003104","FRESNO","306105095"
"SABLAN HEALTH CENTER","927 O ST","36.860718","-120.45784","Fresno","6019008401","FIREBAUGH","306105089"
"TODOS PARA LA SALUD","4420 N 1ST ST","36.7981","-119.77222","Fresno","6019005301","FRESNO","306105139"
"WESLEY HEALTH CENTERS (DOWNEY)","8530 FIRESTONE BLVD","33.93775","-118.12871","Los Angeles","6037551300","DOWNEY","306198053"
"JORDAN WELLNESS CENTER","10110 JUNIPER ST","33.94471","-118.23315","Los Angeles","6037242100","LOS ANGELES","306197746"
"CENTRAL CITY COMMUNITY HEALTH CENTER","5970 S CENTRAL AVE","33.98559","-118.25642","Los Angeles","6037532800","LOS ANGELES","306194705"
"OBRIA MEDICAL CLINICS OF SOUTHERN CALIFORNIA, INC.","28201 MARGUERITE PKWY","33.55385","-117.67052","Orange","6059032022","MISSION VIEJO","306304369"
"WESTSIDE FAMILY HEALTH CENTER","1711 OCEAN PARK BLVD","34.01273","-118.46645","Los Angeles","6037702201","SANTA MONICA","306190936"
"SUN VALLEY HEALTH CENTER","7223 FAIR AVE","34.2118","-118.37469","Los Angeles","6037122120","SUN VALLEY","306197151"
"FREMONT WELLNESS CENTER","7821 AVALON BLVD","33.9682258","-118.2651723","Los Angeles","6037239502","LOS ANGELES","306197912"
"HURTT FAMILY MOBILE CLINIC","ONE HOPE DR","33.71469","-117.83216","Orange","6059075515","TUSTIN","306304431"
"CRENSHAW COMMUNITY HEALTH CENTER","3756 SANTA ROSALIA DR","34.00939","-118.33916","Los Angeles","6037236100","LOS ANGELES","306196169"
"ST. JOHNS WELL CHILD AND FAMILY CENTER","808 W 58TH ST","33.9893858","-118.2876627","Los Angeles","6037232700","LOS ANGELES","306197796"
"WATTS HEALTH CENTER","10300  COMPTON AVE","33.94307","-118.24618","Los Angeles","6037242700","LOS ANGELES","306191084"
"FAMILY HEALTHCARE NETWORK","501 N BRIDGE ST","36.33405","-119.28903","Tulare","6107001100","VISALIA","306540898"
"UMMA COMMUNITY CLINIC","711 W FLORENCE AVE","33.97468","-118.28627","Los Angeles","6037237600","LOS ANGELES","306196234"
"BAART SOUTHEAST CLINIC","4920 AVALON BLVD","33.99833","-118.26521","Los Angeles","6037229200","LOS ANGELES","306196249"
"VIA CARE COMMUNITY HEALTH CENTER","507 S ATLANTIC BLVD","34.026876","-118.155355","Los Angeles","6037530301","LOS ANGELES","306197068"
"BAART TURK STREET CLINIC","433 TURK ST","37.7822734","-122.416255","San Francisco","6075012401","SAN FRANCISCO","306384192"
"BRIGHTER BEGINNINGS FAMILY HEALTH CLINIC","2727 MACDONALD AVE","37.93502","-122.34217","Contra Costa","6013374000","RICHMOND","306074172"
"COMMUNITY MEDICAL CENTERS, TRACY","730 N CENTRAL AVE","37.73618","-121.42578","San Joaquin","6077005405","TRACY","306394013"
"CARES COMMUNITY HEALTH","1500 21ST ST","38.57049","-121.48116","Sacramento","6067001200","SACRAMENTO","306344027"
"NORTHERN VALLEY INDIAN HEALTH, INC.","500 COHASSET RD","39.75149","-121.85084","Butte","6007000300","CHICO","306044176"
"ROUND VALLEY INDIAN HEALTH CENTER, INC.","HWY 162 AND BIGGAR LN","39.8097602","-123.2480796","Mendocino","6045010100","COVELO","306231463"
"THE CHILDRENS CLINIC FAMILY HEALTH CENTER AT CESAR CHAVEZ","730 W 3RD ST","33.77052","-118.20135","Los Angeles","6037575901","LONG BEACH","306196625"
"LOCKE WELLNESS CENTER","316 E 111TH ST","33.93478","-118.26892","Los Angeles","6037240900","LOS ANGELES","306197886"
"NCHS PERRIS HEALTH CENTER","1676 N. PERRIS BLVD.","33.80293","-117.22601","Riverside","6065042617","PERRIS","306334730"
"PALMDALE MEDICAL AND MENTAL HEALTH SERVICES","2710 E PALMDALE BLVD","34.58015","-118.08094","Los Angeles","6037910602","PALMDALE","306195015"
"S. MARK TAPER FOUNDATION CHILDRENS CLINIC FAMILY HEALTH CENTER","455 E COLUMBIA ST","33.80904","-118.18731","Los Angeles","6037572202","LONG BEACH","306196887"
"TAVARUA MEDICAL AND MENTAL SERVICES","8207 WHITTIER BLVD","34.00665","-118.09604","Los Angeles","6037500600","PICO RIVERA","306194189"
"HOLLYWOOD SUNSET FREE CLINIC","3324 W SUNSET BLVD","34.0872","-118.27573","Los Angeles","6037195803","LOS ANGELES","306190383"
"SOUTH BAY FAMILY HEALTHCARE CENTER","1091 S LA BREA AVE","33.9492451","-118.3529692","Los Angeles","6037601202","INGLEWOOD","306196556"
"BUENA PARK COMMUNITY CLINIC","1505 E 17TH ST","33.75994","-117.84693","Orange","6059075405","SANTA ANA","306304582"
"TARZANA TREATMENT CENTERS FAMILY MEDICAL TARZANA CLINIC","18646 OXNARD ST","34.179256","-118.539776","Los Angeles","6037139302","TARZANA","306197786"
"ASIAN PACIFIC HEALTH CARE VENTURE, INC.- EL MONTE/ROSEMEAD HEALTH","9960 BALDWIN PL","34.0714021","-118.051635","Los Angeles","6037433101","EL MONTE","306197676"
"MISSION CITY COMMUNITY NETWORK, INC. - SAN FERNANDO VALLEY MOBILE CLINIC","9919 LAUREL CANYON BLVD","34.25063","-118.42355","Los Angeles","6037104822","PACOIMA","306197815"
"ALL-INCLUSIVE COMMUNITY HEALTH CENTER","1311 N SAN FERNANDO BLVD","34.1893761","-118.3207868","Los Angeles","6037310601","BURBANK","306197569"
"ALTAMED MEDICAL GROUP","10418 VALLEY BLVD","34.07648","-118.0459","Los Angeles","6037432801","EL MONTE","306197101"
"ASIAN PACIFIC HEALTH CARE VENTURE - JMHS HEALTH CENTER","3939 TRACY ST","34.1073","-118.27709","Los Angeles","6037195201","LOS ANGELES","306196199"
"FRANK KIANG MEDICAL CENTER","250 E 18TH ST","37.79998","-122.25266","Alameda","6001405302","OAKLAND","306014272"
"LEMON GROVE FAMILY HEALTH CENTER","7592 BROADWAY","32.7427438","-117.0344478","San Diego","6073014400","LEMON GROVE","306374436"
"DTFHC AT CONNECTIONS","1250 6TH AVE","32.7184","-117.15929","San Diego","6073005300","SAN DIEGO","306374494"
"NCHS CARLSBAD FAMILY MEDICINE","1295 CARLSBAD VILLAGE DR","33.16584","-117.33826","San Diego","6073017801","CARLSBAD","306374480"
"GOLDEN VALLEY HEALTH CENTER","198 N G ST","37.6295","-121.00599","Stanislaus","6099002200","EMPIRE","306504093"
"GOLDEN VALLEY HEALTH CENTER","127 EL PORTAL DR","37.32669","-120.46822","Merced","6047001101","MERCED","306244048"
"GOLDEN VALLEY HEALTH CENTERS","2101 TENAYA DR","37.63243","-120.95905","Stanislaus","6099002100","MODESTO","306504067"
"GOLDEN VALLEY HEALTH CENTER - LOS BANOS","821 TEXAS AVE","37.06389","-120.86064","Merced","6047002201","LOS BANOS","306242279"
"GARDNER SOUTH COUNTY HEALTH CENTER","7526 MONTEREY ST","37.00843","-121.56939","Santa Clara","6085512603","GILROY","306434186"
"DEATH VALLEY HEALTH CENTER","140 STATE HWY 127","35.97545","-116.27034","Inyo","6027000800","SHOSHONE","306140067"
"HEALTHRIGHT  360","1563 MISSION ST","37.77327","-122.41836","San Francisco","6075017700","SAN FRANCISCO","306384240"
"30TH STREET COMMUNITY CLINIC","225 30TH ST","37.7421656","-122.4252001","San Francisco","6075021800","SAN FRANCISCO","306384044"
"DAVIS COMMUNITY CLINIC","2051 JOHN JONES RD","38.5638706","-121.7696976","Yolo","6113010505","DAVIS","306574020"
"AXIS COMMUNITY HEALTH","5925 W LAS POSITAS BLVD","37.68349","-121.89933","Alameda","6001450743","PLEASANTON","306014381"
"CLINICA DE SALUD DEL VALLE DE SALINAS-KING CITY","122 E SAN ANTONIO DR","36.2219419","-121.1268577","Monterey","6053011304","KING CITY","306274085"
"BIG SUR HEALTH CENTER","46896 HIGHWAY 1","36.33183","-121.88759","Monterey","6053011502","BIG SUR","306271905"
"BANNING FAMILY COMMUNITY HEALTH CENTER","1070 E RAMSEY ST","33.92535","-116.86506","Riverside","6065044200","BANNING","306334677"
"CLINICAS DEL CAMINO REAL INC NORTH OXNARD","1300 N VENTURA RD","34.2146371","-119.1943765","Ventura","6111003300","OXNARD","306564138"
"COMMUNITY HEALTH CENTERS GUADALUPE","4723 W MAIN ST","34.95761","-120.57764","Santa Barbara","6083002502","GUADALUPE","306424115"
"PLAZA HEALTH CENTER","525 E PLAZA DR","34.93736","-120.42982","Santa Barbara","6083002103","SANTA MARIA","306424098"
"COMMUNITY HEALTH CENTERS CASA","77 CASA ST","35.29293","-120.665","San Luis Obispo","6079010902","SAN LUIS OBISPO","306404078"
"COMMUNITY MEDICAL CENTERS - LODI","2401 W TURNER RD","38.14566","-121.30554","San Joaquin","6077004105","LODI","306394014"
"BAART MARKET CLINIC","1111 MARKET ST","37.78023","-122.41278","San Francisco","6075017601","SAN FRANCISCO","306384166"
"NATIVE AMERICAN HEALTH CENTER","160 CAPP ST","37.7640552","-122.4189029","San Francisco","6075020100","SAN FRANCISCO","306380896"
"MAYVIEW COMMUNITY HEALTH CENTER-CNC","785 MORSE AVE","37.3948973","-122.0188144","Santa Clara","6085509000","SUNNYVALE","306434179"
"MISSION NEIGHBORHOOD HEALTH CENTER","240 SHOTWELL ST","37.76475","-122.41635","San Francisco","6075017700","SAN FRANCISCO","306380891"
"ALVISO HEALTH CENTER","1621 GOLD ST","37.42459","-121.97605","Santa Clara","6085504602","ALVISO","306430707"
"COMMUNITY HEIGHTS FAMILY MEDICINE","4690 EL CAJON BLVD","32.75594","-117.09323","San Diego","6073002301","SAN DIEGO","306374567"
"CLINICAS DE SALUD DEL PUEBLO, INC","900 MAIN ST","32.97861","-115.52854","Imperial","6025010700","BRAWLEY","306130675"
"ST. JOHNS WELL CHILD AND FAMILY CENTER, INC.","3628 E IMPERIAL HWY","33.93072","-118.20445","Los Angeles","6037540203","LYNWOOD","306197838"
"HILL STREET MEDICAL AND MENTAL HEALTH SERVICES","3130 S HILL ST","34.02163","-118.27358","Los Angeles","6037224600","LOS ANGELES","306197940"
"MENDOCINO COMMUNITY HEALTH CLINIC - LAKEVIEW HEALTH CENTER","5335 LAKESHORE BLVD","39.10542","-122.90292","Lake","6033000300","LAKEPORT","306174009"
"SEBASTOPOL COMMUNITY HEALTH CENTER","6800 PALM AVE","38.39624","-122.81773","Sonoma","6097153403","SEBASTOPOL","306494107"
"MENDOCINO COMMUNITY HEALTH CLINIC, INC.","333 LAWS AVE","39.12781","-123.21112","Mendocino","6045011300","UKIAH","306234011"
"ALTA FAMILY HEALTH CLINIC, INC.","888 N ALTA AVE","36.55286","-119.39507","Tulare","6107000402","DINUBA","306544053"
"GOLETA NEIGHBORHOOD CLINIC","5580 CALLE REAL","34.4413","-119.81832","Santa Barbara","6083002914","GOLETA","306424107"
"PACIFIC COAST HEALTH CENTER","689 TANK FARM RD","35.2478","-120.64438","San Luis Obispo","6079011503","SAN LUIS OBISPO","306404088"
"COMMUNITY HEALTH CENTERS MOBILE DENTAL","1551 BISHOP ST","35.2736393","-120.6448129","San Luis Obispo","6079011001","SAN LUIS OBISPO","306404071"
"COMMUNITY HEALTH CENTERS ATASCADERO","7512  MORRO RD","35.47707","-120.66751","San Luis Obispo","6079012600","ATASCADERO","306404066"
"CLINICAS DEL CAMINO REAL INC SANTA PAULA","500 E MAIN ST","34.35122","-119.06854","Ventura","6111000600","SANTA PAULA","306564103"
"COMMUNITY HEALTH CENTERS, ARROYO GRANDE","260 STATION WAY","35.1198227","-120.5780464","San Luis Obispo","6079011800","ARROYO GRANDE","306404076"
"COMMUNITY HEALTH CENTERS SANTA MARIA III","1414 S MILLER ST","34.93661","-120.43158","Santa Barbara","6083002103","SANTA MARIA","306424074"
"CENTER FOR INHERITED BLOOD DISORDERS","1010 W LA VETA AVE","33.78028","-117.86337","Orange","6059076000","ORANGE","306304563"
"ALTAMED MEDICAL GROUP-ANAHEIM-LINCOLN, WEST","1820 W LINCOLN AVE","33.8322004","-117.946792","Orange","6059087103","ANAHEIM","306304443"
"ON LOK EAST SAN JOSE CENTER","130 N JACKSON AVE","37.36141","-121.84638","Santa Clara","6085503712","SAN JOSE","306434307"
"CHINESE HOSPITALS EXCELSIOR HEALTH SERVICES","888 PARIS ST","37.71585","-122.43934","San Francisco","6075026301","SAN FRANCISCO","306384182"
"CHINESE HOSPITAL GELLERT HEALTH SERVICES","386 GELLERT BLVD","37.6653621","-122.4693628","San Mateo","6081601604","DALY CITY","306414155"
"THE VASEK POLAK CHILDRENS CLINIC FAMILY HEALTH CENTER","1057 PINE AVE","33.7801","-118.19241","Los Angeles","6037575803","LONG BEACH","306196500"
"GOLDEN VALLEY HEALTH CENTER-LE GRAND","13161 JEFFERSON ST","37.229227","-120.250738","Merced","6047001902","LE GRAND","306244038"
"NORTH FINE COMMUNITY HEALTH CENTER","1945 N FINE AVE","36.7682623","-119.7291509","Fresno","6019003104","FRESNO","306105097"
"CLINICAS DE SALUD DEL PUEBLO INC","223 W COLE BLVD","32.69404","-115.50284","Imperial","6025011900","CALEXICO","306131254"
"OMNI FAMILY HEALTH","4131 MING AVE","35.33945","-119.04973","Kern","6029002814","BAKERSFIELD","306154186"
"ALTURA CENTERS FOR HEALTH","1500 W TULARE DR","36.20643","-119.369","Tulare","6107002202","TULARE","306544103"
"MISSION NEIGHBORHOOD HEALTH CENTER - EXCELSIOR CLINIC","4434 MISSION ST","37.72671","-122.43331","San Francisco","6075025500","SAN FRANCISCO","306384045"
"AL-SHIFA CLINIC","2034 MALLORY ST","34.14333","-117.33677","San Bernardino","6071004103","SAN BERNARDINO","306364422"
"MEDICAL CLINIC AT POSADA","265 POSADA LANE","35.55358","-120.72137","San Luis Obispo","6079012704","TEMPLETON","306404087"
"COMMUNITY HEALTH CENTERS PASO","416 SPRING ST","35.61887","-120.69071","San Luis Obispo","6079010102","PASO ROBLES","306404035"
"COMMUNITY HEALTH CENTERS LOMPOC","425 W CENTRAL AVE","34.66086","-120.46161","Santa Barbara","6083002802","LOMPOC","306424078"
"RUSSIAN RIVER HEALTH CENTER","16319 THIRD STREET","38.5025","-122.99758","Sonoma","6097153704","GUERNEVILLE","306491059"
"ADVENTIST HEALTH LODI MEMMORIAL","1901 W KETTLEMAN LN","38.11559","-121.29648","San Joaquin","6077004303","LODI","306394094"
"ADVENTIST HEALTH LODI MEMORIAL","1235 W VINE ST","38.1227939","-121.2873956","San Joaquin","6077004302","LODI","306394095"
"NEIGHBORHOOD HEALTHCARE - VALLEY PARKWAY","728 E VALLEY PKWY","33.127979","-117.07322","San Diego","6073020202","ESCONDIDO","306374481"
"FALLBROOK FAMILY HEALTH CENTER","1328 S MISSION RD","33.36882","-117.25081","San Diego","6073018905","FALLBROOK","306374446"
"NATIONAL CITY FAMILY CLINIC","1136 D AVE","32.67409","-117.1017","San Diego","6073011700","NATIONAL CITY","306371654"
"ASIAN AMERICANS FOR COMM INVOLVEMENT SANTA CLARA","2400 MOORPARK AVE","37.31608","-121.9371","Santa Clara","6085502101","SAN JOSE","306431867"
"INFORMED CHOICES","66 1ST ST","37.01438","-121.57318","Santa Clara","6085512604","GILROY","306434300"
"ALTURA CENTERS FOR HEALTH","1186 LELAND AVE","36.23002","-119.32789","Tulare","6107002400","TULARE","306544076"
"DAVIS STREET PRIMARY CARE CLINIC","3081 TEAGARDEN ST","37.704881","-122.153346","Alameda","6001433200","SAN LEANDRO","306014336"
"BAART RICHMOND CLINIC","1313 CUTTING BLVD","37.9254485","-122.3565464","Contra Costa","6013379000","RICHMOND","306074113"
"CONEJO FREE CLINIC","80 E HILLCREST DR","34.1809395","-118.8746855","Ventura","6111007000","THOUSAND OAKS","306561159"
"OMNI FAMILY HEALTH","21138 PASO ROBLES HWY","35.61608","-119.69528","Kern","6029004500","LOST HILLS","306150023"
"OMNI FAMILY HEALTH","161 N MILL ST","35.13424","-118.45199","Kern","6029006100","TEHACHAPI","306154137"
"MENDOCINO COMM. HEALTH CLINIC-LITTLE LAKE CLINIC","45 HAZEL ST","39.39982","-123.35232","Mendocino","6045010700","WILLITS","306234026"
"VISTA FAMILY HEALTH CENTER","3569 ROUND BARN CIR","38.47943","-122.73061","Sonoma","6097152400","SANTA ROSA","306494117"
"RANCHO PENASQUITOS COMMUNITY HEALTH CENTER","9995 CARMEL MOUNTAIN RD","32.96073","-117.11185","San Diego","6073017018","SAN DIEGO","306374568"
"AMPLA HEALTH HAMILTON CITY MEDICAL","278 MAIN ST","39.74132","-122.01169","Glenn","6021010501","HAMILTON CITY","306114005"
"BSNJ HEALTH CENTER, INC.","201 N CENTRAL AVE","33.89693","-118.25213","Los Angeles","6037541100","COMPTON","306196131"
"GARFIELD HEALTH CENTER","210 N GARFIELD AVE","34.06418","-118.12283","Los Angeles","6037481711","MONTEREY PARK","306274059"
"CLINICAS DEL CAMINO REAL INC OCEANVIEW","4400 OLDS RD","34.16025","-119.14877","Ventura","6111004715","OXNARD","306564122"
"CLINICAS DEL CAMINO REAL INC MARAVILLA","450 CLARA ST","34.15118","-119.18225","Ventura","6111004506","OXNARD","306564083"
"NORTHEAST VALLEY HEALTH CORPORATION - VAN NUYS ADULT HEALTH","14624 SHERMAN WAY","34.20115","-118.4519","Los Angeles","6037127220","VAN NUYS","306198432"
"BELL GARDENS COMMUNITY HEALTH CENTER","6912 AJAX AVE","33.96996","-118.16294","Los Angeles","6037534102","BELL GARDENS","306194813"
"SAN DIEGO AMERICAN INDIAN HEALTH CENTER","2630 1ST AVE","32.73276","-117.16397","San Diego","6073006000","SAN DIEGO","306371581"
"OPERATION SAMAHAN COMMUNITY HEALTH CENTER","2835 HIGHLAND AVE","32.66009","-117.09165","San Diego","6073011602","NATIONAL CITY","306374426"
"LA MAESTRA COMMUNITY HEALTH CENTERS - MOBILE CLINIC","4060 FAIRMOUNT AVE","32.750539","-117.101346","San Diego","6073002202","SAN DIEGO","306374484"
"ALPINE FAMILY MEDICINE","1620 ALPINE BLVD","32.83782","-116.78003","San Diego","6073021205","ALPINE","306374351"
"QUEENSCARE HEALTH CENTERS","4816 E THIRD ST","34.03327","-118.16034","Los Angeles","6037531603","LOS ANGELES","306197997"
"AAA COMPREHENSIVE HEALTHCARE, INC.","7451 LANKERSHIM BLVD","34.2061812","-118.3880495","Los Angeles","6037122410","NORTH HOLLYWOOD","306197781"
"ELICA HEALTH CENTERS","3701 J ST","38.57057","-121.45683","Sacramento","6067001500","SACRAMENTO","306344153"
"DIAMOND NEIGHBORHOODS FAMILY HEALTH CENTER","4725 MARKET ST","32.71125","-117.09292","San Diego","6073003404","SAN DIEGO","306374513"
"FRIENDS OF FAMILY HEALTH CENTER","13152 NEWPORT AVE","33.74743","-117.81261","Orange","6059075506","TUSTIN","306304608"
"SILICON VALLEY PRIMARY CARE","2660 GRANT RD","37.36638","-122.07783","Santa Clara","6085509902","MOUNTAIN VIEW","306434270"
"TRI-CITY HEALTH CENTER","39500 LIBERTY ST","37.5485","-121.97742","Alameda","6001441927","FREMONT","306014156"
"CENTRAL VALLEY MEDICAL SERVICES CORPORATION","851 VAN NESS AVE","36.73312","-119.78752","Fresno","6019000100","FRESNO","306105113"
"UNICARE COMMUNITY HEALTH CENTER, INC.","16127 FOOTHILL BLVD","34.10653","-117.45296","San Bernardino","6071002803","FONTANA","306364568"
"TOTAL CARE MEDICAL CLINIC","1110 W ANAHEIM ST","33.7789638","-118.2758406","Los Angeles","6037294900","WILMINGTON","306197913"
"THE SABAN COMMUNITY CLINIC - HOLLYWOOD WILSHIRE HEALTH CENTER","5205 MELROSE AVE","34.08354","-118.3139","Los Angeles","6037191710","LOS ANGELES","306196283"
"THE SABAN COMMUNITY CLINIC - BEVERLY HEALTH CENTER","8405 BEVERLY BLVD","34.07608","-118.37347","Los Angeles","6037194500","LOS ANGELES","306190306"
"FHCCGLA MAYWOOD FAMILY MEDICAL CENTER","4943 SLAUSON AVE","33.9861","-118.17495","Los Angeles","6037533703","MAYWOOD","306198062"
"COMMUNITY MEDICAL WELLNESS CENTERS, USA","1360 EAST ANAHEIM STREET","33.78258","-118.17448","Los Angeles","6037576402","LONG BEACH","306198346"
"BENEVOLENCE HEALTH CENTER","611 E IMPERIAL HWY","33.93107","-118.26445","Los Angeles","6037240900","LOS ANGELES","306198068"
"ALTAMED MEDICAL GROUP - MONTEBELLO","2321 W WHITTIER BLVD","34.0136567","-118.1257481","Los Angeles","6037532001","MONTEBELLO","306197727"
"HERALD CHRISTIAN HEALTH CENTER","923 S SAN GABRIEL BLVD","34.09074","-118.09089","Los Angeles","6037481103","SAN GABRIEL","306197039"
"QUEENSCARE HEALTH CENTERS","150 N RENO ST","34.07274","-118.28041","Los Angeles","6037208610","LOS ANGELES","306191103"
"LIFEWAYS PACE AT THE CORONET","3575 GEARY BLVD","37.78123","-122.45767","San Francisco","6075015600","SAN FRANCISCO","306384222"
"ALLIANCE MEDICAL CENTER - WINDSOR","8465 OLD REDWOOD HWY","38.5433735","-122.8010239","Sonoma","6097153808","WINDSOR","306494115"
"REDWOOD COAST PACE","1901 CALIFORNIA ST","40.79042","-124.1719","Humboldt","6023000200","EUREKA","306124041"
"M.E.N.D.","10641 SAN FERNANDO RD","34.26324","-118.41912","Los Angeles","6037104610","PACOIMA","306197000"
"DUNSMUIR COMMUNITY HEALTH CENTER","4309 STAGECOACH RD","41.22249","-122.27627","Siskiyou","6093001100","DUNSMUIR","306474016"
"HILLCREST FAMILY HEALTH CENTER","4094 4TH AVE","32.75163","-117.16169","San Diego","6073000400","SAN DIEGO","306374534"
"FAMILIES TOGETHER OF ORANGE COUNTY","661 W FIRST ST","33.74578","-117.83125","Orange","6059075505","TUSTIN","306304576"
"OBRIA MEDICAL CLINICS OF SOUTHERN CALIFORNIA, INC.","1215 E CHAPMAN AVE","33.7878639","-117.8403932","Orange","6059075805","ORANGE","306304514"
"BENEVOLENCE HEALTH CENTER","805 W. LA VETA AVE","33.78064","-117.86079","Orange","6059076000","ORANGE","306304587"
"EDISON HEALTH CENTER","1425 S CENTER ST","37.93746","-121.28678","San Joaquin","6077002401","STOCKTON","306394057"
"SUTTER LAKESIDE COMMUNITY CLINIC","5196 HILL RD E","39.10522","-122.90816","Lake","6033000300","LAKEPORT","306174013"
"CENTRO MEDICO, OASIS","88775 76TH AVE","33.4989","-116.11723","Riverside","6065045605","THERMAL","306334585"
"WASHINGTON URGENT CARE","2500 MOWRY AVE","37.55594","-121.98234","Alameda","6001441923","FREMONT","306014170"
"HAWAIIAN GARDENS HEALTH CENTER","22310 WARDHAM AVE","33.82611","-118.06523","Los Angeles","6037555212","HAWAIIAN GARDENS","306196080"
"UNIVERSAL COMMUNITY HEALTH CENTER","1005 E WASHINGTON BLVD","34.02584","-118.25316","Los Angeles","6037226001","LOS ANGELES","306197581"
"ARIA COMMUNITY HEALTH CENTER","140 C ST","36.3011","-119.78238","Kings","6031000404","LEMOORE","306164031"
"ASIAN AND PACIFIC ISLANDER WELLNESS CENTER, INC.","726 POLK ST","37.78345","-122.41921","San Francisco","6075012402","SAN FRANCISCO","306384211"
"LA CLINICA NORTH VALLEJO","220 HOSPITAL DR","38.13111","-122.23977","Solano","6095251901","VALLEJO","306484058"
"CENTRAL NEIGHBORHOOD HEALTH FOUNDATION","17695 ARROW BLVD","34.09942","-117.41853","San Bernardino","6071002902","FONTANA","306364556"
"HAWTHORNE ELEMENTARY SCHOOL - BASED CLINIC","1700 28TH AVE","37.7820756","-122.2267139","Alameda","6001406202","OAKLAND","306014331"
"ALTAMED MEDICAL AND DENTAL GROUP - SOUTH GATE","8627 ATLANTIC AVE","33.95448","-118.18374","Los Angeles","6037536000","SOUTH GATE","306198408"
"LIFELONG MEDICAL CARE - HOWARD DANIEL CLINIC","9933 MACARTHUR BLVD","37.74638","-122.1566","Alameda","6001410200","OAKLAND","306014255"
"PEOPLES COMMUNITY CLINIC","4139 VERDUGO RD","34.12609","-118.232281","Los Angeles","6037186100","LOS ANGELES","306197677"
"COALINGA VALLEY HEALTH, INC. - COALINGA","1145 PHELPS AVE","36.1515087","-120.339875","Fresno","6019007902","COALINGA","306105013"
"WOLVES WELLNESS CENTER","1617 MAIN ST","37.37648","-120.72341","Merced","6047000304","LIVINGSTON","306244061"
"CENTRO MEDICO, COACHELLA","55497 VAN BUREN ST","33.6456052","-116.19882","Riverside","6065045609","THERMAL","306334672"
"LIFE NETWORK, INC. DBA NETWORK MEDICAL","185 S PATTERSON AVE","34.43551","-119.80913","Santa Barbara","6083003001","SANTA BARBARA","306424071"
"SOUTHLAND HEALTH CENTER","9862 CHAPMAN AVE","33.78849","-117.96083","Orange","6059088203","GARDEN GROVE","306304484"
"VAN NUYS MEDICAL AND MENTAL HEALTH SERVICES","6265 SEPULVEDA BLVD","34.1842467","-118.4666595","Los Angeles","6037127711","VAN NUYS","306195016"
"CRENSHAW COMMUNITY CLINIC","3631 CRENSHAW BLVD","34.0229107","-118.3351553","Los Angeles","6037220000","LOS ANGELES","306197674"
"ALL FOR HEALTH, HEALTH FOR ALL, INC.","401 S GLENOAKS BLVD","34.18081","-118.30299","Los Angeles","6037310702","BURBANK","306197670"
"POMONA COMMUNITY HEALTH CENTER","1450 E HOLT AVE","34.0619","-117.721501","Los Angeles","6037402702","POMONA","306197671"
"QUEENSCARE HEALTH CENTERS","4618 FOUNTAIN AVE","34.09558","-118.29034","Los Angeles","6037191302","LOS ANGELES","306194816"
"ALTAMED MEDICAL AND DENTAL GROUP - EAST LOS ANGELES 1ST STREET","2219  E 1ST ST","34.0446","-118.21164","Los Angeles","6037204420","LOS ANGELES","306197668"
"ARROYO VISTA FAMILY HEALTH CENTER-ES HUNTINGTON DRIVE","4837 HUNTINGTON DR N","34.08601","-118.17905","Los Angeles","6037201401","LOS ANGELES","306197165"
"CHAP - LAKE","1800 N LAKE AVE","34.17684","-118.13187","Los Angeles","6037461300","PASADENA","306197400"
"KING-CHAVEZ HEALTH CENTER","950 S EUCLID AVE","32.69609","-117.085623","San Diego","6073003305","SAN DIEGO","306374491"
"CAMINO HEALTH CENTER - LAKE FOREST","22481 ASPAN ST","33.63578","-117.71265","Orange","6059052410","LAKE FOREST","306304613"
"FRIENDS OF FAMILY HEALTH CENTER","501 S IDAHO ST","33.92754","-117.95922","Orange","6059001301","LA HABRA","306304415"
"NHAN HOA COMPREHENSIVE HEALTH CLINIC","7761 GARDEN GROVE BLVD","33.7737625","-117.9965785","Orange","6059099801","GARDEN GROVE","306304465"
"NORTH MARKS MEDICAL CLINIC","4011 N MARKS AVE","36.79405","-119.84434","Fresno","6019004205","FRESNO","306105106"
"GOLDEN VALLEY HEALTH CENTER","1200 W MAIN ST","37.4928188","-120.8627718","Stanislaus","6099003804","TURLOCK","306504070"
"LAKE COUNTY TRIBAL HEALTH CONSORTIUM","925 BEVINS CT","39.03771","-122.92209","Lake","6033000400","LAKEPORT","306174006"
"LA CLINICA VALLEJO GREAT BEGINNINGS","210 HOSPITAL DR","38.1309555","-122.2403715","Solano","6095251901","VALLEJO","306484048"
"MCKINLEYVILLE COMMUNITY HEALTH CENTER","1644 CENTRAL AVE","40.93506","-124.10096","Humboldt","6023010501","MCKINLEYVILLE","306124017"
"WILLOW CREEK COMMUNITY HEALTH CENTER","38883 HWY 299","40.93992","-123.63354","Humboldt","6023010102","WILLOW CREEK","306124016"
"WESLEY HEALTH CENTERS (VERMONT)","954 N VERMONT AVE","34.08902","-118.29171","Los Angeles","6037191410","LOS ANGELES","306198429"
"AXIS COMMUNITY HEALTH","4361 RAILROAD AVE","37.66145","-121.87371","Alameda","6001450607","PLEASANTON","306010834"
"CLOVIS COMMUNITY HEALTH CENTER","180 W SHAW AVE","36.80839","-119.71252","Fresno","6019003102","CLOVIS","306105112"
"FRESNO COUNTY E.O.C. HEALTH CLINIC","1047 R ST","36.74037","-119.78264","Fresno","6019000502","FRESNO","306100716"
"GOLDEN VALLEY HEALTH CENTER","1121 HAMMOND ST","37.61521","-121.01867","Stanislaus","6099001604","MODESTO","306504017"
"EASTSIDE HEALTH CENTER","1970 UNIVERSITY AVE","33.97556","-117.3544","Riverside","6065030501","RIVERSIDE","306334505"
"CENTRAL CITY COMMUNITY HEALTH CENTER","1860 HAMNER AVE","33.9090295","-117.5612437","Riverside","6065046602","NORCO","306334643"
"FEATHER RIVER TRIBAL HEALTH, INC. - YUBA CITY OFFICE","555 W ONSTOTT RD","39.1293321","-121.6353703","Sutter","6101050501","YUBA CITY","306514045"
"FEATHER RIVER TRIBAL HEALTH, INC.","2145 5TH AVE","39.50353","-121.5647","Butte","6007002800","OROVILLE","306042284"
"FRAZIER MOUNTAIN COMMUNITY HEALTH CENTER","704 LEBEC RD","34.82079","-118.8844","Kern","6029003306","LEBEC","306154132"
"CLINICA DE SALUD DEL VALLE DE SALINAS-SANBORN","219 N SANBORN RD","36.67713","-121.6267","Monterey","6053000502","SALINAS","306274023"
"STANTON HEALTHCARE MOBILE CLINIC","1003 SNOWBIRD RD","34.36316","-117.6399","San Bernardino","6071009201","WRIGHTWOOD","306364591"
"VISTA COMMUNITY CLINIC - PIER VIEW WAY","818 PIER VIEW WAY","33.198492","-117.377534","San Diego","6073018400","OCEANSIDE","306374180"
"EL DORADO COUNTY COMMUNITY HEALTH CENTER","4327 GOLDEN CENTER DR","38.70636","-120.82764","El Dorado","6017031502","PLACERVILLE","306094023"
"MONTAGE MEDICAL GROUP","23845 HOLMAN HWY","36.57623","-121.91381","Monterey","6053012800","MONTEREY","306274096"
"EAST CLIFF FAMILY HEALTH CENTER","21507 E CLIFF DR","36.96348","-121.99067","Santa Cruz","6087121500","SANTA CRUZ","306444028"
"ROHNERT PARK HEALTH CENTER","5900 STATE FARM DR","38.35354","-122.70727","Sonoma","6097151308","ROHNERT PARK","306494133"
"M.A.C.T MEDICAL CLINIC, MARIPOSA","5192 HOSPITAL RD","37.50099","-119.97718","Mariposa","6043000101","MARIPOSA","306224005"
"ARIA COMMUNITY HEALTH CENTER KETTLEMAN CITY","304 BECKY PEASE ST","36.0095","-119.9602","Kings","6031001601","KETTLEMAN CITY","306164040"
"COASTAL VALLEY HEALTH CENTER","1510 E MAIN ST","34.95283","-120.4102","Santa Barbara","6083002211","SANTA MARIA","306424084"
"MONTPELIER HEALTH CENTER","2380 MONTPELIER DR","37.3650801","-121.8472841","Santa Clara","6085503712","SAN JOSE","306434255"
"MAR MONTE COMMUNITY CLINIC","2470 ALVIN AVE","37.31946","-121.82685","Santa Clara","6085503304","SAN JOSE","306430761"
"ELICA HEALTH CENTERS","155 15TH ST","38.57106","-121.52586","Yolo","6113010201","WEST SACRAMENTO","306344157"
"COMMUNITY HEALTH CENTERS - NEW CUYAMA","4711 HWY 166","34.94638","-119.6835","Santa Barbara","6083001800","NEW CUYAMA","306424091"
"LA MAESTRA COMMUNITY HEALTH CENTERS - EL CAJON BROADWAY","1032 BROADWAY","32.80773","-116.94658","San Diego","6073016502","EL CAJON","306374562"
"ANDERSON VALLEY HEALTH CENTER, INC","13500 AIRPORT RD","39.01238","-123.37939","Mendocino","6045011200","BOONVILLE","306232313"
"SHASTA COMMUNITY HEALTH CENTER","1035 PLACER ST","40.58333","-122.38601","Shasta","6089010100","REDDING","306454008"
"FLORENCE MEDICAL CLINIC","1039 W FLORENCE AVE","33.9748826","-118.2933268","Los Angeles","6037237401","LOS ANGELES","306197675"
"BELL GARDENS FAMILY MEDICAL CENTER","6501 GARFIELD AVE","33.97292","-118.14756","Los Angeles","6037533902","BELL GARDENS","306194613"
"OBRIA MEDICAL CLINICS OF SOUTHERN CALIFORNIA, INC.","261 E WILLOW ST","33.8056763","-118.1902819","Los Angeles","6037572202","LONG BEACH","306197386"
"USC-EISNER FAMILY MEDICINE CENTER AT CALIFORNIA HOSPITAL","1400 S GRAND AVE","34.03692","-118.26551","Los Angeles","6037224010","LOS ANGELES","306197559"
"JEFFREY GOODMAN SPECIAL CARE CLINIC","1625 SCHRADER BLVD","34.10026","-118.33249","Los Angeles","6037190700","LOS ANGELES","306194433"
"POINT ARENA COMMUNITY HEALTH CENTER","30 MILL ST","38.90847","-123.6916","Mendocino","6045011102","POINT ARENA","306234032"
"INDIAN HEALTH CENTER OF SANTA CLARA VALLEY","455 OCONNOR DR","37.32612","-121.9399","Santa Clara","6085502001","SAN JOSE","306434234"
"REALOPTIONS","12 N WHITE RD","37.3662033","-121.8283379","Santa Clara","6085503902","SAN JOSE","306434230"
"ST. PAULS PACE","630 L ST","32.6162532","-117.0852857","San Diego","6073013103","CHULA VISTA","306374477"
"IBARRA FAMILY HEALTH CENTER","4874 POLK AVE","32.75136","-117.08956","San Diego","6073002707","SAN DIEGO","306374535"
"FAMILY HEALTHCARE NETWORK","401 E SCHOOL AVE","36.33286","-119.28844","Tulare","6107001200","VISALIA","306544096"
"FAMILY HEALTH ON COMMERCIAL","2325 COMMERCIAL ST","32.70518","-117.143","San Diego","6073004900","SAN DIEGO","306374539"
"OAK PARK FAMILY HEALTH CENTER","5160 FEDERAL BLVD","32.72148","-117.08354","San Diego","6073002712","SAN DIEGO","306374558"
"EL CAJON FAMILY HEALTH CENTER","525 E. MAIN ST","32.79492","-116.95597","San Diego","6073015802","EL CAJON","306374559"
"RICE FAMILY HEALTH CENTER","352 L ST","32.61997","-117.07394","San Diego","6073013102","CHULA VISTA","306374493"
"BIRTH CHOICE OF SAN MARCOS","277 S RANCHO SANTA FE RD","33.14357","-117.2015","San Diego","6073020029","SAN MARCOS","306374566"
"LAS PALMAS HEALTH CENTER","1010 W LAS PALMAS AVE","37.46665","-121.14234","Stanislaus","6099003202","PATTERSON","306504100"
"KINGS WINERY MEDICAL CLINIC","4929 E KINGS CANYON RD","36.73603","-119.73071","Fresno","6019002903","FRESNO","306104048"
"GOLDEN VALLEY HEALTH CENTER","301 HOWARD RD","37.54476","-121.19809","Stanislaus","6099003300","WESTLEY","306504033"
"AMPLA HEALTH YUBA CITY MEDICAL","1000 SUTTER ST","39.1444","-121.61373","Sutter","6101050101","YUBA CITY","306514041"
"EISNER PEDIATRIC AND FAMILY MEDICAL CENTER - VAN NUYS","6618 VAN NUYS BLVD","34.19123","-118.44871","Los Angeles","6037128102","VAN NUYS","306198275"
"EISNER PEDIATRIC AND FAMILY MEDICAL CENTER - SHERMAN OAKS","15477 VENTURA BLVD","34.15467","-118.47116","Los Angeles","6037141400","SHERMAN OAKS","306198274"
"ALL FOR HEALTH, HEALTH FOR ALL, INC,.","800 S CENTRAL AVE","34.13653","-118.25782","Los Angeles","6037302401","GLENDALE","306198067"
"MEDICAL CLINIC AT BAYVIEW","2238 BAYVIEW HEIGHTS DR","35.31045","-120.833091","San Luis Obispo","6079010707","LOS OSOS","306404094"
"MEDICAL CLINIC AT PEACH","1250 PEACH ST","35.28652","-120.65992","San Luis Obispo","6079011101","SAN LUIS OBISPO","306404093"
"ORCUTT WALK-IN HEALTH CENTER","1102 E CLARK AVE","34.865","-120.41853","Santa Barbara","6083002005","SANTA MARIA","306424106"
"LIFE CENTERS OF VENTURA COUNTY","600 N A ST","34.20821","-119.17845","Ventura","6111003300","OXNARD","306564258"
"ORCUTT FAMILY HEALTH CENTER","5075 S BRADLEY RD","34.86402","-120.41881","Santa Barbara","6083002005","SANTA MARIA","306424108"
"CLINICAS DEL CAMINO REAL, INC. - MOORPARK","4279 TIERRA REJADA RD","34.2691361","-118.8990661","Ventura","6111007607","MOORPARK","306564230"
"ALL FOR HEALTH, HEALTH FOR ALL, INC.","5855 CAPISTRANO AVE","35.49024","-120.66408","San Luis Obispo","6079012502","ATASCADERO","306404100"
"CHAPCARE - LINCOLN","2055 LINCOLN AVE","34.181036","-118.159705","Los Angeles","6037460900","PASADENA","306198092"
"BENEVOLENCE HEALTH CENTER","934 ATLANTIC AVE","33.77841","-118.18502","Los Angeles","6037576301","LONG BEACH","306198284"
"WESLEY HEALTH CENTERS (HACIENDA HEIGHTS)","15898 E GALE AVE","34.01001","-117.96032","Los Angeles","6037408630","HACIENDA HEIGHTS","306198296"
"ALL FOR HEALTH, HEALTH FOR ALL, INC","8134 FOOTHILL BLVD","34.25965","-118.31066","Los Angeles","6037103400","SUNLAND","306197953"
"WELLNESS CENTER AT JEFFERSON HIGH SCHOOL","3410 HOOPER AVE","34.012756","-118.2521424","Los Angeles","6037228210","LOS ANGELES","306197842"
"ALL FOR HEALTH, HEALTH FOR ALL, INC","1030 S GLENDALE AVE","34.13375","-118.25192","Los Angeles","6037302504","GLENDALE","306197954"
"AHF HEALTHCARE CENTER-VALLEY","4835 VAN NUYS BLVD","34.15864","-118.44874","Los Angeles","6037128910","SHERMAN OAKS","306196135"
"SOS-EL SOL WELLNESS CENTER","1014 N. BROADWAY","33.75358","-117.86972","Orange","6059075003","SANTA ANA","306304571"
